{"type":"FeatureCollection","features":[{"type":"Feature","properties":{"name":"La Repartidora","SSEDAS_PARTNER":"CERAI","addr:country":"ES","addr:street":"Calle del Arquitecto Arnau","addr:housenumber":"5","addr:postcode":"46020","addr:city":"Valencia","POI_TYPE":"Association Office","office":"association","description:es":"Libreria y tienda asociativa. Formación e investigación social","type_of_initiative":"other; sse_education; sse_research","image":"http://larepartidora.org/wp-content/uploads/2014/11/logo_larepar1.png","website":"http://www.larepartidora.org","contact:email":"larepartidora@larepartidora.org","organic":"limited","fair-trade":"limited","regional":"limited","free_keywords":"Culture / recreation / leisure;Education & Training;Media"},"geometry":{"type":"Point","coordinates":[-0.356849,39.483787]}},{"type":"Feature","properties":{"name":"LA BEZINDALLA","SSEDAS_PARTNER":"CERAI","addr:country":"ES","addr:street":"Calle Pilar Aranda","addr:housenumber":"24, local","addr:city":"ZARAGOZA","POI_TYPE":"Association Office","office":"association","description:es":"Organización Comunitaria","type_of_initiative":"other","image":"http://www.labezindalla.es/img/logo.jpg","website":"http://www.labezindalla.es","contact:email":"cooperativa@labezindalla.es","contact:phone":"+34 976004777;+34 601332639","organic":"no","fair-trade":"no","regional":"yes","free_keywords":"Active Citizenship;Social inclusion"},"geometry":{"type":"Point","coordinates":[-0.92209315071,41.65122231458]}},{"type":"Feature","properties":{"name":"2+DOS. DISEÑO GRÁFICO","SSEDAS_PARTNER":"CERAI","addr:country":"ES","addr:street":"Calle Cuarta","addr:housenumber":"3","addr:city":"ZARAGOZA","POI_TYPE":"Design Studio","description:es":"Servicios de diseño gráfico, diseño editorial, diseño web e ilustración","type_of_initiative":"other","image":"http://www.economiasolidaria.org/files/imagecache/entidades/peque_0.JPG","website":"http://www.dosmasdos.info","contact:website":"http://www.dosmasdos.info/dosmasdos_contacta.html","contact:email":"creativas@dosmasdos.info","contact:phone":"+34 976504696;+34 668891510","organic":"no","fair-trade":"no","regional":"yes","free_keywords":"Media"},"geometry":{"type":"Point","coordinates":[-0.94938952678,41.5822853782]}},{"type":"Feature","properties":{"name":"SOKIO","SSEDAS_PARTNER":"CERAI","addr:country":"ES","addr:street":"Calle Cueva de la Pileta","addr:housenumber":"3 5ºB","addr:postcode":"41020","addr:city":"Sevilla","POI_TYPE":"Association Office","office":"association","description:es":"Red de aprendizaje para otra economía: cooperativa base para iniciativas de transformación social","type_of_initiative":"networking_initiative; consumerism_awareness; sse_education; sse_research; ngo","image":"http://www.economiasolidaria.org/files/imagecache/entidades/SOKIO.png","website":"http://www.redsokio.org/","contact:email":"hola@redsokio.org","organic":"limited","fair-trade":"limited","regional":"yes","free_keywords":"Alternative economic interaction;Education & Training"},"geometry":{"type":"Point","coordinates":[-5.94022858231,37.40194957138]}},{"type":"Feature","properties":{"name":"Del Camp a la Taula","SSEDAS_PARTNER":"CERAI","addr:country":"ES","addr:street":"Calle de San Antonio","addr:housenumber":"24","addr:postcode":"46470","addr:city":"Albal, Valencia","POI_TYPE":"farm","landuse":"farmyard","description:es":"Agricultura ecológica","type_of_initiative":"other_buylocal","image":"https://scontent-mad1-1.xx.fbcdn.net/hprofile-ash2/v/t1.0-1/c31.0.160.160/p160x160/1003345_364137647049384_1470836210_n.jpg?oh=eccba386f7b4038741175789e602d41e&oe=5774A54B","website":"www.facebook.com/AssociacioDelCampalaTaula/ @delcampalataula","contact:email":"info.delcampalataula@gmail.com","organic":"yes","fair-trade":"no","regional":"limited","free_keywords":"Food & Agriculture;Education & Training"},"geometry":{"type":"Point","coordinates":[-0.417471,39.398933]}},{"type":"Feature","properties":{"name":"ASOCIACIÓN MATILDE","SSEDAS_PARTNER":"CERAI","addr:country":"ES","addr:street":"Calle Fenicios","addr:housenumber":"17","addr:postcode":"21660","addr:city":"Minas de Riotinto. HUELVA","POI_TYPE":"Association Office","description:es":"La asociación Matildeestá estrechamente vinculada a la Cuenca Minera de Riotinto. La historia como senda, la cultura popular como seña, la antropología como mirada, lo social y ecológico como horizonte y el sentimiento como motor, han hecho posible el germinar una asociación cuyos principios fundacionales son la justicia social, la cooperación, la integración social y la sostenibilidad social y medio ambiental. Persigue la declaración de “Lugar de Interés Etnológico para el entorno de los huertos de la Cuenca Minera de Riotinto”.","type_of_initiative":"other","website":"http://www.asociacionmatilde.org/","contact:website":"http://www.asociacionmatilde.org/contacto.html","contact:email":"info@asociacionmatilde.org","organic":"limited","fair-trade":"no","regional":"yes","free_keywords":"Active Citizenship;Food & Agriculture;Culture / recreation / leisure"},"geometry":{"type":"Point","coordinates":[-6.59006081379,37.69647383546]}},{"type":"Feature","properties":{"name":"YACARANDAR","SSEDAS_PARTNER":"CERAI","addr:country":"ES","addr:street":"Calle Arnal Cavero","addr:housenumber":"28, local 6","addr:city":"ZARAGOZA","POI_TYPE":"Association Office","office":"association","description:es":"Salud, arte, servicios sociales","type_of_initiative":"other","image":"http://www.economiasolidaria.org/files/imagecache/entidades/yacarandar_logo.jpg","website":"http://www.yacarandar.com/","contact:website":"http://www.yacarandar.com/contacto.html","contact:email":"info@yacarandar.com","organic":"limited","fair-trade":"no","regional":"limited","free_keywords":"Culture / recreation / leisure"},"geometry":{"type":"Point","coordinates":[-0.86589014301,41.65783770028]}},{"type":"Feature","properties":{"name":"BIROSTA BAR VEGETARIANO (EL ESQUEJE S.COOP.)","SSEDAS_PARTNER":"CERAI","addr:country":"ES","addr:street":"Calle Universidad San Jorge","addr:housenumber":"3, local","addr:city":"ZARAGOZA","POI_TYPE":"Restaurant","amenity":"restaurant","description:es":"Bar vegetariano, restauración sostenible","type_of_initiative":"other","image":"http://www.economiasolidaria.org/files/imagecache/entidades/logo.JPG","website":"http://www.birosta.com","contact:website":"http://www.birosta.com/#!/donde-estamos/","contact:email":"birosta@birosta.com","contact:phone":"+34 976205333;+34 675817651","organic":"yes","fair-trade":"limited","regional":"yes","free_keywords":"Gastronomy;Food & Agriculture;Fair Trade"},"geometry":{"type":"Point","coordinates":[-0.87335663999,41.65261052332]}},{"type":"Feature","properties":{"name":"CERAI","SSEDAS_PARTNER":"CERAI","addr:country":"ES","addr:street":"Camino del Puerto","addr:housenumber":"s/n","addr:postcode":"46470","addr:city":"Catarroja, Valencia","POI_TYPE":"Association Office","office":"association","description":"RURAL DEVELOPMENT ORGANIZATION","description:es":"ONG de Desarrollo Rural","type_of_initiative":"agro_empowerment; ngo","image":"https://encrypted-tbn3.gstatic.com/images?q=tbn:ANd9GcT_09OYa5AWibDM9PKVZziwdjyMlzQCXm7EbHA_fRLCEryqd0ARwzkYdrw","website":"Www.cerai.org","contact:email":"info@cerai.org","contact:phone":"+34 963 52 18 78","organic":"yes","fair-trade":"limited","regional":"yes","free_keywords":"Food & Agriculture;Education & Training;Social inclusion"},"geometry":{"type":"Point","coordinates":[-0.381856,39.394393]}},{"type":"Feature","properties":{"name":"Muestra Agroecológica de Zaragoza","SSEDAS_PARTNER":"CERAI","addr:country":"ES","addr:street":"Calle de José Sinués y Urbiola","addr:housenumber":"1","addr:city":"Zaragoza","POI_TYPE":"farmers market","amenity":"marketplace","description:es":"Mercado directo de agricultores locales ecológicos. Es un punto de encuentro entre agricultores locales y ciudadanos, que ha permitido recuperar el contacto directo entre productor y consumidor. Su finalidad es crear conciencia social en torno al consumo sostenible y respetuoso con el medio ambiente y promover la soberanía alimentaria desde lo local.","type_of_initiative":"other_buylocal; local_farmersmarket; networking_initiative; consumerism_awareness","image":"https://3.bp.blogspot.com/-3rcpFHDWhKY/Tykrt71oaCI/AAAAAAAAAkc/8Rj0mF_KNeE/s113/nuevo%2Blogo%2Bmercado%2Bagroecologico.JPG","website":"http://mercadoagroecologicozaragoza.blogspot.com.es/","contact:email":"meragroecozgz@gmail.com","opening_hours":"Sat: 9.00-14.00","organic":"only","fair-trade":"no","regional":"yes","free_keywords":"Regular Farmers Market with local producers"},"geometry":{"type":"Point","coordinates":[-0.879148,41.652408]}},{"type":"Feature","properties":{"name":"AMAI-AGENCIA MEDIO AMBIENTAL IBÓN","SSEDAS_PARTNER":"CERAI","addr:country":"ES","addr:street":"Paseo Echegaray y Caballero","addr:housenumber":"122, 4º izquierda","addr:city":"ZARAGOZA","POI_TYPE":"Association Office","office":"association","description:es":"Divulgación ambiental","type_of_initiative":"other","image":"http://www.economiasolidaria.org/files/imagecache/entidades/logoamai.JPG","website":"http://mercadosocial.konsumoresponsable.coop/entidad/agencia-medio-ambiental-ibon-amai#contactar","contact:email":"amaibon@comunired.com","organic":"limited","fair-trade":"no","regional":"yes","free_keywords":"Education & Training;Active Citizenship"},"geometry":{"type":"Point","coordinates":[-0.8733252264,41.65493992031]}},{"type":"Feature","properties":{"name":"Enclau, Red para la Financiación Alternativa","SSEDAS_PARTNER":"CERAI","addr:country":"ES","addr:street":"Calle Camino Viejo de Xirivella","addr:housenumber":"11","addr:postcode":"46014","addr:city":"Valencia","POI_TYPE":"Association Office","office":"association","description:es":"Red de finanza éticas","type_of_initiative":"networking_initiative; ethicalfinance_education","image":"http://enclau.org/wp-content/uploads/2014/10/logo-enclau.jpg","website":"http://enclau.org/","contact:website":"http://enclau.org/contactans/","contact:email":"administrador@enclau.org","organic":"limited","fair-trade":"limited","regional":"limited","free_keywords":"Finance;Alternative economic interaction"},"geometry":{"type":"Point","coordinates":[-0.40971663642,39.4725197175]}},{"type":"Feature","properties":{"name":"Grupo la Veloz S. Coop. ECOMENSAJERÍA LA VELOZ","SSEDAS_PARTNER":"CERAI","addr:country":"ES","addr:street":"Calle Mayoral","addr:housenumber":"9, local 2","addr:city":"ZARAGOZA","POI_TYPE":"coworking space / association office","description:es":"Mensajería, transporte urgente, logística y distribución","type_of_initiative":"other","image":"http://www.economiasolidaria.org/files/imagecache/entidades/logoweb.JPG","website":"http://www.grupolaveloz.com/","contact:email":"ecomensajeria@grupolaveloz.com","contact:phone":"+34 976761943;+34 976438111","organic":"limited","fair-trade":"no","regional":"yes","free_keywords":"Infrastructure"},"geometry":{"type":"Point","coordinates":[-0.88938857678,41.65571083911]}},{"type":"Feature","properties":{"name":"ALMOCAFRE","SSEDAS_PARTNER":"CERAI","addr:country":"ES","addr:street":"Avenida de los Custodios","addr:housenumber":"5","addr:city":"Córdoba","POI_TYPE":"organic store","description:es":"Cooperativa de consumidores y productores ecológicos desde 1994. Nuestros objetivos son: promover y fomentar el consumo y producción de alimentos y bienes a nivel local provenientes de la agricultura ecológica; Desarrollar un proyecto de máximo beneficio social, autogestionario y solidario; Colaborar con otras entidades con fines similares; Potenciar productos ecológicos provenientes de la agricultura familiar y de cooperativas de agricultura con carácter social.","type_of_initiative":"food_cooperative; networking_initiative; other_communities","image":"http://www.almocafre.com/_imagenes/logo.png","organic":"yes","fair-trade":"yes","regional":"yes","free_keywords":"Food & Agriculture; Active Citizenship; Education & Training"},"geometry":{"type":"Point","coordinates":[-4.788725,37.875986]}},{"type":"Feature","properties":{"name":"ENREDA","SSEDAS_PARTNER":"CERAI","addr:country":"ES","addr:street":"Avenida República Argentina","addr:housenumber":"25, 9ª Planta (espacio RES)","addr:city":"Sevilla","POI_TYPE":"Company office","office":"company","description:es":"Cooperativa andaluza de conocimiento libre con ocho años de recorrido profesional. Nuestro objetivo fundacional es implementar, desde la experiencia, dinámicas y herramientas que favorezcan la soberanía tecnológica de la ciudadanía.","type_of_initiative":"other_education; networking_initiative; social_incubators; other; sse_education; sse_research","image":"http://www.economiasolidaria.org/files/imagecache/imagen_entidades/logo_enreda_horizontal_fondo_transparente.png","website":"http://enreda.coop/","contact:email":"info@enreda.coop","organic":"no","fair-trade":"no","regional":"no","free_keywords":"Active Citizenship;Education & Training"},"geometry":{"type":"Point","coordinates":[-6.00187768325,37.37762870676]}},{"type":"Feature","properties":{"name":"Un Piso Adelante","SSEDAS_PARTNER":"CERAI","addr:country":"ES","addr:street":"Plaza Pablo Picasso","addr:housenumber":"15 - 6","addr:postcode":"46530","addr:city":"Puzol, Valencia","POI_TYPE":"Company office","office":"company","description":"ethic real estate","description:es":"Inmobiliaria ética","type_of_initiative":"other","image":"http://www.unpisoadelante.com/images/logo.png","website":"https://www.facebook.com/unpisoadelante/ ; www.unpisoadelante.com","contact:website":"http://www.unpisoadelante.com/index.html#services","contact:email":"info@unpisoadelante.com","contact:phone":"+34 625070700","organic":"no","fair-trade":"no","regional":"no","free_keywords":"Housing & habitat"},"geometry":{"type":"Point","coordinates":[-0.309916,39.613851]}},{"type":"Feature","properties":{"name":"SUBBÉTICA ECOLÓGICA","SSEDAS_PARTNER":"CERAI","addr:country":"ES","addr:street":"Senda del Caz","addr:housenumber":"4","addr:postcode":"14940","addr:city":"Cabra, CÓRDOBA","POI_TYPE":"consumer cooperative (food coop)","office":"association","description:es":"Trabajar en pro del desarrollo sostenible, a través de la producción y el consumo ecológico","type_of_initiative":"networking_initiative; consumerism_awareness; sse_education; sse_research","image":"http://www.economiasolidaria.org/files/imagecache/entidades/LOGO_0.jpg","website":"http://www.subbeticaecologica.com/","contact:email":"info@subbeticaecologica.com","organic":"yes","fair-trade":"limited","regional":"yes","free_keywords":"Food & Agriculture;Alternative economic interaction"},"geometry":{"type":"Point","coordinates":[-4.438552,37.474495]}},{"type":"Feature","properties":{"name":"TIEBEL","SSEDAS_PARTNER":"CERAI","addr:country":"ES","addr:street":"Calle Pantano de la Sotonera","addr:housenumber":"3, puerta 4","addr:city":"ZARAGOZA","POI_TYPE":"floorer","craft":"floorer","description:es":"Servicios de Limpieza Profesional, Ayuda a Domicilio, Formación Ocupacional y Animación Sociocultural","type_of_initiative":"other","image":"http://www.economiasolidaria.org/files/imagecache/entidades/Logo%20tiebel.jpg","website":"http://www.tiebelcooperativa.com","contact:website":"http://www.tiebelcooperativa.com","contact:email":"tiebel@tiebelcooperativa.com","organic":"limited","fair-trade":"no","regional":"limited","free_keywords":"Social inclusion;Reduce, reuse, repair, recycle"},"geometry":{"type":"Point","coordinates":[-0.875357,41.669055]}},{"type":"Feature","properties":{"name":"BASE DIGITAL","SSEDAS_PARTNER":"CERAI","addr:country":"ES","addr:street":"Calle San Agustín","addr:housenumber":"4","addr:city":"ZARAGOZA","POI_TYPE":"Association Office","office":"association","description:es":"Diseño Gráfico y Producción Editorial","type_of_initiative":"other","image":"http://www.economiasolidaria.org/files/imagecache/entidades/logobasedigital.JPG","website":"http://www.basedigital.net/","contact:email":"disenio@basedigital.net","contact:phone":"+34 976203869;+34 653500751","free_keywords":"Media"},"geometry":{"type":"Point","coordinates":[-0.8727643,41.6518673]}},{"type":"Feature","properties":{"name":"Sistema Participativo Ecollaures","SSEDAS_PARTNER":"CERAI","addr:country":"ES","addr:street":"Calle Salvador Almenar","addr:housenumber":"5","addr:postcode":"46020","addr:city":"VALENCIA","POI_TYPE":"Association Office","office":"association","description:es":"Sistema participativo de garantía de producción agroecológica de la Comunidad Valenciana.","type_of_initiative":"other; other_buylocal; networking_initiative; agroecology_education; agro_empowerment","image":"https://encrypted-tbn3.gstatic.com/images?q=tbn:ANd9GcSrKP4xqQ4FUWuP_sjrlpzDE9wGQQXyLihCFNLo2-tNqZNXPC7n9R8vP1wZ","website":"www.ecollaures.org","contact:email":"spgecollaures@gmail.com","organic":"yes","fair-trade":"no","regional":"yes","free_keywords":"Food & Agriculture;Alternative economic interaction"},"geometry":{"type":"Point","coordinates":[-0.36146616882,39.4879121123]}},{"type":"Feature","properties":{"name":"IDEMA-INICIATIVAS DE DESARROLLO Y MEDIOAMBIENTE","SSEDAS_PARTNER":"CERAI","addr:country":"ES","addr:street":"Paseo de las Damas","addr:housenumber":"36, 1º izquierda","addr:city":"ZARAGOZA","POI_TYPE":"Association Office","office":"association","description:es":"Consultora en los ámbitos de la sostenibilidad, participación ciudadana, planificación estratégica, educación ambiental y diseño gráfico y web","type_of_initiative":"other; other_participation; social_incubators","image":"http://www.economiasolidaria.org/files/imagecache/entidades/logo_idema1.JPG","website":"http://www.idema.info","contact:email":"idema@idema.info","organic":"yes","fair-trade":"no","regional":"yes","free_keywords":"Education & Training;Active Citizenship"},"geometry":{"type":"Point","coordinates":[-0.88307773838,41.64358802461]}},{"type":"Feature","properties":{"name":"AUTONOMÍA SUR S. COOP. AND","SSEDAS_PARTNER":"CERAI","addr:country":"ES","addr:street":"Calle Historiador Juan Manzano","addr:housenumber":"s/n. Portal 2","addr:city":"Dos Hermanas. SEVILLA","POI_TYPE":"Association Office","office":"association","description:es":"Desde 2007. Asesoramiento jurídico de sindicatos, asesoramiento económico-empresarial de entidades de la economía social andaluza (cooperativas, asociaciones, sociedades laborales, etc.) y elaboración de documentos y espacios formativos que analicen la sociedad andaluza para la transformación.","type_of_initiative":"social_incubators; sse_education; sse_research","image":"http://autonomiasur.org/web/wp-content/uploads/2014/07/logo-autonomiasur.png","website":"http://autonomiasur.org/","contact:website":"http://autonomiasur.org/web/contacta/","contact:email":"asesoria@autonomiasur.org","opening_hours":"Mon-Fri: 09:00-15:00, 16:00-19:00","organic":"limited","fair-trade":"no","regional":"yes","free_keywords":"Active Citizenship;Social inclusion"},"geometry":{"type":"Point","coordinates":[-5.932667,37.345663]}},{"type":"Feature","properties":{"name":"SANTA CLETA","SSEDAS_PARTNER":"CERAI","addr:country":"ES","addr:street":"Calle Fray Diego de Cádiz","addr:housenumber":"24","addr:postcode":"41003","addr:city":"Sevilla","POI_TYPE":"bicycle store","shop":"bicycle","description:es":"Cooperativa Andaluza dedicada a la bicicleta como transporte urbano.","type_of_initiative":"other_infraressources","image":"http://www.economiasolidaria.org/files/imagecache/entidades/logo%20santacleta.gif","website":"http://www.santacleta.com/","contact:website":"http://www.santacleta.com/contacto.php","contact:email":"info@santacleta.com","contact:phone":"+34 955 294 284","organic":"no","fair-trade":"no","regional":"yes","free_keywords":"Culture / recreation / leisure; Reduce, reuse, repair, recycle"},"geometry":{"type":"Point","coordinates":[-5.9870043,37.4006722]}},{"type":"Feature","properties":{"name":"GIRASOLAR","SSEDAS_PARTNER":"CERAI","addr:country":"ES","addr:housenumber":"Nave 5, Km 67","addr:city":"HUESCA","POI_TYPE":"coworking space / association office","description:es":"Energías renovables","type_of_initiative":"localcollective_ressources","image":"http://www.economiasolidaria.org/files/imagecache/entidades/Logo%20peque_0.JPG","website":"http://www.girasolar.es","contact:email":"info@girasolar.net","contact:phone":"+34 974212491;+34  609853733","organic":"no","fair-trade":"no","regional":"limited","free_keywords":"Infrastructure;Housing & habitat"},"geometry":{"type":"Point","coordinates":[-0.441951,42.113762]}},{"type":"Feature","properties":{"name":"KERAMOS. CERAMICA  ARTISTICA","SSEDAS_PARTNER":"CERAI","addr:country":"ES","addr:street":"Polígono Industrial Polirrosa, Calle C","addr:housenumber":"NAVE 238","addr:postcode":"21007","addr:city":"Huelva","POI_TYPE":"art store","shop":"art","description:es":"Keramos significa cerámica en griego y a ello es a lo que nos dedicamos desde hace más de catorce años. Nuestra filosofía es la creatividad y la artesanía, además del encuentro con las personas que llegan hasta nosotras buscando algo diferente, donde surgen y se fusionan ideas que dan como resultado piezas únicas e irrepetibles.","type_of_initiative":"other","image":"http://3.bp.blogspot.com/_n27nXQnc6Ms/SryCmIKc_nI/AAAAAAAAA7Y/9E73_5RL2b0/S692/jpg.jpg","website":"https://www.facebook.com/keramos.ceramicaartistica/about","contact:email":"keramoshuelva@hotmail.com","opening_hours":"Mon-Fri: 9’30- 13’45h + Tue & Thurd: 17’30-19’30h","organic":"no","fair-trade":"no","regional":"limited","free_keywords":"Culture / recreation / leisure;Education & Training"},"geometry":{"type":"Point","coordinates":[-6.919271,37.266342]}},{"type":"Feature","properties":{"name":"ADEBAN","SSEDAS_PARTNER":"CERAI","addr:country":"ES","addr:street":"Avenida de la Jota","addr:housenumber":"46, local","addr:city":"ZARAGOZA","POI_TYPE":"Association Office","office":"association","description:es":"Asesoría integral para empresas y particulares.","type_of_initiative":"other","image":"http://www.economiasolidaria.org/files/imagecache/entidades/RGB_positivo%20-%20copia.jpg","website":"http://www.adeban.net","contact:website":"http://www.adeban.net/contacto/","contact:email":"adeban@adeban.net","opening_hours":"Monday to Thursday – 9:30 to 14:00 and 17:00 a 19:00. Friday – 9:30 a 14:00","free_keywords":"Education & Training"},"geometry":{"type":"Point","coordinates":[-0.85825389394,41.66145473229]}},{"type":"Feature","properties":{"name":"DESMONTANDO A LA PILI","SSEDAS_PARTNER":"CERAI","addr:country":"ES","addr:street":"Calle Don Juan de Aragón","addr:housenumber":"21, local","addr:city":"ZARAGOZA","POI_TYPE":"toy shop","shop":"toys","description:es":"Educación afectivo-sexual; Reuniones Tuppersex de consumo responsable; Venta de productos eróticos; Atención Sexológica, Charlas y Talleres","type_of_initiative":"other;  other_education; other_communities","image":"http://www.economiasolidaria.org/files/imagecache/entidades/desmontando%20a%20la%20pili.jpg","website":"http://www.desmontandoalapili.com","contact:website":"http://desmontandoalapili.com/donde-estamos-4/","contact:email":"info@desmontandoalapili.es","contact:phone":"+34 876164036;+34 616029590","opening_hours":"Mon-Fri: 10-14, 17-20,30. Summer (July, Ag): Mon-Fri: 10-14,18-21.00.","organic":"no","fair-trade":"no","regional":"limited","free_keywords":"Education & Training;Culture / recreation / leisure"},"geometry":{"type":"Point","coordinates":[-0.87473875055,41.65339678926]}},{"type":"Feature","properties":{"name":"La-Tenda de tot el mon","SSEDAS_PARTNER":"CERAI","addr:country":"ES","addr:street":"Paseo Vicente Moliner","addr:housenumber":"4","addr:postcode":"46520","addr:city":"Port Sagunt, ValEncia","POI_TYPE":"Fair Trade Shop","shop":"fairtrade","description:es":"Comercio Justo y Consumo Responsable","type_of_initiative":"fairtrade_shop","website":"http://www.la-tenda.org/ https://www.facebook.com/latendadetotelmon @La_Tenda","contact:email":"correo@la-tenda.org","organic":"yes","fair-trade":"yes","regional":"yes","free_keywords":"Fair Trade"},"geometry":{"type":"Point","coordinates":[-0.22570848462,39.66082648237]}},{"type":"Feature","properties":{"name":"Patim","SSEDAS_PARTNER":"CERAI","addr:country":"ES","addr:street":"Plaza Tetuán","addr:housenumber":"9 – 3º","addr:postcode":"12001","addr:city":"Castellón","POI_TYPE":"Association Office","office":"association","description:es":"Respuesta profesional al fenómeno de las adicciones y la exclusión social","type_of_initiative":"other_socialinclusion","image":"https://reasvalencia.files.wordpress.com/2016/02/logo_patim.jpg?w=233&h=300","website":"www.patim.org https://www.facebook.com/patim.org/ @patimcs","contact:website":"http://www.patim.org/index.php/contacto","contact:email":"patim@patim.org","organic":"no","fair-trade":"no","regional":"no","free_keywords":"Social inclusion"},"geometry":{"type":"Point","coordinates":[-0.04061471873,39.98713505121]}},{"type":"Feature","properties":{"name":"Mar de fulles","SSEDAS_PARTNER":"CERAI","addr:country":"ES","addr:street":"Alfondeguilla","addr:city":"Castellón","POI_TYPE":"Association Office","office":"association","description:es":"proyecto de turismo social y ecológico en el Parque Natural del Espadán","type_of_initiative":"other","image":"https://reasvalencia.files.wordpress.com/2016/02/logo-mar-de-fulles.jpg?w=300&h=218","website":"www.espadan.ning.com","contact:website":"http://espadan.ning.com/page/contacto","contact:email":"espadan@espadan.es","organic":"yes","fair-trade":"no","regional":"no","free_keywords":"Culture / recreation / leisure;Food & Agriculture;Education & Training"},"geometry":{"type":"Point","coordinates":[-0.289711,39.817114]}},{"type":"Feature","properties":{"name":"Cooperativa LA SAZÓN","SSEDAS_PARTNER":"CERAI","addr:country":"ES","addr:street":"Plaza San Salvador","addr:housenumber":"13","addr:city":"HUESCA","POI_TYPE":"farm","landuse":"farmyard","description:es":"Cooperativa de productores de agricultura ecológica directa al consumidor.","type_of_initiative":"food_cooperative","website":"http://www.lasazonsca.blogspot.com.es/","contact:website":"https://www.google.com/maps/d/u/0/viewer?mid=zo0yYCAPcEwk.kF_S58jBwXvc","contact:email":"lasazonca@gmail.com","organic":"yes","fair-trade":"no","regional":"yes","free_keywords":"Producing;Food & Agriculture"},"geometry":{"type":"Point","coordinates":[-0.15722,41.791123]}},{"type":"Feature","properties":{"name":"El Rastrell","SSEDAS_PARTNER":"CERAI","addr:country":"ES","addr:street":"Calle Flora","addr:housenumber":"10B","addr:postcode":"46010","addr:city":"València","POI_TYPE":"second hand shop","shop":"second_hand","description:es":"Acción Social y Trabajo de recogida, recuperación y reciclaje","type_of_initiative":"socialinclusion_employment; recycling; other_wastereduction","image":"https://reasvalencia.files.wordpress.com/2016/02/logorastrell.jpg?w=300&h=300","website":"http://www.rastrell.org/","contact:website":"http://www.rastrell.org/contacto.html","contact:email":"administracio@rastrell.org","organic":"no","fair-trade":"no","regional":"no","free_keywords":"Reduce, reuse, repair, recycle"},"geometry":{"type":"Point","coordinates":[-0.37059122705,39.48064270471]}},{"type":"Feature","properties":{"name":"Centro para el Desarrollo Humano Sostenible Corazón Verde Sociedad Cooperativa","SSEDAS_PARTNER":"CERAI","addr:country":"ES","addr:street":"Calle La Nandina","addr:housenumber":"18","addr:postcode":"03699","addr:city":"ALICANTE","POI_TYPE":"Association Office","office":"association","description":"Cooperative focused on recovering quality human relations , placing value on people in relation to their social and environmental surroundings","description:es":"Cooperativa de enseñanza centrada en recuperar las relaciones humanas de calidad, poniendo en valor a las personas en relación con su entorno social y medioambiental","type_of_initiative":"other_education","image":"http://www.corazonverde.org/imag/LogoCooperativa500px.jpg","website":"http://www.corazonverde.org/","contact:email":"info@corazonverde.org","contact:phone":"+34 630210126","organic":"limited","fair-trade":"no","regional":"limited","free_keywords":"Education & Training"},"geometry":{"type":"Point","coordinates":[-0.566834,38.393857]}},{"type":"Feature","properties":{"name":"IDEAS COMERCIO JUSTO","SSEDAS_PARTNER":"CERAI","addr:country":"ES","addr:street":"Calle Claudio Marcelo","addr:housenumber":"7","addr:city":"Córdoba","POI_TYPE":"Fair Trade Shop","shop":"fairtrade","description:es":"IDEAS es una organización de Comercio Justo cuya misión es transformar el entorno económico y social para construir un mundo más justo y sostenible, desarrollando iniciativas de Comercio Justo, Economía Solidaria y Consumo Responsable, tanto en el ámbito local como Internacional. Todas las acciones de la organización se fundamentan en principios de igualdad, participación y solidaridad.","type_of_initiative":"sse_education; fairtrade_shop; fairtrade_wholesaler; other_fairtrade; development_cooperation","image":"http://www.ideas.coop/IMG_DW/LogoIDEAS.png","website":"http://www.ideas.coop/","contact:email":"info@ideas.coop","contact:phone":"+34 957 47 48 80","organic":"yes","fair-trade":"yes","regional":"limited","free_keywords":"Fair Trade;Food & Agriculture;Social inclusion"},"geometry":{"type":"Point","coordinates":[-4.77674997532,37.88450328275]}},{"type":"Feature","properties":{"name":"ATELIER DE IDEAS","SSEDAS_PARTNER":"CERAI","addr:country":"ES","addr:street":"Calle Sevilla","addr:housenumber":"18 - 3º izquierda","addr:city":"ZARAGOZA","POI_TYPE":"Association Office","office":"association","description:es":"Gestión y desarrollo de proyectos de carácter social","type_of_initiative":"social_incubators","image":"http://www.economiasolidaria.org/files/imagecache/entidades/logoatelier.PNG","website":"http://www.atelierdeideas.com","contact:website":"http://www.atelierdeideas.com/contacto.html","contact:email":"atelier@atelierdeideas.com","contact:phone":"+34 699901060;+34 699052647","organic":"no","fair-trade":"no","regional":"yes","free_keywords":"Education & Training;Social inclusion"},"geometry":{"type":"Point","coordinates":[-0.88814711341,41.63945883767]}},{"type":"Feature","properties":{"name":"La Ortiga","SSEDAS_PARTNER":"CERAI","addr:country":"ES","addr:street":"Calle Cristo del Buen Fin","addr:housenumber":"4","addr:postcode":"41002","addr:city":"Sevilla","POI_TYPE":"consumer cooperative (food coop)","club":"foodcoop","description:es":"Cooperativa de consumo ecológico","type_of_initiative":"other_buylocal; sse_education; consumerism_awareness","image":"http://www.economiasolidaria.org/files/imagecache/entidades/logo%20ortiga.jpg","website":"http://www.laortiga.com/","contact:website":"http://www.laortiga.com/index.php/contactar","contact:email":"correo@laortiga.com","organic":"yes","fair-trade":"yes","regional":"yes","free_keywords":"Food & Agriculture"},"geometry":{"type":"Point","coordinates":[-5.9991194,37.3984032]}},{"type":"Feature","properties":{"name":"Grupo la Veloz S. Coop. RECICLETA","SSEDAS_PARTNER":"CERAI","addr:country":"ES","addr:street":"Calle Asalto","addr:housenumber":"69","addr:city":"ZARAGOZA","POI_TYPE":"bicycle store","shop":"bicycle","description:es":"Tienda de bicicletas, accesorios y taller de reparación. Especializada en bici ciudad y cicloturismo.","type_of_initiative":"other","image":"http://www.economiasolidaria.org/files/imagecache/entidades/recicleta_color1.JPG","website":"http://www.recicleta.com","contact:website":"http://www.recicleta.com/contacto/","contact:email":"recicleta@grupolaveloz.com","opening_hours":"Mon-Fri: 10-13.30, 16:30-20:30. Sat: 10.00-13.30h","organic":"yes","fair-trade":"no","regional":"yes","free_keywords":"Infrastructure; Reduce, reuse, repair, recycle"},"geometry":{"type":"Point","coordinates":[-0.8707445,41.6497257]}},{"type":"Feature","properties":{"name":"CONSUMO GUSTO","SSEDAS_PARTNER":"CERAI","addr:country":"ES","addr:street":"Calle Blanca Paloma","addr:housenumber":"19","addr:postcode":"21006","addr:city":"Huelva","POI_TYPE":"consumer cooperative (food coop)","club":"foodcoop","description:es":"Cooperativa con proyecto solidario que busca facilitar la integración de personas en riesgo de exclusión a través de procesos formativos y oportunidades de empleo especialmente en el ámbito de la restauración y servicios. Además quiere sensibilizar a la ciudadanía en su conjunto en el hábito de consumir productos ecológicos y de comercio justo.","type_of_initiative":"socialinclusion_employment; socialinclusion_empowerment; other_education; consumerism_awareness","image":"http://i2.wp.com/consumogustohuelva.org/wp-content/uploads/2015/10/Completo-sin-fondo-alargado.jpg?fit=1400%2C400","website":"www.consumogustohuelva.org","contact:email":"consumogustohuelva@gmail.com","organic":"limited","fair-trade":"limited","regional":"yes","free_keywords":"Social inclusion;Reduce, reuse, repair, recycle;Food & Agriculture"},"geometry":{"type":"Point","coordinates":[-6.932774,37.261392]}},{"type":"Feature","properties":{"name":"Terrabona Cooperativa V.","SSEDAS_PARTNER":"CERAI","addr:country":"ES","addr:street":"Polígono Industrial Picassent. Calle 1.","addr:housenumber":"parcela D5, nave 1","addr:city":"Picassent. Valencia","POI_TYPE":"farm","landuse":"farmyard","description:es":"Cooperativa de integración social sin ánimo de lucro q ue nace de la necesidad de sus miembros fundadores d realizar un trabajo social enriquecedor que beneficie a la sociedad. Se dedica a la producción, transformación, compra y venta de productos ecológicos y se mueve por la responsabilidad y el compromiso con la SALUD, con la alimentación ecológica, para ofrecer productos ecológicos de proximidad y que sean, al mismo tiempo, asequibles a cualquier economía, fomentando el producto local con el apoyo de productores de la zona. Es una cooperativa de integración social porque formamos un equipo variado, personas de diferentes sectores profesionales y con diferentes capacidades personales, pero preocupados todos por fomentar el empleo de personas con discapacidad psíquica de Picassent (Valencia) y que al final del proceso son los que hacen posible que los productos ecológicos de Terrabona lleguen a sus clientes.","type_of_initiative":"other","image":"http://www.terrabonacoop.com/wp-content/uploads/logo_web_terrabona.png","free_keywords":"Social inclusion through employment; Food growing"},"geometry":{"type":"Point","coordinates":[-0.4507123,39.3622144]}},{"type":"Feature","properties":{"name":"GERMINAL","SSEDAS_PARTNER":"CERAI","addr:country":"ES","addr:street":"Calle Sepulcro","addr:housenumber":"21","addr:city":"ZARAGOZA","POI_TYPE":"copy shop","shop":"copy_shop","description:es":"Imprenta, papelería, copístería","type_of_initiative":"other","image":"http://www.economiasolidaria.org/files/imagecache/entidades/LOGO%20GERMINAL.JPG","website":"http://www.imprentagerminal.com","contact:email":"igerminal@imprentagerminal.com","organic":"no","fair-trade":"no","regional":"no","free_keywords":"Media"},"geometry":{"type":"Point","coordinates":[-0.87355215446,41.65449553843]}},{"type":"Feature","properties":{"name":"Setem CV","SSEDAS_PARTNER":"CERAI","addr:country":"ES","addr:street":"Calle Utiel","addr:housenumber":"16","addr:postcode":"46020","addr:city":"VALENCIA","POI_TYPE":"Fair Trade Shop","shop":"fairtrade","description:es":"Tienda de consumo responsable y  comercio justo","type_of_initiative":"fairtrade_shop; other","website":"https://www.facebook.com/setempv @setempv","contact:email":"setemcv@setem.org","organic":"yes","fair-trade":"yes","regional":"yes","free_keywords":"Fair Trade"},"geometry":{"type":"Point","coordinates":[-0.6725856,38.2651287]}},{"type":"Feature","properties":{"name":"DESATANDO","SSEDAS_PARTNER":"CERAI","addr:country":"ES","addr:street":"Calle Gabriela Mistral","addr:housenumber":"s/n","addr:postcode":"21005","addr:city":"Huelva","POI_TYPE":"Association Office","office":"association","description:es":"Espacio De Encuentro Y Trabajo que promueve iniciativas de promoción socio-económica, para generar un impacto positivo en la ciudadanía con menos recursos, asesorar y acompañar a entidades del tercer sector y dinamizar un espacio colaborativo de emprendimiento e innovación social.","type_of_initiative":"coworking; business_incubators; entrepreneurship_education; social_incubators; sse_education; networking_initiative","image":"http://desatando.org/desatando/Inicio_files/logo%20DESATANDO%20EL%20SUR%201%20web.jpg","website":"www.desatando.org","contact:website":"http://desatando.org/desatando/Contacto.html","contact:email":"encuentrosdelsur@desatando.org","contact:phone":"+34 959048459","organic":"no","fair-trade":"no","regional":"yes","free_keywords":"Active Citizenship;Social inclusion"},"geometry":{"type":"Point","coordinates":[-6.938537,37.26989]}},{"type":"Feature","properties":{"name":"LA PANTERA ROSSA","SSEDAS_PARTNER":"CERAI","addr:country":"ES","addr:street":"Calle San Vicente Paul","addr:housenumber":"28","addr:city":"ZARAGOZA","POI_TYPE":"library","amenity":"library","description:es":"Librería, ecotienda y actividades socioculturales","type_of_initiative":"other","image":"http://www.economiasolidaria.org/files/imagecache/entidades/logopantera.jpg","website":"http://www.lapanterarossa.net","contact:website":"http://www.lapanterarossa.net/contact","contact:email":"info@lapanterarossa.net","organic":"limited","fair-trade":"limited","regional":"limited","free_keywords":"Media"},"geometry":{"type":"Point","coordinates":[-0.87507000336,41.65311320986]}},{"type":"Feature","properties":{"name":"CERAI","SSEDAS_PARTNER":"CERAI","addr:country":"ES","addr:street":"Calle Ramón Pignatelli","addr:housenumber":"36, local","addr:city":"ZARAGOZA","POI_TYPE":"NGO","description:es":"Formación y sensibilizació en Agroecología","type_of_initiative":"agroecology_education, other","image":"http://cerai.org/wordpress/wp-content/uploads/2014/07/LOGOSIMPLE-N.png","website":"http://cerai.org/","contact:email":"administracion.aragon@cerai.org","organic":"yes","fair-trade":"limited","regional":"yes","free_keywords":"Active Citizenship;Education & Training;Food & Agriculture"},"geometry":{"type":"Point","coordinates":[-0.88631382355,41.65397496672]}},{"type":"Feature","properties":{"name":"Caleidoscopi","SSEDAS_PARTNER":"CERAI","addr:country":"ES","addr:street":"Calle Ripalda","addr:housenumber":"16","addr:postcode":"46010","addr:city":"Valencia","POI_TYPE":"community center","amenity":"community_centre","description:es":"Colectivo que intenta coordinar a otros colectivos y personas a través de la organización de la Fira Alternativa.","type_of_initiative":"networking_initiative; consumerism_awareness","website":"http://www.firaalternativa.org/terra/ https://www.facebook.com/firaalternativavalencia.caleidoscopio?fref=ts","organic":"limited","fair-trade":"limited","regional":"yes","free_keywords":"Alternative economic interaction;Social inclusion;Education & Training"},"geometry":{"type":"Point","coordinates":[-0.381087,39.478532]}},{"type":"Feature","properties":{"name":"Proyecto Lázaro","SSEDAS_PARTNER":"CERAI","addr:country":"ES","addr:street":"Prolongación Rosa de los Vientos","addr:housenumber":"5","addr:postcode":"03007","addr:city":"Alicante","POI_TYPE":"Association Office","office":"association","description:es":"Inserción Laboral","type_of_initiative":"other_socialinclusion; ngo; microfinance; used_goods; socialinclusion_employment; socialinclusion_empowerment;","image":"http://www.proyectolazaro.org//data/uploads/logo.png","website":"http://www.proyectolazaro.org/","contact:website":"http://www.proyectolazaro.org/index.php?id=contacto","contact:email":"proyectolazaro@proyectolazaro.org","organic":"no","fair-trade":"no","regional":"no","free_keywords":"Social inclusion;Reduce, reuse, repair, recycle"},"geometry":{"type":"Point","coordinates":[-0.518777,38.338992]}},{"type":"Feature","properties":{"name":"LA CICLERIA (CALA Y PEDAL S.COOP.)","SSEDAS_PARTNER":"CERAI","addr:country":"ES","addr:street":"Calle de Martón y Gavín","addr:housenumber":"6","addr:city":"ZARAGOZA","POI_TYPE":"bicycle toolbox","amenity":"bicycle_repair_station","description:es":"Actividades y servicios para la bici","type_of_initiative":"other_infraressources","image":"http://www.economiasolidaria.org/files/imagecache/entidades/logoLacicleria.jpg","website":"http://www.lacicleria.com/","contact:website":"http://lacicleria.com/contacto/","contact:email":"info@lacicleria.com","organic":"yes","fair-trade":"no","regional":"yes","free_keywords":"Reduce, reuse, repair, recycle;Active Citizenship"},"geometry":{"type":"Point","coordinates":[-0.90585963251,41.6502108257]}},{"type":"Feature","properties":{"name":"2A VIA ACOMPAÑAMIENTO TERAPEUTICO","SSEDAS_PARTNER":"CERAI","addr:country":"ES","addr:street":"Calle La Milagrosa","addr:housenumber":"7, local 12","addr:city":"ZARAGOZA","POI_TYPE":"therapist","office":"therapist","description:es":"Salud Mental, Acompañamiento terapéutico, inserción, atención socio-comunitaria, formación y supervisión.","type_of_initiative":"other;  other_education; socialinclusion_empowerment","image":"http://www.economiasolidaria.org/files/imagecache/entidades/PEQUE.JPG","website":"http://www.2avia.org/","contact:website":"http://www.2avia.org/contacto/","contact:email":"info@2avia.org","organic":"no","fair-trade":"no","regional":"yes","free_keywords":"Education & Training;Social inclusion"},"geometry":{"type":"Point","coordinates":[-0.90550511416,41.64559188136]}},{"type":"Feature","properties":{"name":"Jo Amb Tu – ADESILES","SSEDAS_PARTNER":"CERAI","addr:country":"ES","addr:street":"Calle de Dolores Alcayde","addr:housenumber":"13, Escalera B","addr:postcode":"46007","addr:city":"Valencia","POI_TYPE":"Association Office","office":"association","description:es":"Asociación estatal para el Desarrollo de la Economía Social, Inclusiva, Local, Ecológica y Solidaria","type_of_initiative":"other; sse_education; social_incubators","image":"https://i2.wp.com/dev.joambtu.org/wp-content/uploads/2016/02/cabecera.png","website":"http://www.joambtu.org; http://www.estudioinclusivo.com","contact:email":"info@joambtu.org","contact:phone":"+34 963222799","organic":"limited","fair-trade":"limited","regional":"yes","free_keywords":"Alternative economic interaction"},"geometry":{"type":"Point","coordinates":[-0.385624,39.456402]}},{"type":"Feature","properties":{"name":"Avocam","SSEDAS_PARTNER":"CERAI","addr:country":"ES","addr:street":"Calle San Pedro","addr:housenumber":"108, 5º","addr:postcode":"46520","addr:city":"Puerto de Sagunto","POI_TYPE":"Association Office","office":"association","description:es":"Asociación de Voluntariado Social del Camp de Morvedre que realiza acciones a favor de colectivos con necesidades de apoyo en nuestra comarca","type_of_initiative":"other","image":"https://reasvalencia.files.wordpress.com/2016/02/logoavocam.png?w=760","website":"www.avocam.org","organic":"no","fair-trade":"no","regional":"no","free_keywords":"Social inclusion"},"geometry":{"type":"Point","coordinates":[-0.23125036409,39.66311355408]}},{"type":"Feature","properties":{"name":"Grupo la Veloz S. Coop. NABATA ASESORÍA","SSEDAS_PARTNER":"CERAI","addr:country":"ES","addr:street":"Calle Mayoral","addr:housenumber":"9, local 2","addr:city":"ZARAGOZA","POI_TYPE":"coworking space / association office","description:es":"Asesoría","type_of_initiative":"other","image":"http://www.economiasolidaria.org/files/imagecache/entidades/logopeque_0.JPG","website":"http://www.grupolaveloz.com/nabata","contact:email":"nabata@grupolaveloz.com","free_keywords":"Education & Training"},"geometry":{"type":"Point","coordinates":[-0.889401276,41.65567571281]}},{"type":"Feature","properties":{"name":"CENTRO DE INTERPRETACIÓN ETNOLÓGICO MATILDE GALLARDO","SSEDAS_PARTNER":"CERAI","addr:country":"ES","addr:street":"Calle Fenicios","addr:housenumber":"17","addr:postcode":"21660","addr:city":"Minas de Riotinto. HUELVA","POI_TYPE":"Association Office","office":"association","description:es":"sala de exposiciones donde se explica la forma de vida asociada a la comunidad minera de los barrios obreros de Minas de Riotinto, en particular, de El Alto de la Mesa.","type_of_initiative":"other","website":"http://www.asociacionmatilde.org/","contact:website":"http://www.asociacionmatilde.org/contacto.html","contact:email":"centrodeinterpretacion@asociacionmatilde.org","organic":"limited","fair-trade":"no","regional":"yes","free_keywords":"Active Citizenship;Culture / recreation / leisure;Food & Agriculture"},"geometry":{"type":"Point","coordinates":[-6.59004002667,37.69645473451]}},{"type":"Feature","properties":{"name":"SIMBIOSIS","SSEDAS_PARTNER":"CERAI","addr:country":"ES","addr:street":"Calle de Félix Latassa","addr:housenumber":"32","addr:city":"ZARAGOZA","POI_TYPE":"clothes shop","shop":"clothes","description:es":"Serigrafía textil, diseño gráfico y tienda de ropa.","type_of_initiative":"other","image":"http://www.economiasolidaria.org/files/imagecache/entidades/LOGOseriBN1.JPG","website":"http://www.simbiosist-shirts.com","contact:email":"simbiosis@simbiosist-shirts.com","organic":"limited","fair-trade":"limited","regional":"limited","free_keywords":"Media"},"geometry":{"type":"Point","coordinates":[-0.89356905481,41.64131112883]}},{"type":"Feature","properties":{"name":"FINANCIACION SOLIDARIA","SSEDAS_PARTNER":"CERAI","addr:country":"ES","addr:street":"Calle Mayoral","addr:housenumber":"9, local 2","addr:city":"ZARAGOZA","POI_TYPE":"Association Office","office":"association","description:es":"Asociación Financiación Solidaria","type_of_initiative":"solidarity_lending","image":"http://www.economiasolidaria.org/files/imagecache/entidades/peque_2.JPG","website":"http://www.financiacionsolidaria.org","contact:email":"financiacionsolidaria@gmail.com","opening_hours":"Wednesday - 18:00 to 21:00 h","organic":"no","fair-trade":"no","regional":"limited","free_keywords":"Finance"},"geometry":{"type":"Point","coordinates":[-0.88938524856,41.65568888762]}},{"type":"Feature","properties":{"name":"Los sueños de la hormiga roja Coop CV","SSEDAS_PARTNER":"CERAI","addr:country":"ES","addr:street":"Calle Arquitecto Arnau","addr:housenumber":"5","addr:postcode":"46020","addr:city":"Valencia","POI_TYPE":"Association Office","office":"association","description:es":"Mundo del cine, el documental de investigación y la comunicación.","type_of_initiative":"other;  other_education","website":"www.hormigaroja.com https://www.facebook.com/lossuenyosdelahormigaroja @hormigaroja","contact:email":"valenti@hormigaroja.com","contact:phone":"+34 963612766","organic":"limited","fair-trade":"limited","regional":"limited","free_keywords":"Media"},"geometry":{"type":"Point","coordinates":[-0.356871,39.483796]}},{"type":"Feature","properties":{"name":"Las3Cabras Aventura & Naturaleza","SSEDAS_PARTNER":"CERAI","addr:country":"ES","addr:street":"Calle Santa Lucia","addr:housenumber":"30","addr:postcode":"21003","addr:city":"Huelva","POI_TYPE":"Association Office","office":"association","description:es":"Expertos en naturaleza y deportes de aventura, rutas y visitas en el Parque Natural Sierra de Aracena y Picos de Aroche (Huelva).","type_of_initiative":"Other; other_education","image":"http://www.economiasolidaria.org/files/imagecache/entidades/logo%20Las3Cabras.jpg","website":"http://www.las3cabras.com/","contact:website":"http://www.las3cabras.com/contacto","contact:email":"info@las3cabras.com","contact:phone":"+34 954906306","organic":"yes","fair-trade":"no","regional":"yes","free_keywords":"Culture / recreation / leisure;Education & Training"},"geometry":{"type":"Point","coordinates":[-6.567621,37.89361]}},{"type":"Feature","properties":{"name":"RED DE ECONOMÍA ALTERNATIVA Y SOLIDARIA (REAS Aragón)","SSEDAS_PARTNER":"CERAI","addr:country":"ES","addr:street":"Calle Mayoral","addr:housenumber":"9, local 2","addr:city":"ZARAGOZA","POI_TYPE":"coworking space / association office","description:es":"Asociación sin carácter lucrativo compuesta principalmente por empresas y entidades de Economía Solidaria aragonesa y por personas comprometidas con su desarrollo y finalidad. Nuestra finalidad principal es hacer posible esa otra manera de enfocar y gestionar la economía, a través de potenciar, apoyar y coordinar las iniciativas asociativas, empresariales, económicas y financieras que están comprometidas con los seis grandes principios de la Carta Solidaria que en su día adoptamos: Equidad, Trabajo, Respeto al medioambiente, Cooperación, Sin carácter lucrativo y Compromiso con el entorno.","type_of_initiative":"networking_initiative; consumerism_awareness; sse_education; sse_research; ngo","image":"http://www.economiasolidaria.org/files/logo_reas_aragon.JPG","website":"http://www.economiasolidaria.org/reasaragon","contact:email":"reasaragon@reasnet.com","organic":"yes","fair-trade":"yes","regional":"only","free_keywords":"Commoning"},"geometry":{"type":"Point","coordinates":[-0.88944377983,41.65568555963]}},{"type":"Feature","properties":{"name":"ARAINFO","SSEDAS_PARTNER":"CERAI","addr:country":"ES","addr:street":"Calle Mayoral","addr:housenumber":"9, local 2","addr:city":"ZARAGOZA","POI_TYPE":"Association Office","office":"association","description:es":"Diario libre d'Aragón","type_of_initiative":"other","image":"http://www.economiasolidaria.org/files/imagecache/entidades/logo_arainfo_0.jpg","website":"http://www.arainfo.org","contact:website":"http://arainfo.org/contacto/","contact:email":"achencia@arainfo.org","organic":"no","fair-trade":"no","regional":"yes","free_keywords":"Media;Active Citizenship"},"geometry":{"type":"Point","coordinates":[-0.88943703911,41.65571555479]}},{"type":"Feature","properties":{"name":"plattsalat","addr:country":"DE","addr:street":"Bismarckstraße","addr:housenumber":"55/1","addr:postcode":"70197","addr:city":"Stuttgart","POI_TYPE":"organic store","type_of_initiative":"other_buylocal","SSEDAS_PARTNER":"INKOTA"},"geometry":{"type":"Point","coordinates":[9.15407694953,48.7721782]}},{"type":"Feature","properties":{"name":"Kölner Bio-Bauer","addr:country":"DE","addr:street":"Poll-Vingster Straße","addr:housenumber":"215","addr:postcode":"51105","addr:city":"Köln","POI_TYPE":"farm","landuse":"farmyard","type_of_initiative":"other_buylocal","SSEDAS_PARTNER":"INKOTA"},"geometry":{"type":"Point","coordinates":[7.01725340397,50.926554]}},{"type":"Feature","properties":{"name":"Stadt, Land, Beides","addr:country":"DE","addr:city":"Nürnberg","POI_TYPE":"consumer cooperative","type_of_initiative":"other_buylocal","SSEDAS_PARTNER":"INKOTA"},"geometry":{"type":"Point","coordinates":[12.9118642,48.3619187]}},{"type":"Feature","properties":{"name":"KEBAP KulturEnergieBunkerAltonaProjekt e.V.","addr:country":"DE","addr:street":"Schomburgstraße","addr:housenumber":"6","addr:postcode":"22767","addr:city":"Hamburg","POI_TYPE":"energy supply","type_of_initiative":"other_buylocal","SSEDAS_PARTNER":"INKOTA"},"geometry":{"type":"Point","coordinates":[9.95177865028,53.5518266909]}},{"type":"Feature","properties":{"name":"MOTTE – Stadtteil&Kulturzentrum","addr:country":"DE","addr:street":"Eulenstraße","addr:housenumber":"43","addr:postcode":"22765","addr:city":"Hamburg","POI_TYPE":"Community center","amenity":"community_centre","type_of_initiative":"other_infraressources","SSEDAS_PARTNER":"INKOTA"},"geometry":{"type":"Point","coordinates":[9.9277721,53.5502248]}},{"type":"Feature","properties":{"name":"Essenszeit - Agentur für gesundes Leben","addr:country":"DE","addr:street":"Zur Schwanenburg","addr:housenumber":"11","addr:postcode":"30453","addr:city":"Hannover","POI_TYPE":"Restaurant","amenity":"restaurant","type_of_initiative":"other_buylocal","SSEDAS_PARTNER":"INKOTA"},"geometry":{"type":"Point","coordinates":[9.69353556633,52.37680922952]}},{"type":"Feature","properties":{"name":"Alsengarten","addr:country":"DE","addr:street":"Hinterhof der Alsenstraße","addr:housenumber":"19a","addr:postcode":"44789","addr:city":"Bochum","POI_TYPE":"community garden","leisure":"garden","garden:type":"community","type_of_initiative":"community_garden","SSEDAS_PARTNER":"INKOTA"},"geometry":{"type":"Point","coordinates":[7.22922116518,51.47630794965]}},{"type":"Feature","properties":{"name":"Waldgärtner","addr:country":"DE","addr:street":"Schrenkstraße","addr:housenumber":"9","addr:postcode":"80339","addr:city":"München","POI_TYPE":"farm","landuse":"farmyard","type_of_initiative":"other_buylocal","SSEDAS_PARTNER":"INKOTA"},"geometry":{"type":"Point","coordinates":[11.5416717,48.1387664]}},{"type":"Feature","properties":{"name":"Markthalle Neun","addr:country":"DE","addr:street":"Eisenbahnstraße","addr:housenumber":"42/43","addr:postcode":"10997","addr:city":"Berlin","POI_TYPE":"convenience store","shop":"convenience","type_of_initiative":"other_buylocal","SSEDAS_PARTNER":"INKOTA"},"geometry":{"type":"Point","coordinates":[13.4312004,52.5021469]}},{"type":"Feature","properties":{"name":"Bonnekamp-Stiftung für die integrative Stadt","addr:country":"DE","addr:street":"Welterbe Zollverein, A9, Gelsenkirchener Straße","addr:housenumber":"181","addr:postcode":"45309","addr:city":"Essen","POI_TYPE":"research","type_of_initiative":"sse_research","SSEDAS_PARTNER":"INKOTA"},"geometry":{"type":"Point","coordinates":[7.04591095448,51.48635038428]}},{"type":"Feature","properties":{"name":"Ökomarkt Ostertor","addr:country":"DE","addr:street":"Ulrichsplatz/Wulwestraße","addr:postcode":"28203","addr:city":"Bremen","POI_TYPE":"farmers market","amenity":"marketplace","type_of_initiative":"local_farmersmarket","SSEDAS_PARTNER":"INKOTA"},"geometry":{"type":"Point","coordinates":[8.81978452206,53.07280299674]}},{"type":"Feature","properties":{"name":"Gemeinschaft Spörgelhof","addr:country":"DE","addr:street":"Am Wiesenweg","addr:housenumber":"1","addr:postcode":"16359","addr:city":"Lanke","POI_TYPE":"farm","landuse":"farmyard","type_of_initiative":"other_buylocal","SSEDAS_PARTNER":"INKOTA"},"geometry":{"type":"Point","coordinates":[13.5789162,52.74414485]}},{"type":"Feature","properties":{"name":"Bauerngarten Berlin Mette","addr:country":"DE","addr:street":"Querweg","addr:housenumber":"7","addr:postcode":"12529","addr:city":"Schönefeld","POI_TYPE":"Community garden","leisure":"garden","garden:type":"community","type_of_initiative":"community_garden","SSEDAS_PARTNER":"INKOTA"},"geometry":{"type":"Point","coordinates":[13.446575,52.4055121]}},{"type":"Feature","properties":{"name":"o’pflanzt is!","addr:country":"DE","addr:street":"Emma-Ihrer-Straße","addr:postcode":"80637","addr:city":"München","POI_TYPE":"Community garden","leisure":"garden","garden:type":"community","type_of_initiative":"community_garden","SSEDAS_PARTNER":"INKOTA"},"geometry":{"type":"Point","coordinates":[11.54974222183,48.16144106172]}},{"type":"Feature","properties":{"name":"Imkerei Goldblüte e.V.","addr:country":"DE","addr:street":"Heckenweg","addr:housenumber":"24","addr:postcode":"73773","addr:city":"Aichwald","POI_TYPE":"beekeeper","type_of_initiative":"other_buylocal","SSEDAS_PARTNER":"INKOTA"},"geometry":{"type":"Point","coordinates":[9.3925756216,48.77583057298]}},{"type":"Feature","properties":{"name":"Biolandhof Apfelbacher","addr:country":"DE","addr:street":"Tombergstraße","addr:housenumber":"1","addr:postcode":"53332","addr:city":"Bornheim","POI_TYPE":"farm","landuse":"farmyard","type_of_initiative":"other_buylocal","SSEDAS_PARTNER":"INKOTA"},"geometry":{"type":"Point","coordinates":[6.9642523022,50.7490109]}},{"type":"Feature","properties":{"name":"Reyerhof","addr:country":"DE","addr:street":"Unteraicher Straße","addr:housenumber":"8","addr:postcode":"70567","addr:city":"Stuttgart-Möhringen","POI_TYPE":"farm","landuse":"farmyard","type_of_initiative":"other_buylocal","SSEDAS_PARTNER":"INKOTA"},"geometry":{"type":"Point","coordinates":[9.14492801713,48.7244278]}},{"type":"Feature","properties":{"name":"Hof zur bunten Kuh","addr:country":"DE","addr:street":"Lichtenwalder Straße","addr:housenumber":"1","addr:postcode":"09669","addr:city":"Frankenberg","POI_TYPE":"farm","landuse":"farmyard","type_of_initiative":"other_buylocal","SSEDAS_PARTNER":"INKOTA"},"geometry":{"type":"Point","coordinates":[13.0109782655,50.89539175]}},{"type":"Feature","properties":{"name":"Biohof Werder","addr:country":"DE","addr:street":"Hoher Weg","addr:housenumber":"10","addr:postcode":"14542","addr:city":"Werder/Havel","POI_TYPE":"farm","landuse":"farmyard","type_of_initiative":"other_buylocal","SSEDAS_PARTNER":"INKOTA"},"geometry":{"type":"Point","coordinates":[12.93199263494,52.3790833]}},{"type":"Feature","properties":{"name":"Uria e.V.","addr:country":"DE","addr:street":"Dorfstraße","addr:housenumber":"42","addr:postcode":"72336","addr:city":"Balingen-Ostdorf","POI_TYPE":"club","club":"yes","type_of_initiative":"other_buylocal","SSEDAS_PARTNER":"INKOTA"},"geometry":{"type":"Point","coordinates":[8.83862435818,48.30378262297]}},{"type":"Feature","properties":{"name":"Keimzelle – TAUSCHPLATZ für Alle","addr:country":"DE","addr:street":"Ölmühlenplatz im Karolinenviertel","addr:postcode":"20357","addr:city":"Hamburg","POI_TYPE":"Community garden","leisure":"garden","garden:type":"community","type_of_initiative":"community_garden","SSEDAS_PARTNER":"INKOTA"},"geometry":{"type":"Point","coordinates":[9.96922641993,53.55807270317]}},{"type":"Feature","properties":{"name":"Solidarische Landwirtschaft – Gut Adolphshof","addr:country":"DE","addr:postcode":"31275","addr:city":"Lehrte-Hämelerwald","POI_TYPE":"farm","landuse":"farmyard","type_of_initiative":"communitysupported_agriculture","SSEDAS_PARTNER":"INKOTA"},"geometry":{"type":"Point","coordinates":[10.118776,52.332932]}},{"type":"Feature","properties":{"name":"Kartoffelkombinat","addr:country":"DE","addr:street":"Durasweg","addr:housenumber":"3","addr:postcode":"81247","addr:city":"München","POI_TYPE":"farm","landuse":"farmyard","type_of_initiative":"other_buylocal","SSEDAS_PARTNER":"INKOTA"},"geometry":{"type":"Point","coordinates":[11.4582012,48.1693873]}},{"type":"Feature","properties":{"name":"Moabienen","addr:country":"DE","addr:street":"Siemensstraße","addr:housenumber":"27","addr:postcode":"10551","addr:city":"Berlin","POI_TYPE":"beekeeper","type_of_initiative":"other_buylocal","SSEDAS_PARTNER":"INKOTA"},"geometry":{"type":"Point","coordinates":[13.33705365658,52.53348312562]}},{"type":"Feature","properties":{"name":"Die junge AbL","addr:country":"DE","addr:street":"Walburger Straße","addr:housenumber":"2","addr:postcode":"37213","addr:city":"Witzenhausen","POI_TYPE":"club","club":"yes","type_of_initiative":"other_buylocal","SSEDAS_PARTNER":"INKOTA"},"geometry":{"type":"Point","coordinates":[9.85864698887,51.34172662027]}},{"type":"Feature","properties":{"name":"Ab geht die Lucie!","addr:country":"DE","addr:street":"Lucie-Flechtmann-Platz","addr:postcode":"28199","addr:city":"Bremen","POI_TYPE":"Community garden","leisure":"garden","garden:type":"community","type_of_initiative":"community_garden","SSEDAS_PARTNER":"INKOTA"},"geometry":{"type":"Point","coordinates":[8.7968904777,53.0740395]}},{"type":"Feature","properties":{"name":"Utopiastadtgarten","addr:country":"DE","addr:street":"Am Bahnhof Mirke, Mirker Straße","addr:housenumber":"48","addr:postcode":"42105","addr:city":"Wuppertal","POI_TYPE":"Community garden","leisure":"garden","garden:type":"community","type_of_initiative":"community_garden","SSEDAS_PARTNER":"INKOTA"},"geometry":{"type":"Point","coordinates":[7.14445531368,51.26635238807]}},{"type":"Feature","properties":{"name":"Lernbauernhof Schulte-Tigges","addr:country":"DE","addr:street":"Kümper Heide","addr:housenumber":"21","addr:postcode":"44329","addr:city":"Dortmund","POI_TYPE":"farm","landuse":"farmyard","type_of_initiative":"agroecology_education","SSEDAS_PARTNER":"INKOTA"},"geometry":{"type":"Point","coordinates":[7.50016265236,51.5737588]}},{"type":"Feature","properties":{"name":"Gemeinschaftsgarten Allmende-Kontor","addr:country":"DE","addr:postcode":"12049","addr:city":"Berlin","POI_TYPE":"Community garden","leisure":"garden","garden:type":"community","type_of_initiative":"community_garden","SSEDAS_PARTNER":"INKOTA"},"geometry":{"type":"Point","coordinates":[13.4027557,52.4729578]}},{"type":"Feature","properties":{"name":"Bauerngarten Berlin Pankow","addr:country":"DE","addr:street":"Blankenfelder Chaussee","addr:housenumber":"5","addr:postcode":"13159","addr:city":"Berlin","POI_TYPE":"community garden","leisure":"garden","garden:type":"community","type_of_initiative":"community_garden","SSEDAS_PARTNER":"INKOTA"},"geometry":{"type":"Point","coordinates":[13.3991708,52.6053291]}},{"type":"Feature","properties":{"name":"ÖkoMarkt auf dem Ziegenmarkt","addr:country":"DE","addr:street":"Ziegenmarkt","addr:postcode":"28203","addr:city":"Bremen","POI_TYPE":"farmers market","amenity":"marketplace","type_of_initiative":"local_farmersmarket","SSEDAS_PARTNER":"INKOTA"},"geometry":{"type":"Point","coordinates":[8.8268624816,53.07287655]}},{"type":"Feature","properties":{"name":"Gartenbaubetrieb noris inklusion gGmbH -  Rent-a-Huhn","addr:country":"DE","addr:street":"Berthold-Brecht-Straße","addr:housenumber":"6","addr:postcode":"90471","addr:city":"Nürnberg","POI_TYPE":"farm","landuse":"farmyard","type_of_initiative":"other_buylocal","SSEDAS_PARTNER":"INKOTA"},"geometry":{"type":"Point","coordinates":[11.1207818985,49.41536373132]}},{"type":"Feature","properties":{"name":"Bäckerei Weber GmbH","addr:country":"DE","addr:street":"Ringstraße","addr:housenumber":"48","addr:postcode":"71364","addr:city":"Winnenden","POI_TYPE":"bakery","shop":"bakery","type_of_initiative":"other_buylocal","SSEDAS_PARTNER":"INKOTA"},"geometry":{"type":"Point","coordinates":[9.39552399234,48.87651395]}},{"type":"Feature","properties":{"name":"SoLaWi Tiefbrunn","addr:country":"DE","addr:street":"Mangoldinger Straße","addr:housenumber":"11","addr:postcode":"93098","addr:city":"Tiefbrunn/Mintraching","POI_TYPE":"farm","landuse":"farmyard","type_of_initiative":"other_buylocal","SSEDAS_PARTNER":"INKOTA"},"geometry":{"type":"Point","coordinates":[12.26060807705,48.93193086613]}},{"type":"Feature","properties":{"name":"Hof zur Hellen","addr:country":"DE","addr:street":"Windrather Straße","addr:housenumber":"197","addr:postcode":"42553","addr:city":"Velbert-Neviges","POI_TYPE":"farm","landuse":"farmyard","type_of_initiative":"other_buylocal","SSEDAS_PARTNER":"INKOTA"},"geometry":{"type":"Point","coordinates":[7.1343834,51.3194239]}},{"type":"Feature","properties":{"name":"Bioladen Natur und Gesundheit","addr:country":"DE","addr:street":"Stresemannstraße","addr:housenumber":"3","addr:postcode":"42275","addr:city":"Wuppertal","POI_TYPE":"organic store","type_of_initiative":"other_buylocal","SSEDAS_PARTNER":"INKOTA"},"geometry":{"type":"Point","coordinates":[7.196445635,51.2688882]}},{"type":"Feature","properties":{"name":"Paradinsel-Hof","addr:country":"DE","addr:street":"Köthensdorfer Hauptstraße","addr:housenumber":"7","addr:postcode":"09249","addr:city":"Taura","POI_TYPE":"farm","landuse":"farmyard","type_of_initiative":"other_buylocal","SSEDAS_PARTNER":"INKOTA"},"geometry":{"type":"Point","coordinates":[12.86188623716,50.90688865]}},{"type":"Feature","properties":{"name":"Green Fair Planet e.V.","addr:country":"DE","addr:street":"Blücherstraße","addr:housenumber":"1","addr:postcode":"32423","addr:city":"Minden","POI_TYPE":"club","club":"yes","type_of_initiative":"ngo","SSEDAS_PARTNER":"INKOTA"},"geometry":{"type":"Point","coordinates":[8.94322,52.2912342]}},{"type":"Feature","properties":{"name":"Bio Streuobst-Hof Stöckl","addr:country":"DE","addr:street":"Hauptstraße","addr:housenumber":"6","addr:postcode":"93352","addr:city":"Rohr","POI_TYPE":"farm","landuse":"farmyard","type_of_initiative":"other_buylocal","SSEDAS_PARTNER":"INKOTA"},"geometry":{"type":"Point","coordinates":[11.97199165821,48.7686995925]}},{"type":"Feature","properties":{"name":"Transition Initiative Hannover","addr:country":"DE","addr:street":"Hausmannstraße","addr:housenumber":"42652","addr:postcode":"30159","addr:city":"Hannover","POI_TYPE":"club","club":"yes","type_of_initiative":"other_buylocal","SSEDAS_PARTNER":"INKOTA"},"geometry":{"type":"Point","coordinates":[9.72829699516,52.37754768933]}},{"type":"Feature","properties":{"name":"Kattendorfer Hof","addr:country":"DE","addr:street":"Dorfstraße","addr:housenumber":"1a","addr:postcode":"24568","addr:city":"Kattendorf","POI_TYPE":"farm","landuse":"farmyard","type_of_initiative":"other_buylocal","SSEDAS_PARTNER":"INKOTA"},"geometry":{"type":"Point","coordinates":[10.02325952053,53.8450044172]}},{"type":"Feature","properties":{"name":"Ein Vermehrungsgarten für Hannover","addr:country":"DE","addr:street":"An der Bauernwiese","addr:housenumber":"42","addr:postcode":"30459","addr:city":"Hannover","POI_TYPE":"Community garden","leisure":"garden","garden:type":"community","type_of_initiative":"community_garden","SSEDAS_PARTNER":"INKOTA"},"geometry":{"type":"Point","coordinates":[9.72763717175,52.33636175493]}},{"type":"Feature","properties":{"name":"Agrar Koordination & FIA e.V.","addr:country":"DE","addr:street":"Nernstweg","addr:housenumber":"32-34","addr:postcode":"22765","addr:city":"Hamburg","POI_TYPE":"education","type_of_initiative":"agroecology_education","SSEDAS_PARTNER":"INKOTA"},"geometry":{"type":"Point","coordinates":[9.9326631,53.5563266]}},{"type":"Feature","properties":{"name":"LohmannsHof","addr:country":"DE","addr:street":"Eichenstraße","addr:housenumber":"24","addr:postcode":"27313","addr:city":"Westen","POI_TYPE":"farm","landuse":"farmyard","type_of_initiative":"other_buylocal","SSEDAS_PARTNER":"INKOTA"},"geometry":{"type":"Point","coordinates":[9.3026735,52.8366237]}},{"type":"Feature","properties":{"name":"Die Bäcker - Zeit für Geschmack e.V.","addr:country":"DE","addr:housenumber":"32","addr:postcode":"30890","addr:city":"Barsinghausen","POI_TYPE":"bakery","shop":"bakery","type_of_initiative":"other_buylocal","SSEDAS_PARTNER":"INKOTA"},"geometry":{"type":"Point","coordinates":[9.5203404192,52.2800816]}},{"type":"Feature","properties":{"name":"Organischer Landbau in Bienenwerder","addr:country":"DE","addr:housenumber":"2b","addr:postcode":"15374","addr:city":"Müncheberg (Mark)","POI_TYPE":"farm","landuse":"farmyard","type_of_initiative":"other_buylocal","SSEDAS_PARTNER":"INKOTA"},"geometry":{"type":"Point","coordinates":[14.0539307883,52.48680865]}},{"type":"Feature","properties":{"name":"Gartendeck","addr:country":"DE","addr:street":"Große Freiheit","addr:housenumber":"62-68","addr:postcode":"22767","addr:city":"Hamburg","POI_TYPE":"Community garden","leisure":"garden","garden:type":"community","type_of_initiative":"community_garden","SSEDAS_PARTNER":"INKOTA"},"geometry":{"type":"Point","coordinates":[9.9581810832,53.55220115894]}},{"type":"Feature","properties":{"name":"Bauerngarten Berlin Havelmathen","addr:country":"DE","addr:street":"Kladower Damm","addr:housenumber":"57","addr:postcode":"14089","addr:city":"Berlin Spandau","POI_TYPE":"community garden","leisure":"garden","garden:type":"community","type_of_initiative":"community_garden","SSEDAS_PARTNER":"INKOTA"},"geometry":{"type":"Point","coordinates":[13.18145243565,52.47823215]}},{"type":"Feature","properties":{"name":"NeuLand Köln","addr:country":"DE","addr:street":"Koblenzer Straße","addr:housenumber":"15","addr:postcode":"50968","addr:city":"Köln","POI_TYPE":"community garden","leisure":"garden","garden:type":"community","type_of_initiative":"other_buylocal","SSEDAS_PARTNER":"INKOTA"},"geometry":{"type":"Point","coordinates":[6.9645854,50.9143096]}},{"type":"Feature","properties":{"name":"Fördergemeinschaft Ökologischer Landbau / Aktionsbündnis Agrarwende Berlin-Brandenburg","addr:country":"DE","addr:street":"Marienstraße","addr:housenumber":"19-20","addr:postcode":"10117","addr:city":"Berlin","POI_TYPE":"club","club":"yes","type_of_initiative":"agroecology_education","SSEDAS_PARTNER":"INKOTA"},"geometry":{"type":"Point","coordinates":[13.38345871166,52.5224673]}},{"type":"Feature","properties":{"name":"Arbeitskreis UniGarten","addr:country":"DE","addr:street":"Universitätsstraße","addr:housenumber":"31","addr:postcode":"93053","addr:city":"Regensburg","POI_TYPE":"community garden","leisure":"garden","garden:type":"community","type_of_initiative":"community_garden","SSEDAS_PARTNER":"INKOTA"},"geometry":{"type":"Point","coordinates":[12.0898917,48.9933206]}},{"type":"Feature","properties":{"name":"Social Seeds","addr:country":"DE","addr:street":"Gneistraße","addr:housenumber":"10","addr:postcode":"10437","addr:city":"Berlin","POI_TYPE":"club","club":"yes","type_of_initiative":"other_buylocal","SSEDAS_PARTNER":"INKOTA"},"geometry":{"type":"Point","coordinates":[13.41541707516,52.54425839952]}},{"type":"Feature","properties":{"name":"Heuhüpfer e.V. - Lernort Kampfelder Hof","addr:country":"DE","addr:street":"Hauptstraße","addr:housenumber":"31","addr:postcode":"30966","addr:city":"Hemmingen OT Hiddestorf","POI_TYPE":"farm","landuse":"farmyard","type_of_initiative":"other_buylocal","SSEDAS_PARTNER":"INKOTA"},"geometry":{"type":"Point","coordinates":[9.71246659756,52.28212039725]}},{"type":"Feature","properties":{"name":"Bio-Verbraucher e.V.","addr:country":"DE","addr:street":"Rieterstraße","addr:housenumber":"20","addr:postcode":"90419","addr:city":"Nürnberg","POI_TYPE":"club","club":"yes","type_of_initiative":"other_buylocal","SSEDAS_PARTNER":"INKOTA"},"geometry":{"type":"Point","coordinates":[11.067376,49.4630187]}},{"type":"Feature","properties":{"name":"UFER-Projekte Dresden e.V.","addr:country":"DE","addr:street":"Arthur-Weineck-Straße","addr:housenumber":"3","addr:postcode":"01157","addr:city":"Dresden","POI_TYPE":"Community garden","leisure":"garden","garden:type":"community","type_of_initiative":"other_buylocal","SSEDAS_PARTNER":"INKOTA"},"geometry":{"type":"Point","coordinates":[13.67727929456,51.0517974]}},{"type":"Feature","properties":{"name":"Küche für Alle","addr:country":"DE","addr:street":"Am Ölberg","addr:housenumber":"2","addr:postcode":"93047","addr:city":"Regensburg","POI_TYPE":"community Kitchen","amenity":"volxkuche","type_of_initiative":"other_growyourself","SSEDAS_PARTNER":"INKOTA"},"geometry":{"type":"Point","coordinates":[12.0912749,49.0184124]}},{"type":"Feature","properties":{"name":"Stadtgarten Gartenküche","addr:country":"DE","addr:street":"Wandererstraße","addr:housenumber":"44","addr:postcode":"90431","addr:city":"Nürnberg","POI_TYPE":"community garden","leisure":"garden","garden:type":"community","type_of_initiative":"community_garden","SSEDAS_PARTNER":"INKOTA"},"geometry":{"type":"Point","coordinates":[11.03443086147,49.45435172228]}},{"type":"Feature","properties":{"name":"Interkultureller Garten Wilhelmsburg e.V.","addr:country":"DE","addr:street":"hinter dem Haus Veringstraße","addr:housenumber":"147","addr:postcode":"21107","addr:city":"Hamburg","POI_TYPE":"Community garden","leisure":"garden","garden:type":"community","type_of_initiative":"community_garden","SSEDAS_PARTNER":"INKOTA"},"geometry":{"type":"Point","coordinates":[9.98610019684,53.50685051204]}},{"type":"Feature","properties":{"name":"Naturschutzbund Niedersachsen","addr:country":"DE","addr:street":"Alleestraße","addr:housenumber":"36","addr:postcode":"30167","addr:city":"Hannover","POI_TYPE":"club","club":"yes","type_of_initiative":"ngo","SSEDAS_PARTNER":"INKOTA"},"geometry":{"type":"Point","coordinates":[9.70745849887,52.38970815]}},{"type":"Feature","properties":{"name":"Die Biohöfe im Windrather Tal","addr:country":"DE","addr:street":"Windrather Tal","addr:postcode":"42553","addr:city":"Windrath","POI_TYPE":"farm","landuse":"farmyard","type_of_initiative":"other_buylocal","SSEDAS_PARTNER":"INKOTA"},"geometry":{"type":"Point","coordinates":[7.1276621,51.3235594]}},{"type":"Feature","properties":{"name":"Wandelgarten mit Wandelkino","addr:country":"DE","addr:street":"Luisenstraße","addr:housenumber":"110","addr:postcode":"42103","addr:city":"Wuppertal","POI_TYPE":"community garden","leisure":"garden","garden:type":"community","type_of_initiative":"community_garden","SSEDAS_PARTNER":"INKOTA"},"geometry":{"type":"Point","coordinates":[7.13676273823,51.25626997149]}},{"type":"Feature","properties":{"name":"Leibspeise Dresden","addr:country":"DE","addr:street":"Haydnstraße","addr:housenumber":"39/40","addr:postcode":"01309","addr:city":"Dresden","POI_TYPE":"caterer","type_of_initiative":"other_buylocal","SSEDAS_PARTNER":"INKOTA"},"geometry":{"type":"Point","coordinates":[13.77823680639,51.04650191124]}},{"type":"Feature","properties":{"name":"BUND Brandenburg","addr:country":"DE","addr:street":"Friedrich-Ebert-Straße","addr:housenumber":"114a","addr:postcode":"14467","addr:city":"Potsdam","POI_TYPE":"club","club":"yes","type_of_initiative":"other_buylocal","SSEDAS_PARTNER":"INKOTA"},"geometry":{"type":"Point","coordinates":[13.05798053741,52.39784804036]}},{"type":"Feature","properties":{"name":"ÖkoMarkt Steintor","addr:country":"DE","addr:street":"Mecklenburger Straße","addr:postcode":"28203","addr:city":"Bremen","POI_TYPE":"farmers market","amenity":"marketplace","type_of_initiative":"local_farmersmarket","SSEDAS_PARTNER":"INKOTA"},"geometry":{"type":"Point","coordinates":[8.8284856081,53.07111414253]}},{"type":"Feature","properties":{"name":"freiLand CSA","addr:country":"DE","addr:street":"Friedrich-Engels-Straße","addr:housenumber":"22","addr:postcode":"14473","addr:city":"Potsdam","POI_TYPE":"consumer cooperative","type_of_initiative":"communitysupported_agriculture","SSEDAS_PARTNER":"INKOTA"},"geometry":{"type":"Point","coordinates":[13.07768693557,52.3895574]}},{"type":"Feature","properties":{"name":"Bäckerei Back 2","addr:country":"DE","addr:street":"Einkaufspassage Deminaniplatz","addr:housenumber":"19/20","addr:postcode":"02826","addr:city":"Görlitz","POI_TYPE":"bakery","shop":"bakery","type_of_initiative":"other_buylocal","SSEDAS_PARTNER":"INKOTA"},"geometry":{"type":"Point","coordinates":[14.98647272587,51.15286621579]}},{"type":"Feature","properties":{"name":"SoLawi Dortmund","addr:country":"DE","addr:street":"Kümper Heide","addr:housenumber":"21","addr:postcode":"44329","addr:city":"Dortmund","POI_TYPE":"community garden","leisure":"garden","garden:type":"community","type_of_initiative":"communitysupported_agriculture","SSEDAS_PARTNER":"INKOTA"},"geometry":{"type":"Point","coordinates":[7.50016265236,51.5737588]}},{"type":"Feature","properties":{"name":"INSELGRÜN","addr:country":"DE","addr:street":"Güterstraße","addr:housenumber":"4","addr:postcode":"70372","addr:city":"Stuttgart","POI_TYPE":"Community garden","leisure":"garden","garden:type":"community","type_of_initiative":"community_garden","SSEDAS_PARTNER":"INKOTA"},"geometry":{"type":"Point","coordinates":[9.226405,48.7974729]}},{"type":"Feature","properties":{"name":"Biolandhof Karl Dollinger","addr:country":"DE","addr:street":"Offenbau","addr:housenumber":"24","addr:postcode":"91177","addr:city":"Thalmässing","POI_TYPE":"farm","landuse":"farmyard","type_of_initiative":"other_buylocal","SSEDAS_PARTNER":"INKOTA"},"geometry":{"type":"Point","coordinates":[11.2709681,49.1222885]}},{"type":"Feature","properties":{"name":"Schepershof","addr:country":"DE","addr:street":"Windrather Straße","addr:housenumber":"134","addr:postcode":"42553","addr:city":"Velbert","POI_TYPE":"farm","landuse":"farmyard","type_of_initiative":"other_buylocal","SSEDAS_PARTNER":"INKOTA"},"geometry":{"type":"Point","coordinates":[7.1319004,51.3140977]}},{"type":"Feature","properties":{"name":"Genussgemeinschaft Städter und Bauern e.V.","addr:country":"DE","addr:street":"Holzstraße","addr:housenumber":"15b","addr:postcode":"80469","addr:city":"München","POI_TYPE":"farmers market","amenity":"marketplace","type_of_initiative":"local_farmersmarket","SSEDAS_PARTNER":"INKOTA"},"geometry":{"type":"Point","coordinates":[11.5684046,48.1298895]}},{"type":"Feature","properties":{"name":"Bienenschutz Stuttgart","addr:country":"DE","addr:street":"Johannesstraße","addr:housenumber":"65","addr:postcode":"70176","addr:city":"Stuttgart","POI_TYPE":"beekeeper","type_of_initiative":"other_buylocal","SSEDAS_PARTNER":"INKOTA"},"geometry":{"type":"Point","coordinates":[9.1595436,48.779852]}},{"type":"Feature","properties":{"name":"Tifu Tutenberg Institut für Umweltgestaltung e.V. – Permakulturgarten","addr:country":"DE","addr:street":"Schulgartenweg / Altonaer Volkspark","addr:postcode":"22525","addr:city":"Hamburg","POI_TYPE":"Community Garden","leisure":"garden","garden:type":"community","type_of_initiative":"community_garden","SSEDAS_PARTNER":"INKOTA"},"geometry":{"type":"Point","coordinates":[9.90142822266,53.5764038844]}},{"type":"Feature","properties":{"name":"Kein Patent","addr:country":"DE","addr:street":"Frohschammerstraße","addr:housenumber":"14","addr:postcode":"80807","addr:city":"München","POI_TYPE":"club","club":"yes","type_of_initiative":"other_buylocal","SSEDAS_PARTNER":"INKOTA"},"geometry":{"type":"Point","coordinates":[11.5687822,48.1791081]}},{"type":"Feature","properties":{"name":"SpeiseGut","addr:country":"DE","addr:street":"Kladower Damm","addr:housenumber":"57","addr:postcode":"14089","addr:city":"Berlin-Spandau","POI_TYPE":"farm","landuse":"farmyard","type_of_initiative":"other_buylocal","SSEDAS_PARTNER":"INKOTA"},"geometry":{"type":"Point","coordinates":[13.18145243565,52.47823215]}},{"type":"Feature","properties":{"name":"Wilde Gärtnerei","addr:country":"DE","addr:street":"Bernauer Straße","addr:housenumber":"6","addr:postcode":"16321","addr:city":"Rüdnitz","POI_TYPE":"farm","landuse":"farmyard","type_of_initiative":"other_buylocal","SSEDAS_PARTNER":"INKOTA"},"geometry":{"type":"Point","coordinates":[13.6236517,52.7192273]}},{"type":"Feature","properties":{"name":"Mosterei Ketzür","addr:country":"DE","addr:street":"Ketzürer Dorfstraße","addr:housenumber":"30","addr:postcode":"14778","addr:city":"Beetzseeheide","POI_TYPE":"local producer","type_of_initiative":"other_buylocal","SSEDAS_PARTNER":"INKOTA"},"geometry":{"type":"Point","coordinates":[12.62991070747,52.49449387217]}},{"type":"Feature","properties":{"name":"DeinHof – Solidarische Gemüsekoop Dresden","addr:country":"DE","addr:street":"Niederwarthaer Straße","addr:housenumber":"50","addr:postcode":"01445","addr:city":"Radebeul","POI_TYPE":"consumer cooperative","type_of_initiative":"foodpurchasing_combine","SSEDAS_PARTNER":"INKOTA"},"geometry":{"type":"Point","coordinates":[13.6053465,51.0994584]}},{"type":"Feature","properties":{"name":"VERN","addr:country":"DE","addr:street":"Burgstraße","addr:housenumber":"20","addr:postcode":"16278","addr:city":"Greiffenberg/Uckermark","POI_TYPE":"club","club":"yes","type_of_initiative":"other_buylocal","SSEDAS_PARTNER":"INKOTA"},"geometry":{"type":"Point","coordinates":[13.9586821,53.0887752]}},{"type":"Feature","properties":{"name":"Ökonauten EG","addr:country":"DE","addr:street":"Sydower Feld","addr:housenumber":"4","addr:postcode":"16359","addr:city":"Biesenthal","POI_TYPE":"local producer","type_of_initiative":"other_buylocal","SSEDAS_PARTNER":"INKOTA"},"geometry":{"type":"Point","coordinates":[13.67387473583,52.74833059421]}},{"type":"Feature","properties":{"name":"Gemeinschaftsgarten am Protzenweiher","addr:country":"DE","addr:street":"Am Protzenweiher","addr:postcode":"93059","addr:city":"Regensburg","POI_TYPE":"community garden","leisure":"garden","garden:type":"community","type_of_initiative":"community_garden","SSEDAS_PARTNER":"INKOTA"},"geometry":{"type":"Point","coordinates":[12.10042119026,49.02570219835]}},{"type":"Feature","properties":{"name":"Bauernladen Paulskloster","addr:country":"DE","addr:street":"Beim Paulskloster","addr:housenumber":"28","addr:postcode":"28203","addr:city":"Bremen","POI_TYPE":"organic store","type_of_initiative":"other_buylocal","SSEDAS_PARTNER":"INKOTA"},"geometry":{"type":"Point","coordinates":[8.81822884083,53.07136231801]}},{"type":"Feature","properties":{"name":"Ökomarkt Neustadt","addr:country":"DE","addr:street":"Pappelstraße","addr:postcode":"28199","addr:city":"Bremen","POI_TYPE":"farmers market","amenity":"marketplace","type_of_initiative":"local_farmersmarket","SSEDAS_PARTNER":"INKOTA"},"geometry":{"type":"Point","coordinates":[8.790565,53.0682354]}},{"type":"Feature","properties":{"name":"Fleisch & Mehr... Feines zum Geniessen - Sebastian Spickernagel KG","addr:country":"DE","addr:street":"D.-Martin-Luther-Straße","addr:housenumber":"2","addr:postcode":"93047","addr:city":"Regensburg","POI_TYPE":"butcher","shop":"butcher","type_of_initiative":"other_buylocal","SSEDAS_PARTNER":"INKOTA"},"geometry":{"type":"Point","coordinates":[12.1011964,49.0168618]}},{"type":"Feature","properties":{"name":"Aprikosen für Alle","addr:country":"DE","addr:street":"Leisninger Straße","addr:housenumber":"80","addr:postcode":"01127","addr:city":"Dresden","POI_TYPE":"Community garden","leisure":"garden","garden:type":"community","type_of_initiative":"community_garden","SSEDAS_PARTNER":"INKOTA"},"geometry":{"type":"Point","coordinates":[13.72119426727,51.0830779739]}},{"type":"Feature","properties":{"name":"Slow Food Regensburg","addr:country":"DE","addr:street":"Küffnerstraße","addr:housenumber":"3","addr:postcode":"93059","addr:city":"Regensburg","POI_TYPE":"food council","type_of_initiative":"slowfood","SSEDAS_PARTNER":"INKOTA"},"geometry":{"type":"Point","coordinates":[12.10057064346,49.02214255]}},{"type":"Feature","properties":{"name":"Hofgemeinschaft Oldendorf","addr:country":"DE","addr:street":"Oldendorfer Landstraße","addr:housenumber":"24","addr:postcode":"27729","addr:city":"Holste","POI_TYPE":"farm","landuse":"farmyard","type_of_initiative":"other_buylocal","SSEDAS_PARTNER":"INKOTA"},"geometry":{"type":"Point","coordinates":[8.82929027081,53.3734947002]}},{"type":"Feature","properties":{"name":"Bioland-Imkerei Berg & Blüte","addr:country":"DE","addr:street":"Rambaldistraße","addr:housenumber":"27","addr:postcode":"81929","addr:city":"München","POI_TYPE":"beekeeper","type_of_initiative":"other_buylocal","SSEDAS_PARTNER":"INKOTA"},"geometry":{"type":"Point","coordinates":[11.6478435,48.1657125]}},{"type":"Feature","properties":{"free_keywords":"Community bonds;Microfinance;Participatory Budgeting","name":"Ehta Raha","addr:country":"FI","addr:housenumber":"54 D 1","addr:postcode":"850","addr:city":"Helsinki","POI_TYPE":"Ethical Financing","type_of_initiative":"other_finance","description":"Ehta Raha is a common good cooperative providing ethical financing e.g. community bonds.","description:fi":"Ehta Raha on yhteisön tarpeista lähtevää rahoitusta.","website":"http://www.ehtaraha.fi","SSEDAS_PARTNER":"Eetti","addr:street":"Jollaksentie","opening_hours:url":"https://www.facebook.com/Vaaterekki"},"geometry":{"type":"Point","coordinates":[25.08376925337,60.16400993877]}},{"type":"Feature","properties":{"free_keywords":"Fair Trade;Wholesalers","name":"Tampereen kehitysmaakauppa","addr:country":"FI","addr:housenumber":"3","addr:postcode":"33310","addr:city":"Tampere","POI_TYPE":"Fair Trade Shop","type_of_initiative":"fairtrade_wholesaler","description":"Fair Trade wholesale.","description:fi":"Tampereen kehitysmaakauppa ry edistää reilua kaupankäyntiä teollisuus- ja kehitysmaiden välillä.","website":"http://www.kehitysmaakauppa.org/","SSEDAS_PARTNER":"Eetti","addr:street":"Kohmankaari","contact:email":"posti@kehitysmaakauppa.org","organic":"yes","fair-trade":"only","shop":"fairtrade"},"geometry":{"type":"Point","coordinates":[23.63598364789,61.50363579064]}},{"type":"Feature","properties":{"free_keywords":"Café","name":"Turun Kirjakahvila","addr:country":"FI","addr:housenumber":"3","addr:postcode":"20500","addr:city":"Turku","POI_TYPE":"cafe","type_of_initiative":"other","description":"Turku Book Cafe is a bookstore, gallery and cafe.","description:fi":"Turun Kirjakahvila on vuodesta 1981 toiminut kirjakauppa, galleria ja vegaaninen kahvila, joka tarjoaa kulttuurielämyksiä viehättävässä ympäristössä.","website":"http://www.kirjakahvila.org/","SSEDAS_PARTNER":"Eetti","addr:street":"Vanha Suurtori","amenity":"cafe","organic":"yes","fair-trade":"yes","opening_hours:url":"http://www.kirjakahvila.org/?page_id=7"},"geometry":{"type":"Point","coordinates":[22.27561341223,60.45038751447]}},{"type":"Feature","properties":{"free_keywords":"Time banking;Alternative currencies","name":"Stadin aikapankki","addr:country":"FI","addr:housenumber":"15","addr:postcode":"530","addr:city":"Helsinki","POI_TYPE":"Timebank","type_of_initiative":"timebanking","description":"Helsinki Timebank","description:fi":"Stadin Aikapankin verkkotorilla vaihdetaan palveluita aikaa vastaan. Periaatteena on, että kaikkien aika, työ ja avun tarve ovat yhtä arvokkaita!","website":"https://stadinaikapankki.wordpress.com/","SSEDAS_PARTNER":"Eetti","addr:street":"Kaarlenkatu","image":"https://datengarten.allmende.io/public.php?service=files&t=0566a6af6da07c1612ff37db8531a563&download"},"geometry":{"type":"Point","coordinates":[24.9517904,60.1865518]}},{"type":"Feature","properties":{"free_keywords":"CSA;Food cooperative (legal coop status) / Consumer Cooperative;Café","name":"Oma Maa","addr:country":"FI","addr:housenumber":"15","addr:postcode":"530","addr:city":"Helsinki","POI_TYPE":"consumer cooperative (food coop)","type_of_initiative":"food_cooperative; other","description":"Oma Maa","description:fi":"Kahvila ja luomuruokaosuuskunta, tuottaa jäsenilleen ruokaa kumppanuusmaatalouden periaatteilla.","website":"http://www.omamaa.fi","SSEDAS_PARTNER":"Eetti","addr:street":"Kaarlenkatu","contact:email":"jasenet@omamaa.fi","organic":"only","regional":"yes","image":"https://datengarten.allmende.io/public.php?service=files&t=8dd38ee2ada82576d2294cb4eb89d406&download","club":"foodcoop","opening_hours:url":"http://www.omamaa.fi/kahvila-2/"},"geometry":{"type":"Point","coordinates":[24.9517904,60.1865518]}},{"type":"Feature","properties":{"free_keywords":"Urban Gardening;Community Gardening","name":"Suomen Talkoot ry","addr:country":"FI","addr:housenumber":"20 A 2","addr:postcode":"33240","addr:city":"Tampere","POI_TYPE":"Community garden","type_of_initiative":"community_garden; other_communities; other","description":"Community gardening and cleaning voluntary work.","description:fi":"Talkoillaan hyvinvointikampanja ja Haist' Kukkanen kaupunkiviljelyprojekti.","website":"https://suomentalkoot.wordpress.com/","SSEDAS_PARTNER":"Eetti","addr:street":"Hirvikatu","contact:email":"suomentalkoot@gmail.com","leisure":"garden","garden:type":"community"},"geometry":{"type":"Point","coordinates":[23.7129191,61.49876]}},{"type":"Feature","properties":{"free_keywords":"cooperative","name":"Osuuskunta Jalavala","addr:country":"FI","addr:housenumber":"44-46 C 9","addr:postcode":"560","addr:city":"Helsinki","POI_TYPE":"Work Cooperative","type_of_initiative":"other","description":"Working cooperative providing wellness services.","description:fi":"Osuuskunta Jalavala on monialainen osuuskunta, joukko eri alojen asiantuntijoita ja osaajia, joita yhdistää kiinnostus työskennellä kestävästi edistäen niin ihmisten kuin ympäristön hyvinvointia.","website":"http://www.jalavala.fi/","SSEDAS_PARTNER":"Eetti","addr:street":"Limingantie"},"geometry":{"type":"Point","coordinates":[24.9601568,60.2073567]}},{"type":"Feature","properties":{"name":"Hyväntekijä","addr:country":"FI","addr:housenumber":"1","addr:postcode":"80100","addr:city":"Joensuu","POI_TYPE":"boutique","type_of_initiative":"other","description":"Social store and online store selling products that do good.","description:fi":"Hyväntekijäa -verkkokauppa on yhteiskunnallinen yritys, joka myy vastuullisesti tuotettuja tuotteita.","website":"http://www.hyvantekija.fi/","SSEDAS_PARTNER":"Eetti","addr:street":"Koskikatu","contact:email":"info@hyvantekija.fi","organic":"yes","fair-trade":"yes","shop":"boutique","image":"https://datengarten.allmende.io/public.php?service=files&t=f234d4b4af767bf97d8a36520cbf1a22&download"},"geometry":{"type":"Point","coordinates":[29.7631328,62.5991732]}},{"type":"Feature","properties":{"free_keywords":"Restaurant","name":"Mea Manna","addr:country":"FI","addr:housenumber":"1","addr:postcode":"15110","addr:city":"Lahti","POI_TYPE":"Restaurant","type_of_initiative":"other","description":"Mea Manna is a social restaurant with a great big heart.","description:fi":"MeaManna on luomuruokaa ja kakkuja tarjoava kahvila, joka toimii erityistä tukea tarvitsevien aikuisten työpajana Lahdessa.","website":"http://www.meamanna.fi","SSEDAS_PARTNER":"Eetti","addr:street":"Hollolankatu","amenity":"restaurant","contact:email":"meamanna@kaupunkikyla.fi","organic":"yes","fair-trade":"yes","regional":"yes"},"geometry":{"type":"Point","coordinates":[25.64884066428,60.98340124364]}},{"type":"Feature","properties":{"free_keywords":"Garment rental;Sharing; re-use","name":"Vaaterekki","addr:country":"FI","addr:housenumber":"22","addr:postcode":"100","addr:city":"Helsinki","POI_TYPE":"Garment rental","type_of_initiative":"garment_rental","description":"Vaaterekki is a garment rental focusing on Finnish design.","description:fi":"Vaatelainaamo, josta voi lainata kotimaista muotia.","website":"https://www.facebook.com/Vaaterekki","SSEDAS_PARTNER":"Eetti","addr:street":"Vuorikatu","organic":"yes","regional":"yes","opening_hours:url":"https://www.facebook.com/Vaaterekki"},"geometry":{"type":"Point","coordinates":[24.9471295,60.1728054]}},{"type":"Feature","properties":{"name":"La boutique sans argent","addr:country":"FR","addr:street":"Avenue Daumesnil","addr:postcode":"75012","addr:city":"Paris","description":"Collaborative donation' place where goods can be exchanged","description:fr":"Lieu de don collaboratif où des objets peuvent être échangés","website":"http://laboutiquesansargent.org/","organic":"no","fair-trade":"no","regional":"yes","type_of_initiative":"swap_market","free_keywords":"Trade;Alternative trade;Goods exchange","SSEDAS_PARTNER":"RHSF","addr:housenumber":"181","opening_hours":"http://laboutiquesansargent.org/"},"geometry":{"type":"Point","coordinates":[2.3925580172,48.84068535782]}},{"type":"Feature","properties":{"name":"AMAP Arnaud Bernard","addr:country":"FR","addr:street":"Rue Escoussières Arnaud Bernard Maison des associations d'Arnaud Bernard","addr:postcode":"31000","addr:city":"Toulouse","description":"Association proposing direct selling through a partnership with local producers. Every week, consumers receive vegetables and fruits'basket","description:fr":"Association proposant de la vente directe à travers un partenariat avec des producteurs locaux. Chaque semaine, les consommateurs reçoivent un panier de légumes et de fruits.","website":"http://amap31toulousearnaud.wix.com/amapab","organic":"only","fair-trade":"no","regional":"only","type_of_initiative":"vegetable_box","free_keywords":"Agriculture;Organic Agriculture;Amap","SSEDAS_PARTNER":"RHSF","addr:housenumber":"3","contact:email":"amap31.toulouse_arnaudbernard@yahoo.fr","opening_hours":"http://amap31toulousearnaud.wix.com/amapab#!contact/c1edf","POI_TYPE":"greengrocer","shop":"greengrocer"},"geometry":{"type":"Point","coordinates":[1.44146731779,43.61064572455]}},{"type":"Feature","properties":{"name":"Sol Violette","addr:country":"FR","addr:street":"Place Tel Aviv","addr:postcode":"31000","addr:city":"Toulouse","description":"Local currency which is a citizen currency promoting local economy and which puts finance at real economy'service.","description:fr":"Monnaie locale et citoyenne qui alimente l'économie locale et remet la finance au service de l'économie réelle","website":"http://www.sol-violette.fr/","contact:phone":"+33 7 83 65 72 44","organic":"no","fair-trade":"no","regional":"only","type_of_initiative":"communitycurrency","free_keywords":"Finance;Bank;Solidarity currency","SSEDAS_PARTNER":"RHSF","addr:housenumber":"3","contact:email":"contact@sol-violette.info"},"geometry":{"type":"Point","coordinates":[1.39762507473,43.56490053136]}},{"type":"Feature","properties":{"name":"Greenburo","addr:country":"FR","addr:street":"Chemin du Sang de Serp","addr:postcode":"31200","addr:city":"Toulouse","description":"Company offering management services of paper and box wastes and hiring people excluded from the job market","description:fr":"Entreprise proposant des prestations de gestion des déchets papier et carton et employant des personnes exclues du marché de l'emploi","website":"http://www.greenburo.fr/","contact:phone":"+33 5 62 30 09 53","organic":"no","fair-trade":"no","regional":"yes","type_of_initiative":"recycling; socialinclusion_employment","free_keywords":"Environment;Circular economy;Recycling","SSEDAS_PARTNER":"RHSF","addr:housenumber":"131"},"geometry":{"type":"Point","coordinates":[1.42247142824,43.62092942175]}},{"type":"Feature","properties":{"name":"Coopérative du Haricot Tarbais","addr:country":"FR","addr:street":"Chemin de Bastillac","addr:postcode":"65000","addr:city":"Tarbes","description":"Cooperative which provides support and advices to producers of Tarbais beans and ensures promotion and marketing of the harvest to its members","description:fr":"Coopérative qui apporte conseils et soutien aux producteurs de haricots tarbais, et assure la promotion et la commercialisation des récoltes de ses adhérents","website":"http://www.haricot-tarbais.com","contact:phone":"+33 5 62 34 76 76","organic":"no","fair-trade":"no","regional":"only","type_of_initiative":"food_cooperative; agro_empowerment; agroecology_education; networking_initiative","free_keywords":"Agriculture;Local Agriculture;Food Cooperative","SSEDAS_PARTNER":"RHSF","addr:housenumber":"4","contact:email":"cht@haricot-tarbais.com","opening_hours":"http://www.haricot-tarbais.com"},"geometry":{"type":"Point","coordinates":[0.04197066998,43.22658312695]}},{"type":"Feature","properties":{"name":"R'2Jeux","addr:country":"FR","addr:street":"Rue Saint Joseph","addr:postcode":"33000","addr:city":"Bordeaux","description":"Association collecting, recycling and selling toys at a solidary price","description:fr":"Association collectant, revalorisant et vendant des jouets à des prix solidaires","website":"http://r2jeux.org/","contact:phone":"+33 6 60 09 36 27","organic":"no","fair-trade":"no","regional":"yes","type_of_initiative":"used_goods; upcycling; lowincome_supermarket","free_keywords":"Environment;Circular economy;Products revalorisation","SSEDAS_PARTNER":"RHSF","addr:housenumber":"41","contact:email":"recyclagedejeux@gmail.com","opening_hours":"http://r2jeux.org/index.php/contact/","POI_TYPE":"toy shop","shop":"toys"},"geometry":{"type":"Point","coordinates":[-0.5726291546,44.85323853924]}},{"type":"Feature","properties":{"name":"Ethiquable","addr:country":"FR","addr:street":"À Saint Laurent","addr:postcode":"32500","addr:city":"Fleurance","description":"Cooperative supporting independant producers which sells  organic and fair trade products","description:fr":"Coopérative accompagnant des producteurs autonomes et commercialisant des produits bio et équitables","website":"http://www.ethiquable.coop/","contact:phone":"+33 5 62 06 05 06","organic":"yes","fair-trade":"yes","regional":"yes","type_of_initiative":"food_cooperative","free_keywords":"Trade;Fair trade;Fair trade","SSEDAS_PARTNER":"RHSF"},"geometry":{"type":"Point","coordinates":[0.66409,43.8498]}},{"type":"Feature","properties":{"name":"Biocoop","addr:country":"FR","addr:street":"Avenue Raymond Poincaré","addr:postcode":"75116","addr:city":"Paris","description":"Cooperative selling organic food (382 shops in France)","description:fr":"Coopérattive vendnat dse produits biologiques (382 shops in France)","website":"http://www.biocoop.fr","contact:phone":"+33 2 41 79 70 00","organic":"only","fair-trade":"yes","regional":"yes","type_of_initiative":"food_cooperative; other_buylocal","free_keywords":"Agriculture;Organic Agriculture;Food Cooperative","SSEDAS_PARTNER":"RHSF","addr:housenumber":"12","POI_TYPE":"organic store"},"geometry":{"type":"Point","coordinates":[2.28691967857,48.86439823158]}},{"type":"Feature","properties":{"name":"Les jardins d'aujourd'hui","addr:country":"FR","addr:street":"Rue Surson","addr:postcode":"33300","addr:city":"Bordeaux","description":"Association promoting the development of alternative and natural gardening. It creates and manages shared ecological public places.","description:fr":"Association promouvant le développement de l'agriculture alternative et naturelle. Elle crée et gère des projets d'espaces publics partagés.","website":"http://association-les-jardins-daujourdhui.asso-web.com/","contact:phone":"+33 5 56 07 11 75","organic":"yes","fair-trade":"no","regional":"only","type_of_initiative":"community_garden; community_group","free_keywords":"Agriculture;Organic Agriculture;Community gardens","SSEDAS_PARTNER":"RHSF","addr:housenumber":"28","contact:email":"lesjardinsdaujourdhui@gmail.com","POI_TYPE":"Community garden","leisure":"garden","garden:type":"community"},"geometry":{"type":"Point","coordinates":[-0.56193,44.85799]}},{"type":"Feature","properties":{"name":"Catalis","addr:country":"FR","addr:street":"Rue Ariane","addr:postcode":"31520","addr:city":"Ramonville Saint-Agne","description":"Incubator of social innovation which supports SSE projects in the Midi-Pyrénées region.","description:fr":"Incubateur d'innovation sociale qui accompagnent des projets innovants de l'ESS","website":"http://www.catalis.coop/sites/fr/unions-regionales/catalis/","contact:phone":"+33 5 61 00 15 50","organic":"no","fair-trade":"no","regional":"only","type_of_initiative":"social_incubators","free_keywords":"Local development;Companies;Business Incubator","SSEDAS_PARTNER":"RHSF","addr:housenumber":"3","contact:email":"catalis@scop.coop"},"geometry":{"type":"Point","coordinates":[1.48237137302,43.55261746805]}},{"type":"Feature","properties":{"name":"Verger du Grand Morin","addr:country":"FR","addr:street":"Route de Prémol","addr:postcode":"77163","addr:city":"Damartin sur Tigeaux","description":"Organic farm offering self harvest","description:fr":"Cueillette de fruits et de légumes dans une ferme biologique","website":"http://www.vergerdugrandmorin.com","contact:phone":"+33 1 64 04 33 15","organic":"only","fair-trade":"no","regional":"only","type_of_initiative":"self_harvest","free_keywords":"Agriculture;Organic Agriculture;Farms offering self harvest","SSEDAS_PARTNER":"RHSF","opening_hours":"http://www.vergerdugrandmorin.com/verger/heures-date-ouverture","POI_TYPE":"farm","landuse":"farmyard"},"geometry":{"type":"Point","coordinates":[2.93094,48.80652]}},{"type":"Feature","properties":{"name":"Cuma Informagri","addr:country":"FR","addr:street":"Route des vignerons","addr:postcode":"33790","addr:city":"Landerrouat","description":"Cooperative for the use of agricultural materail","description:fr":"Cooperative d'utilsation de matériel agricole","contact:phone":"+33 5 56 61 40 20","organic":"no","fair-trade":"no","regional":"only","type_of_initiative":"other_foodedunpolicy","free_keywords":"Agriculture;Local Agriculture;Cuma","SSEDAS_PARTNER":"RHSF","addr:housenumber":"15"},"geometry":{"type":"Point","coordinates":[0.15558944544,44.7410347629]}},{"type":"Feature","properties":{"name":"Ateliers sans frontières","addr:country":"FR","addr:street":"Rue du Moulin Bateau","addr:postcode":"94380","addr:city":"Bonneuil-sur-Marne","description":"Association promoting inclusion through employment and hiring vulnerable people.","description:fr":"Association d’Insertion par l’Activité Economique qui accueille des personnes fragilisées.","website":"http://www.ateliersansfrontieres.org/","contact:phone":"+33 1 56 71 28 29","organic":"no","fair-trade":"no","regional":"yes","type_of_initiative":"socialinclusion_employment","free_keywords":"Local development;Social;Social inclusion through employment","SSEDAS_PARTNER":"RHSF","addr:housenumber":"17","contact:email":"contact@ateliersansfrontieres.org"},"geometry":{"type":"Point","coordinates":[2.49788,48.78266]}},{"type":"Feature","properties":{"name":"La cueillette de Caillan","addr:country":"FR","addr:street":"Domaine de Caillan","addr:postcode":"34550","addr:city":"Bessan","description":"Local Farm offering self harvest","description:fr":"Cueillette de fruits et de légumes dans une ferme locale","website":"http://www.cueillettedecaillan.com","contact:phone":"+33 4 67 09 31 69","organic":"no","fair-trade":"no","regional":"only","type_of_initiative":"self_harvest","free_keywords":"Agriculture;Local Agriculture;Farms offering self harvest","SSEDAS_PARTNER":"RHSF","opening_hours":"http://www.cueillettedecaillan.com","POI_TYPE":"farm","landuse":"farmyard"},"geometry":{"type":"Point","coordinates":[3.44306,43.3551]}},{"type":"Feature","properties":{"name":"IéS","addr:country":"FR","addr:street":"Rue Hermès","addr:postcode":"31520","addr:city":"Ramonville","description":"Solidarity finance and support social companies","description:fr":"Propose un financement solidaire et accompagne les entreprises sociales","website":"http://www.ies.coop","contact:phone":"+33 5 61 75 12 97","organic":"no","fair-trade":"no","regional":"only","type_of_initiative":"solidarity_lending; other_finance","free_keywords":"Finance;Financing;Solidarity financing","SSEDAS_PARTNER":"RHSF","addr:housenumber":"7","contact:email":"permanence@ies.coop","opening_hours":"http://www.ies.coop/Nous-contacter"},"geometry":{"type":"Point","coordinates":[1.48456411045,43.55131548132]}},{"type":"Feature","properties":{"name":"Crédit Coopératif","addr:country":"FR","addr:street":"Boulevard Pesaro","addr:postcode":"92024","addr:city":"Nanterre","website":"http://www.credit-cooperatif.coop","contact:phone":"+33 1 47 24 85 00","organic":"no","fair-trade":"no","regional":"no","type_of_initiative":"other_finance","free_keywords":"Finance;Bank;Solidarity banking","SSEDAS_PARTNER":"RHSF","addr:housenumber":"12","contact:email":"communication@credit-cooperatif.coop","POI_TYPE":"Bank"},"geometry":{"type":"Point","coordinates":[2.22145075827,48.8964459861]}},{"type":"Feature","properties":{"name":"La boîte à champignons","addr:country":"FR","addr:street":"Rue du Séminaire","addr:postcode":"94550","addr:city":"Chevilly-Larue","description":"Company selling mushrooms through a circular economy model. Coffee grounds from coffee machines (Paris area) are recycled to cultivate mushrooms","description:fr":"Entreprise vendant des champignons selon un modèle d'économie circulaire. Le marc de café venant des machines à café de Paris est recyclé pour cultiver les champignons","website":"http://www.laboiteachampignons.com/","contact:phone":"+33 6 52 85 58 04","organic":"no","fair-trade":"no","regional":"yes","type_of_initiative":"other_buylocal","free_keywords":"Environment;Circular economy;Waste revalorisation","SSEDAS_PARTNER":"RHSF","addr:housenumber":"38","contact:email":"bonjour@laboiteachampignons.com","POI_TYPE":"greengrocer","shop":"greengrocer"},"geometry":{"type":"Point","coordinates":[2.36304,48.76104]}},{"type":"Feature","properties":{"name":"Etymôn","addr:country":"FR","addr:street":"Rue Bernard Mulé","addr:postcode":"31400","addr:city":"Toulouse","description":"Association providing supporting measures for project leaders who can have a status during project's first years thanks to the incubator.","description:fr":"Association proposant des dispositifs d'accompagnement pour les porteurs de projets qui peuvent bénéficier d'un statut au sein de la couveuse d'activités.","website":"http://www.etymon.fr/","contact:phone":"+33 5 61 80 27 82","organic":"no","fair-trade":"no","regional":"yes","type_of_initiative":"social_incubators","free_keywords":"Local development;Companies;Initiative Factory","SSEDAS_PARTNER":"RHSF","addr:housenumber":"36","contact:email":"contact@etymon.fr","opening_hours":"http://www.etymon.fr/Pratique/Etymon-vous-accueille-Etymon-vous"},"geometry":{"type":"Point","coordinates":[1.45771265278,43.59778115097]}},{"type":"Feature","properties":{"name":"Finansol","addr:country":"FR","addr:street":"Rue Regnault","addr:postcode":"75013","addr:city":"Paris","description":"Association promoting ethical human and solidarity finance through a label for instance","description:fr":"Association promouvant une finance éthique humaine et solidaire notamment grâce à l'élaboration d'un label","website":"http://www.finansol.org/","contact:phone":"+33 1 53 36 80 60","organic":"no","fair-trade":"no","regional":"no","type_of_initiative":"ethicalfinance_education","SSEDAS_PARTNER":"RHSF","addr:housenumber":"58","contact:email":"contact@finansol.org","POI_TYPE":"Label"},"geometry":{"type":"Point","coordinates":[2.37426003375,48.82397804654]}},{"type":"Feature","properties":{"name":"Civam Bio des Landes","addr:country":"FR","addr:street":"Route des Barthes","addr:postcode":"40180","addr:city":"Oeyreluy","description":"Association supporting, developing and promoting organic agriculture in the Landes","description:fr":"Association accompagnant, développant et promouvant l'agriculture biologique dans les Landes","website":"http://www.civambiodeslandes.fr/","contact:phone":"+33 5 58 98 71 92","organic":"only","fair-trade":"no","regional":"only","type_of_initiative":"agroecology_education","free_keywords":"Agriculture;Agricultural development;Initiatives for agriculture empowerment","SSEDAS_PARTNER":"RHSF","addr:housenumber":"2915","contact:email":"info@civambiodeslandes.fr"},"geometry":{"type":"Point","coordinates":[-1.06845959259,43.65889492246]}},{"type":"Feature","properties":{"name":"MACIF","addr:country":"FR","addr:street":"Rue Pied de Fond","addr:postcode":"79037","addr:city":"Niort","description":"Insurance, Bank & Health care with a democratic governance","description:fr":"Assurance, Banque et Mutuelle avec un sytème de gouvernance démocratique","website":"https://www.macif.fr","organic":"no","fair-trade":"no","regional":"no","type_of_initiative":"other_finance","free_keywords":"Finance;Insurance;Mutual insurance","SSEDAS_PARTNER":"RHSF","addr:housenumber":"2 & 4"},"geometry":{"type":"Point","coordinates":[-0.48261635582,46.309970785]}},{"type":"Feature","properties":{"name":"Enercoop","addr:country":"FR","addr:street":"Rue du Faubourg de Nîmes","addr:postcode":"34000","addr:city":"Montpellier","description":"Supplier of 100% renewable energy","description:fr":"Fournisseur d'énergie 100% renouvelable","website":"http://languedoc.enercoop.fr/","contact:phone":"+33 9 72 12 64 03","organic":"no","fair-trade":"no","regional":"yes","type_of_initiative":"other_infraressources","free_keywords":"Environment;Energy;Green electricity","SSEDAS_PARTNER":"RHSF","addr:housenumber":"15"},"geometry":{"type":"Point","coordinates":[3.88140364418,43.61426680568]}},{"type":"Feature","properties":{"name":"ATIS","addr:country":"FR","addr:street":"Avenue Jean Jaurès","addr:postcode":"33600","addr:city":"Pessac","description":"Association accompanying the emergence and development of social enterprises.","description:fr":"Association accompagnant l'émergence et le développement d'entreprises sociales","website":"http://www.atis-asso.org/","contact:phone":"+33 9 79 72 71 94","organic":"no","fair-trade":"no","regional":"only","type_of_initiative":"social_incubators; sse_education","free_keywords":"Local development;Companies;Business Incubator","SSEDAS_PARTNER":"RHSF","addr:housenumber":"156","contact:email":"contact@atis-asso.org"},"geometry":{"type":"Point","coordinates":[-0.61413,44.81218]}},{"type":"Feature","properties":{"name":"La ruche qui dit oui","addr:country":"FR","addr:street":"Rue Saint-Maur","addr:postcode":"75010","addr:city":"Paris","description":"Direct purchases community with local producers","description:fr":"Communauté d'achats en direct apurès de producteurs locaux","website":"http://www.laruchequiditoui.fr","contact:phone":"+33 1 82 28 94 00","organic":"yes","fair-trade":"no","regional":"yes","type_of_initiative":"foodpurchasing_combine","free_keywords":"Agriculture;Local Agriculture;Foodsharing groups and distribution points","SSEDAS_PARTNER":"RHSF","addr:housenumber":"208","contact:email":"support@laruchequiditoui.fr"},"geometry":{"type":"Point","coordinates":[2.37112,48.87288]}},{"type":"Feature","properties":{"name":"Le marché paysan d'Antigone","addr:country":"FR","addr:street":"Avenue Samuel Champlain Quartier Antigone","addr:postcode":"34000","addr:city":"Montpellier","description":"Weekly market with local producers","description:fr":"Marché hebdomadaire avec des producteurs locaux","website":"http://www.paysansantigone.fr/","organic":"limited","fair-trade":"no","regional":"yes","type_of_initiative":"local_farmersmarket","free_keywords":"Agriculture;Local Agriculture;Weekly market with local producers","SSEDAS_PARTNER":"RHSF","contact:email":"marchepaysan34@gmail.com","opening_hours":"http://www.paysansantigone.fr/","POI_TYPE":"farmers market","amenity":"marketplace"},"geometry":{"type":"Point","coordinates":[3.88962,43.60706]}},{"type":"Feature","properties":{"name":"L'accorderie","addr:country":"FR","addr:street":"Quai de Jemmapes","addr:postcode":"75010","addr:city":"Paris","description":"Free exchange of services (ex: one hour of ironing in exchange of one hour of cooking)","description:fr":"Echange gratuit de services (ex: une heure de repassage en échange d'une heure de cuisine)","website":"http://www.accorderie.fr/","organic":"no","fair-trade":"no","regional":"yes","type_of_initiative":"timebanking","free_keywords":"Trade;Alternative trade;Skills exchange","SSEDAS_PARTNER":"RHSF","addr:housenumber":"84"},"geometry":{"type":"Point","coordinates":[2.36495,48.87242]}},{"type":"Feature","properties":{"free_keywords":"cooperation;participation;international solidarity","name":"Intersol","addr:country":"AT","addr:street":"Strubergasse","addr:housenumber":"18","addr:postcode":"5020","addr:city":"Salzburg","POI_TYPE":"Company office","description":"„INTERSOL“ is a club that seeks to support international solidarity.","description:de":"INTERSOL - Verein zur Förderung INTERnationaler SOLidarität.","website":"http://www.intersol.at/","type_of_initiative":"development_cooperation","SSEDAS_PARTNER":"Suedwind","contact:email":"office@intersol.at","contact:phone":"+43 662 874723","office":"company"},"geometry":{"type":"Point","coordinates":[13.03289,47.80913]}},{"type":"Feature","properties":{"free_keywords":"consumer cooperative;food cooperative","name":"FoodCoop FürMi","addr:country":"AT","addr:street":"Wiener Straße","addr:housenumber":"14","addr:postcode":"2122","addr:city":"Ulrichskirchen","POI_TYPE":"consumer cooperative (food coop)","club":"foodcoop","description":"„FürMi“ is a consumer dooperative in Lower Austria that sells food from local ecological agriculture.","description:de":"FürMi (Füreinander – Miteinander) ist eine  Food Coop in Niederösterreich, die Produkte aus regional-ökologischer Landwirtschaft direkt zur Verfügung stellt.","website":"http://www.fuermi.at/","type_of_initiative":"foodpurchasing_combine","SSEDAS_PARTNER":"Suedwind","opening_hours:url":"http://www.fuermi.at","organic":"only","fair-trade":"no","regional":"only"},"geometry":{"type":"Point","coordinates":[16.49338,48.39973]}},{"type":"Feature","properties":{"free_keywords":"bar;vegan/vegetarian food;collective","name":"Cafe Gagarin","addr:country":"AT","addr:street":"Garnisongasse","addr:housenumber":"24","addr:postcode":"1090","addr:city":"Wien","POI_TYPE":"Bar","description":"Tha „Gargarin“ is a political collective bar. The beverage prices are chosen by the costumers.","description:de":"Das Gargarin ist ein politisches Kollektiv, in dem Getränke und Essen verkauft werden. Die Preise werden von den KundInnen frei gewählt.","website":"http://cafegagarin.at/","type_of_initiative":"other","SSEDAS_PARTNER":"Suedwind","contact:email":"info@gargarin.at","opening_hours:url":"http://cafegagarin.at/contact","amenity":"bar","organic":"yes","fair-trade":"yes","regional":"yes"},"geometry":{"type":"Point","coordinates":[16.35595,48.21794]}},{"type":"Feature","properties":{"free_keywords":"talent barter;exchange circle;time barter","name":"Talente Tauschkreis Burgenland","addr:country":"AT","addr:street":"Untere Hauptstraße","addr:housenumber":"50","addr:postcode":"7536","addr:city":"Güttenbach","POI_TYPE":"talent and time barter","club":"ttb","description":"„Gib und nimm“ is a talent and time barter in Burgenland.","description:de":"Gib und nimm ist ein Talente- und Zeittauschkreis im Burgenland.","website":"http://gibundnimm.at/","type_of_initiative":"timebanking","SSEDAS_PARTNER":"Suedwind"},"geometry":{"type":"Point","coordinates":[16.28427,47.15697]}},{"type":"Feature","properties":{"free_keywords":"consumer cooperative;food cooperative","name":"Vegan food coop","addr:country":"AT","addr:street":"Geibelgasse","addr:housenumber":"23","addr:postcode":"1150","addr:city":"Wien","POI_TYPE":"consumer cooperative (food coop)","club":"foodcoop","description":"The first „vegan foodcoop“ of Vienna awaits you!","description:de":"Die erste vegane foodcoop Wiens wartet auf dich!","website":"http://www.veganfoodcoop.at/","type_of_initiative":"foodpurchasing_combine","SSEDAS_PARTNER":"Suedwind","contact:email":"info@veganfoodcoop.at","opening_hours:url":"https://www.veganfoodcoop.at/kontakt/","organic":"only","fair-trade":"no","regional":"only"},"geometry":{"type":"Point","coordinates":[16.33181,48.19099]}},{"type":"Feature","properties":{"free_keywords":"subsistence economy;community garden","name":"Garten der Generationen","addr:country":"AT","addr:street":"Dörflein","addr:housenumber":"10","addr:postcode":"3130","addr:city":"Herzogenburg","POI_TYPE":"Community garden","description":"The „Garten der Generationen“ is a community garden that allows everybody, who wants to contribute, to use tha garden.","description:de":"Der Garten der Generationen erlaubt allen, die etwas beitragen möchten, den Garten zu benützen.","website":"http://www.gartendergenerationen.net","type_of_initiative":"cohousing","SSEDAS_PARTNER":"Suedwind","organic":"only","fair-trade":"no","regional":"only","leisure":"garden","garden:type":"community"},"geometry":{"type":"Point","coordinates":[15.68035,48.27891]}},{"type":"Feature","properties":{"free_keywords":"consumer cooperative;food cooperative","name":"GELA Ochsenherz","addr:country":"AT","addr:street":"Fuchsenwaldstraße","addr:housenumber":"90","addr:postcode":"2230","addr:city":"Gänserndorf","POI_TYPE":"consumer cooperative (food coop)","club":"foodcoop","description":"„Gela Ochsenherz“ is a big consumer cooperative North-East from Vienna.","description:de":"Gela Ochsenherz ist eine große Food Coop nordöstlich von Wien.","website":"http://www.ochsenherz.at/","type_of_initiative":"communitysupported_agriculture","SSEDAS_PARTNER":"Suedwind","contact:email":"office@ochsenherz.at","opening_hours:url":"http://www.ochsenherz.at/entnahmestellen/","organic":"only","fair-trade":"no","regional":"only"},"geometry":{"type":"Point","coordinates":[16.70203,48.30682]}},{"type":"Feature","properties":{"free_keywords":"repairment;workshop","name":"Repair Café Nenzing","addr:country":"AT","addr:street":"Gaisstraße","addr:housenumber":"5","addr:postcode":"6710","addr:city":"Nenzing","POI_TYPE":"workshop for manufacture or repair of goods","description":"Workshop that encourages people repairing their broken stuff.","description:de":"Reparaturcafé, das Hilfe zur Selbsthilfe bei der Reparatur kaputter Dingen gibt.","website":"http://wiki.imwalgau.at/wiki/Repair_Caf%C3%A9_im_Walgau","type_of_initiative":"repair_cafe","SSEDAS_PARTNER":"Suedwind","contact:email":"ak-bds@pfarre-nenzing.at","opening_hours:url":"http://wiki.imwalgau.at/wiki/Repair_Caf%C3%A9_im_Walgau#Ganz_neu_im_Walgau:_Repair_Caf.C3.A9","amenity":"workshop"},"geometry":{"type":"Point","coordinates":[9.71241,47.19106]}},{"type":"Feature","properties":{"free_keywords":"Give-away store;Give-away shop","name":"Die Schenke","addr:country":"AT","addr:street":"Pfeilgasse","addr:housenumber":"33","addr:postcode":"1080","addr:city":"Wien","POI_TYPE":"Give-away shops","description":"This is „Die Schenke“, where you can bring and take goods for free.","description:de":"In der Schenke kannst du jederzeit Dinge gratis hinbringen und andere mitnehmen.","website":"https://dieschenke.wordpress.com/","type_of_initiative":"giveaway_shop","SSEDAS_PARTNER":"Suedwind","shop":"*","payment:none":"yes","contact:email":"schenke@geldlos.at","opening_hours:url":"https://dieschenke.wordpress.com/offnungszeiten-opening-times/","organic":"limited","fair-trade":"limited","regional":"limited"},"geometry":{"type":"Point","coordinates":[16.34269,48.20915]}},{"type":"Feature","properties":{"free_keywords":"local currency;exchange circle","name":"TALENTE-Vorarlberg","addr:country":"AT","addr:street":"Bildgasse","addr:housenumber":"10","addr:postcode":"6850","addr:city":"Dornbrin","POI_TYPE":"talent and time barter","club":"ttb","description":"A regional exchange circle with an own currency that is not connected to ordinary economy.","description:de":"Regionaler Tauschkeris mit eigener zins- und inflationsfreier Währung.","website":"http://www.talente.cc/","type_of_initiative":"timebanking","SSEDAS_PARTNER":"Suedwind","contact:email":"info@talente.cc","contact:phone":"+43 664 3456898"},"geometry":{"type":"Point","coordinates":[9.73401,47.41498]}},{"type":"Feature","properties":{"free_keywords":"syndicalism;hackerspace","name":"IT Syndikat Hackerspace","addr:country":"AT","addr:street":"Tschamlerstraße","addr:housenumber":"3","addr:postcode":"6020","addr:city":"Innsbruck","POI_TYPE":"hackerspace","description":"Syndicalist hackerspace in Innsbruck.","description:de":"Syndikalistischer Hackerspace in Innsbruck.","website":"http://it-syndikat.org/","type_of_initiative":"other_infraressources; coworking","SSEDAS_PARTNER":"Suedwind","contact:email":"wir@it-syndikat.org","leisure":"hackerspace"},"geometry":{"type":"Point","coordinates":[11.39588,47.25775]}},{"type":"Feature","properties":{"free_keywords":"house project;squatted house;syndicalism","name":"Haus Willy*Fred","addr:country":"AT","addr:street":"Graben","addr:housenumber":"3","addr:postcode":"4020","addr:city":"Linz","POI_TYPE":"squatted house","description":"Syndicalist houseproject in the centre of Linz.","description:de":"Syndikalistisches Hausprojekt im Zentrum von Linz.","website":"http://habitat.servus.at/willy-fred/","type_of_initiative":"squatted_place","SSEDAS_PARTNER":"Suedwind","contact:email":"willy-fred@servus.at","opening_hours:url":"http://habitat.servus.at/willy-fred/ueber-uns/kontakt/","building":"yes","squatted":"yes","contact:phone":"+43 732 287055"},"geometry":{"type":"Point","coordinates":[14.28995,48.30605]}},{"type":"Feature","properties":{"free_keywords":"consumer cooperative;food cooperative;conscious consumption","name":"Salzkörndl","addr:country":"AT","addr:street":"Kaigasse","addr:housenumber":"28","addr:postcode":"5020","addr:city":"Salzburg","POI_TYPE":"consumer cooperative (food coop)","club":"foodcoop","description":"Food cooperative supporting conscious consumption.","description:de":"Food Coop, die bewussten Konsum unterstützt","website":"http://salzkoerndl.org/","type_of_initiative":"foodpurchasing_combine","SSEDAS_PARTNER":"Suedwind","contact:email":"info@salzkoerndl.org","opening_hours:url":"http://salzkoerndl.org/?page_id=6","organic":"only","fair-trade":"no","regional":"only"},"geometry":{"type":"Point","coordinates":[13.05056,47.79656]}},{"type":"Feature","properties":{"free_keywords":"for free;give away shop","name":"Kostnix Umsonstladen","addr:country":"AT","addr:street":"Höttinger Gasse","addr:housenumber":"11","addr:postcode":"6020","addr:city":"Innsbruck","POI_TYPE":"Give-away shops","description":"„KostNix Innsbruck“ is a give-away shop from which you can take away all the things you need or at which you leave what you don`t need","description:de":"Bei KostNix Innsbruck kannst du dir das mitnehmen, was du brauchst und das dort lassen, was du nicht benötigst.","website":"http://kostnix.blogsport.at/","type_of_initiative":"giveaway_shop","SSEDAS_PARTNER":"Suedwind","shop":"yes","payment:none":"yes","contact:email":"kostnix@catbull.com","opening_hours:url":"http://kostnix.blogsport.at/kontakt/"},"geometry":{"type":"Point","coordinates":[11.38947,47.26907]}},{"type":"Feature","properties":{"free_keywords":"collective;solidaric agriculture;squatted land","name":"SoliLa!","addr:country":"AT","addr:street":"Naufahrtweg","addr:housenumber":"14","addr:postcode":"1220","addr:city":"Wien","POI_TYPE":"squatted  land","description":"This is the „SoliLa!“, where you can plant your own vegetables and harvest them.","description:de":"SoliLa! (Solidarisch Landwirtschaften) bietet die Möglichkeit eigenes Gemüse anzubauen und gemeinsam zu ernten.","website":"http://solila.blogsport.eu/","type_of_initiative":"guerilla_garden","SSEDAS_PARTNER":"Suedwind","contact:email":"solila@riseup.net","opening_hours:url":"http://solila.blogsport.eu/feldtage/","organic":"only","fair-trade":"no","regional":"only","squatted":"yes","landuse":"greenfield"},"geometry":{"type":"Point","coordinates":[16.45826,48.20449]}},{"type":"Feature","properties":{"free_keywords":"talent barter;exchange circle;time barter","name":"LETS Wien Tauschkreis","addr:country":"AT","addr:street":"Währinger Strasse","addr:housenumber":"59","addr:postcode":"1090","addr:city":"Wien","POI_TYPE":"talent and time barter","club":"ttb","description":"„LETS“ is a Local Exchange Trading System.","description:de":"LETS steht für Local Exchange Trading System und ist ein gemeinnütziger Verein zur Errichtung einer barggeldlosen Tausch- und Verrechnungssystems.","website":"http://www.waffeltausch.at/index.html","type_of_initiative":"communitycurrency","SSEDAS_PARTNER":"Suedwind","contact:email":"info@waffeltasuch.at","opening_hours:url":"http://www.waffeltausch.at/kontakt.html","organic":"limited","fair-trade":"limited","regional":"limited"},"geometry":{"type":"Point","coordinates":[16.354267,48.224113]}},{"type":"Feature","properties":{"free_keywords":"food cooperative;food sovereignty;neigboorhood association","name":"Franck Kistl","addr:country":"AT","addr:street":"Wimhölzelstraße","addr:housenumber":"23","addr:postcode":"4020","addr:city":"Linz","POI_TYPE":"consumer cooperative (food coop)","club":"foodcoop","description":"Neighborhood association supporting food sovereignty.","description:de":"Nachbarschaftsverein zur Unterstützung von Ernährungssouveränität","website":"http://www.franckkistl.at/","type_of_initiative":"foodpurchasing_combine","SSEDAS_PARTNER":"Suedwind","contact:email":"info@franckkistl.at","organic":"only","fair-trade":"no","regional":"only"},"geometry":{"type":"Point","coordinates":[14.31394,48.29526]}},{"type":"Feature","properties":{"free_keywords":"borrowing shop","name":"Leihladen Innsbruck","addr:country":"AT","addr:street":"Defreggerstraße","addr:housenumber":"29","addr:postcode":"6020","addr:city":"Innsbruck","description":"The „Leihladen Innsbruck“ is a Borrowing shop.","description:de":"Der Leihladen Innsbruck ist die Bibliothek der Dinge.","website":"https://www.facebook.com/leihladen-innsbruck","type_of_initiative":"lending_central","SSEDAS_PARTNER":"Suedwind","shop":"yes","contact:email":"innsbruck@leihladen.at"},"geometry":{"type":"Point","coordinates":[11.41076,47.26545]}},{"type":"Feature","properties":{"free_keywords":"Give-away store;Give-away shop","name":"Kostnix-Laden Wien","addr:country":"AT","addr:street":"Zentagasse","addr:housenumber":"26","addr:postcode":"1050","addr:city":"Wien","POI_TYPE":"Give-away shops","description":"This is the „Kost-Nix-Laden“, where you can bring and take goods for free.","description:de":"Im Kost-Nix-Laden kannst du jederzeit Dinge gratis hinbringen und andere mitnehmen.","website":"http://www.kostnixladen.at/","type_of_initiative":"giveaway_shop","SSEDAS_PARTNER":"Suedwind","shop":"*","payment:none":"yes","contact:email":"info@umsonstladen.at","opening_hours:url":"http://www.kostnixladen.at","organic":"limited","fair-trade":"limited","regional":"limited"},"geometry":{"type":"Point","coordinates":[16.35878,48.18817]}},{"type":"Feature","properties":{"free_keywords":"workshop;colllective;bicycle repair store","name":"The Vienna Bikekitchen","addr:country":"AT","addr:street":"Goldschlagstraße","addr:housenumber":"8","addr:postcode":"1150","addr:city":"Wien","POI_TYPE":"workshop for manufacture or repair of goods","description":"The „Vienna bikekitchen“ is a workshop where everybody can repair or rebuild their own bicycle.","description:de":"Die Bikekitchen ist eine offene Werkstätte für alle, die ihr Rad reparieren oder umbauen möchten.","website":"http://www.bikekitchen.net/","type_of_initiative":"bicycle_selfrepair","SSEDAS_PARTNER":"Suedwind","contact:email":"info@bikekitchen.net","opening_hours:url":"http://www.bikekitchen.net/index.php/Home","amenity":"workshop"},"geometry":{"type":"Point","coordinates":[16.3364,48.19914]}},{"type":"Feature","properties":{"free_keywords":"farm;social shelter","name":"Waldhüttl","addr:country":"AT","addr:street":"Naterer-See-Weg","addr:housenumber":"6","addr:postcode":"6020","addr:city":"Innsbruck","POI_TYPE":"social shelter","description":"The „Waldhüttl“ is a place to live for persons that have been persecuted.","description:de":"Das Waldhüttl bietet Personen, die verfolgt wurden, einen Platz zum Leben.","website":"http://www.waldhuettl.at","type_of_initiative":"other","SSEDAS_PARTNER":"Suedwind","contact:email":"info@waldhuettl.at","amenity":"social_facility","social_facility":"shelter"},"geometry":{"type":"Point","coordinates":[11.36283,47.24732]}},{"type":"Feature","properties":{"free_keywords":"bar;Self-management","name":"Cafe Decentral","addr:country":"AT","addr:street":"Hallerstraße","addr:housenumber":"1","addr:postcode":"6020","addr:city":"Innsbruck","POI_TYPE":"Bar","description":"Self-managed bar and café in Innsbruck that provied space for political groups","description:de":"Selbstverwaltetes Lokal in Innsbruck, das als Veranstaltungszentrum dient.","website":"http://decentral-ibk.com/","type_of_initiative":"other","SSEDAS_PARTNER":"Suedwind","opening_hours:url":"http://decentral-ibk.com/beispiel-seite/","amenity":"bar"},"geometry":{"type":"Point","coordinates":[11.40556,47.28113]}},{"type":"Feature","properties":{"POI_TYPE":"Arts Centre","SSEDAS_PARTNER":"CCUK","addr:city":"Crook","addr:country":"GB","addr:housename":"St Cuthbert‘s Centre","addr:postcode":"DL15 9DN","addr:street":"Church Hill","amenity":"arts_centre","contact:email":"info@jackdrum.co.uk","contact:phone":"441388765002","description":"A co-operative providing cultural opportunities for local communities through a range of workshops, courses, touring theatre, music events and cinema.","fair-trade":"no","free_keywords":"Culture / recreation / leisure;Art;Community arts","name":"Jack Drum Arts","organic":"no","regional":"yes","type_of_initiative":"other; other_education; other_communities","website":"http://www.jackdrum.co.uk"},"geometry":{"type":"Point","coordinates":[-1.74184,54.716816]}},{"type":"Feature","properties":{"POI_TYPE":"Pub","SSEDAS_PARTNER":"CCUK","addr:city":"Salford","addr:country":"GB","addr:housenumber":"2","addr:postcode":"M7 2FR","addr:street":"Back Hope Street","amenity":"pub","contact:email":"bar@StarOnTheCliff.co.uk","contact:phone":"441617924184","description":"Community pub bought by its regulars in 2009, with its own brewery.","fair-trade":"no","free_keywords":"Gastronomy;Bar/pub;Community ownership","name":"The Star","opening_hours":"http://www.staronthecliff.co.uk/index.html","organic":"no","regional":"yes","type_of_initiative":"other","website":"http://www.staronthecliff.co.uk/"},"geometry":{"type":"Point","coordinates":[-2.26399,53.507097]}},{"type":"Feature","properties":{"POI_TYPE":"Energy","SSEDAS_PARTNER":"CCUK","addr:city":"Romiley","addr:country":"GB","addr:housename":"Otterspool Weir","addr:postcode":"SK6 7HE","addr:street":"Mill Lane","contact:email":"info@stockport-hydro.co.uk","contact:phone":"441614270411","description":"A community-owned scheme generating power from the River Goyt.","fair-trade":"no","free_keywords":"Infastructure;Collective energy ownership;Hydro","image":"https://base.transformap.co/wiki/File:Stockporthydro.jpg","image:credit":"Stockport Hydro","image:license":"CC-BY","name":"Stockport Hydro","opening_hours":"24/7","organic":"no","regional":"yes","type_of_initiative":"collective_energy","website":"http://www.stockport-hydro.co.uk/"},"geometry":{"type":"Point","coordinates":[-2.09733,53.40152]}},{"type":"Feature","properties":{"POI_TYPE":"copy shop","SSEDAS_PARTNER":"CCUK","addr:city":"Manchester","addr:country":"GB","addr:housenumber":"28","addr:postcode":"M4 1HN","addr:street":"Edge Street","contact:email":"info@marctheprinters.co.uk","contact:phone":"441618390389","description":"A social enterprise run by its members - community groups, charities and voluntary groups - providing inexpensive and environmentally friendly printing.","fair-trade":"no","free_keywords":"Media;Media production;Printing","image":"https://base.transformap.co/wiki/File:Marc.jpg","image:credit":"MARC","image:license":"CC-BY","name":"Marc","opening_hours":"http://www.marctheprinters.co.uk/","organic":"no","regional":"yes","shop":"copy_shop","type_of_initiative":"other; other_mutualsociety; community_group; other_communities; networking_initiative","website":"http://www.marctheprinters.co.uk/"},"geometry":{"type":"Point","coordinates":[-2.23653965278,53.48433615891]}},{"type":"Feature","properties":{"POI_TYPE":"Care","SSEDAS_PARTNER":"CCUK","addr:city":"Manchester","addr:country":"GB","addr:housenumber":"31a","addr:postcode":"M23 9PS","addr:street":"Petersfield Drive","contact:email":"admin_manchester@casaltd.com","contact:phone":"441619629786","description":"An employee-owned social enterprise providing care and support to people living in their own homes.","fair-trade":"no","free_keywords":"Social enterprise;Care/homecare;Worker members","image":"https://base.transformap.co/wiki/File:Manchesterhomecare.jpg","image:credit":"Co-operative College","image:license":"CC-BY","name":"Manchester Home Care","organic":"no","regional":"yes","type_of_initiative":"other","website":"http://www.manchesterhomecare.co.uk/"},"geometry":{"type":"Point","coordinates":[-2.30373897421,53.40002114248]}},{"type":"Feature","properties":{"POI_TYPE":"Energy","SSEDAS_PARTNER":"CCUK","addr:city":"Manchester","addr:country":"GB","addr:housename":"St John‘s Centre","addr:postcode":"M16 7GX","addr:street":"St John‘s Road","contact:email":"info@stjohnscentre.org","contact:phone":"441618727795","description":"Co-operative generating green electricity to benefit people in the area.","fair-trade":"no","free_keywords":"Infrastructure;Collective energy ownership;Solar","image":"https://base.transformap.co/wiki/File:Stjohnssunshine.JPG","image:credit":"St John‘s Sunshine","image:license":"CC-BY","name":"St John‘s Sunshine","opening_hours":"ondemand","organic":"no","regional":"yes","type_of_initiative":"collective_energy; localcollective_ressource","website":"http://stjohnssunshine.org.uk/"},"geometry":{"type":"Point","coordinates":[-2.267817,53.456894]}},{"type":"Feature","properties":{"POI_TYPE":"Finance","SSEDAS_PARTNER":"CCUK","addr:city":"Newcastle","addr:country":"GB","addr:housenumber":"7","addr:postcode":"NE1 8AQ","addr:street":"New Bridge Street West","contact:email":"info@shared-interest.com","contact:phone":"441912339100","description":"A social enterprise that uses the investments of individuals to make loans to Fairtrade producers around the world.","fair-trade":"yes","free_keywords":"Finance;Solidarity financing / Solidarity lending;Investor members","image":"https://base.transformap.co/wiki/File:Sharedinterest.jpg","image:credit":"Shared Interest","image:license":"CC-BY","name":"Shared Interest","organic":"yes","regional":"no","type_of_initiative":"microfinance; other_finance","website":"http://www.shared-interest.com/"},"geometry":{"type":"Point","coordinates":[-1.6108102576,54.974622151]}},{"type":"Feature","properties":{"POI_TYPE":"Sports club","SSEDAS_PARTNER":"CCUK","addr:city":"Manchester","addr:country":"GB","addr:housenumber":"310","addr:postcode":"M40 0FJ","addr:street":"Lightbowne Road","contact:email":"office@fc-utd.co.uk","contact:phone":"441617692005","description":"A community football club owned and democratically run by its members.","fair-trade":"no","free_keywords":"Culture / recreation / leisure;Football;Supporter owners","image":"https://base.transformap.co/wiki/File:Fcunited.jpg","image:credit":"FC United","image:license":"CC-BY","name":"FC United","opening_hours":"http://www.fc-utd.co.uk/","organic":"no","regional":"yes","type_of_initiative":"other_communities","website":"http://www.fc-utd.co.uk/"},"geometry":{"type":"Point","coordinates":[-2.180574,53.517686]}},{"type":"Feature","properties":{"POI_TYPE":"Newspaper","SSEDAS_PARTNER":"CCUK","addr:city":"Manchester","addr:country":"GB","addr:housename":"Holyoake House","addr:postcode":"M60 0AS","addr:street":"Hanover Street","contact:email":"editorial@thenews.coop","contact:phone":"441612140870","description":"Newspaper for the global co-operative movement, with membership open to individual readers as well as to other co-operatives, corporate bodies and unincorporated organisations.","fair-trade":"yes","free_keywords":"Media;Media production;Newspaper","image":"https://base.transformap.co/wiki/File:Cooperativenews.jpg","image:credit":"Co-operative News","image:license":"CC-BY","name":"Co-op News","organic":"yes","regional":"yes","type_of_initiative":"other","website":"http://www.thenews.coop"},"geometry":{"type":"Point","coordinates":[-2.23935851901,53.48640110125]}},{"type":"Feature","properties":{"POI_TYPE":"Finance","SSEDAS_PARTNER":"CCUK","addr:city":"Manchester","addr:country":"GB","addr:housenumber":"58-60","addr:postcode":"M2 5EA","addr:street":"Brazennose Street","contact:email":"info@manchestercreditunion.co.uk","contact:phone":"441612315222","description":"Affordable financial services including ethical savings, loans, Christmas club accounts and money guidance sessions.","fair-trade":"no","free_keywords":"Finance;Credit unions;User members","name":"Manchester Credit Union","opening_hours":"https://manchester.securecu.co.uk/e48ab3deb2/secure.asp?section=6&sf=7","organic":"no","regional":"yes","type_of_initiative":"ethicalfinance_education; other_finance","website":"http://www.manchestercreditunion.co.uk"},"geometry":{"type":"Point","coordinates":[-2.24704372024,53.47990800222]}},{"type":"Feature","properties":{"POI_TYPE":"Business support","SSEDAS_PARTNER":"CCUK","addr:city":"Sunderland","addr:country":"GB","addr:housename":"The Co-op Centre","addr:postcode":"SR2 8AH","addr:street":"Whitehouse Road","contact:email":"info@ses.coop","contact:phone":"441915105500","description":"Support and advice for co-ops, social enterprises and other businesses, and a hub bringing them together.","fair-trade":"no","free_keywords":"Education & training;Social Entrepreneurship & SSE Development;SSE education and training","image":"https://base.transformap.co/wiki/File:Ses.jpg","image:credit":"SES","image:license":"CC-BY","name":"Sustainable Enterprise Strategies","opening_hours":"http://www.ses.coop/","organic":"limited","regional":"yes","type_of_initiative":"business_incubators; entrepreneurship_education; social_incubators; sse_education; networking_initiative","website":"http://www.ses.coop/"},"geometry":{"type":"Point","coordinates":[-1.373085,54.901514]}},{"type":"Feature","properties":{"POI_TYPE":"supermarket","SSEDAS_PARTNER":"CCUK","addr:city":"Manchester","addr:country":"GB","addr:housenumber":"89","addr:postcode":"M21 0BN","addr:street":"Albany Road","contact:email":"office@unicorn-grocery.coop","contact:phone":"441618610010","contact:website":"http://www.unicorn-grocery.coop/contact.php","description":"Affordable food with a focus on organic, Fairtrade and local sourcing.","fair-trade":"yes","free_keywords":"Food and agriculture;Buying local;Worker members","image":"https://base.transformap.co/wiki/File:Unicornmembers.jpg","image:credit":"Unicorn","image:license":"CC-BY","name":"Unicorn","opening_hours":"http://www.unicorn-grocery.coop/opening.php","organic":"yes","regional":"yes","shop":"supermarket","type_of_initiative":"other_buylocal","website":"http://www.unicorn-grocery.coop/"},"geometry":{"type":"Point","coordinates":[-2.27713274967,53.44665408002]}},{"type":"Feature","properties":{"POI_TYPE":"copy shop","SSEDAS_PARTNER":"CCUK","addr:city":"Leeds","addr:country":"GB","addr:housenumber":"16","addr:postcode":"LS7 3HB","addr:street":"Back Sholebroke Avenue","contact:phone":"441132624408","description":"Ecologically and environmentally friendly printing.","fair-trade":"no","free_keywords":"Media;Media production;Printing","image":"https://base.transformap.co/wiki/File:Footprint.jpeg","image:credit":"Footprint","image:license":"CC-BY","name":"Footprint","opening_hours":"http://www.footprinters.co.uk/contact-us.html","organic":"no","regional":"yes","shop":"copy_shop","type_of_initiative":"other","website":"http://www.footprinters.co.uk/"},"geometry":{"type":"Point","coordinates":[-2.23951542824,53.48645456557]}},{"type":"Feature","properties":{"POI_TYPE":"Housing","SSEDAS_PARTNER":"CCUK","addr:city":"Rochdale","addr:country":"GB","addr:housename":"St Alban‘s House","addr:postcode":"OL16 1UQ","addr:street":"Drake Street","contact:email":"rbh@rbh.org.uk","contact:phone":"441706274100","description":"Tenant and employee co-owned mutual housing society, working together to provide better places for members, tenants and employees to live and work and putting members at the heart of decision-making.","fair-trade":"no","free_keywords":"Housing & habitat;Co-operative;User and worker members","image":"https://base.transformap.co/wiki/File:Rbh.jpg","image:credit":"Rochdale Boroughwide Housing","image:license":"CC-BY","name":"Rochdale Boroughwide Housing","opening_hours":"http://www.rbh.org.uk/contact-us","organic":"no","regional":"only","type_of_initiative":"other_mutualsociety; other_habitat","website":"http://www.rbh.org.uk/"},"geometry":{"type":"Point","coordinates":[-2.163089,53.611721]}},{"type":"Feature","properties":{"POI_TYPE":"supermarket","SSEDAS_PARTNER":"CCUK","addr:city":"Manchester","addr:country":"GB","addr:housenumber":"111","addr:postcode":"M1 7DU","addr:street":"Oxford Road","contact:email":"mail@eighth-day.co.uk","contact:phone":"441612734878","description":"Shop and cafe providing vegetarian food and advice, and a caring, sustainable, democratic and ethical business environment for its workers.","fair-trade":"yes","free_keywords":"Food and agriculture;Buying local;Food selling","image":"https://base.transformap.co/wiki/File:Eighthday.jpg","image:credit":"Stephen E Campbell","image:license":"CC-BY","name":"8th Day","opening_hours":"http://8thday.coop/contact/","organic":"yes","regional":"yes","shop":"supermarket","type_of_initiative":"other","website":"http://8thday.coop/"},"geometry":{"type":"Point","coordinates":[-2.23756079266,53.47105679179]}},{"type":"Feature","properties":{"POI_TYPE":"dressmaker","SSEDAS_PARTNER":"CCUK","addr:city":"Manchester","addr:country":"GB","addr:housenumber":"527B","addr:postcode":"M21 0UF","addr:street":"Wilbraham Road","contact:email":"hello@stichedup.coop","contact:phone":"441618817141","craft":"dressmaker","description":"A not-for-profit co-operative who run garment-making and upcycling workshops to encourage individuality, pride and sustainability through fashion and style.","fair-trade":"limited","free_keywords":"Reduce, reuse, repair, recycle;Upcycling;Upcycling fashion","image":"https://base.transformap.co/wiki/File:Stitchedup.jpg","image:credit":"Stitched Up","image:license":"CC-BY","name":"Stitched Up","opening_hours":"http://www.stitchedup.coop/contact/","organic":"limited","regional":"yes","type_of_initiative":"upcycling; eco_art; other_reupcycle; other; other_education","website":"http://www.stitchedup.coop/"},"geometry":{"type":"Point","coordinates":[-2.271656,53.4423]}},{"type":"Feature","properties":{"POI_TYPE":"Architects","SSEDAS_PARTNER":"CCUK","addr:city":"Manchester","addr:country":"GB","addr:housename":"Holyoake House","addr:postcode":"M60 0AS","addr:street":"Hanover Street","contact:email":"info@loopsystems.co.uk","contact:phone":"441618399613","description":"Architects specialising in sustainable design, energy efficiency and environmental construction materials.","fair-trade":"no","free_keywords":"Housing & habitat;Co-operative;Worker members","name":"Loop Systems","opening_hours":"ondemand","organic":"no","regional":"yes","type_of_initiative":"other_infraressources","website":"http://www.loopsystems.co.uk"},"geometry":{"type":"Point","coordinates":[-2.23930219263,53.48648089871]}},{"type":"Feature","properties":{"POI_TYPE":"Education","SSEDAS_PARTNER":"CCUK","addr:city":"Manchester","addr:country":"GB","addr:housename":"Holyoake House","addr:postcode":"M60 0AS","addr:street":"Hanover Street","contact:email":"enquiries@co-op.ac.uk","contact:phone":"441618193000","description":"Education to promote co-operative values, ideas and principles within co-operatives, communities and society, providing training and resources to support the development of a successful and diverse co-operative sector.","fair-trade":"yes","free_keywords":"Education & training;Social Entrepreneurship & SSE Development;Vocational education & empowerment","image":"https://base.transformap.co/wiki/File:Cooperativecollege.jpg","image:credit":"Co-operative College","image:license":"CC-BY","name":"The Co-operative College","opening_hours":"Mo-Fr 09:00-17:00","organic":"yes","regional":"yes","type_of_initiative":"sse_education; entrepreneurship_education","website":"http://www.co-op.ac.uk"},"geometry":{"type":"Point","coordinates":[-2.2394725129,53.48651760549]}},{"type":"Feature","properties":{"POI_TYPE":"Sports club","SSEDAS_PARTNER":"CCUK","addr:city":"Rochdale","addr:country":"GB","addr:housename":"Spotland Stadium","addr:postcode":"OL11 5DR","addr:street":"Sandy Lane","contact:email":"info@hornetsrugbyleague.com","contact:phone":"441706648004","description":"A co-operative created by fans after the club was put into administration in 2009.","fair-trade":"no","free_keywords":"Culture / recreation / leisure;Rugby;Member owners","name":"Rochdale Hornets","organic":"no","regional":"yes","type_of_initiative":"other_communities","website":"http://www.hornetsrugbyleague.co.uk/"},"geometry":{"type":"Point","coordinates":[-2.180086,53.61915]}},{"type":"Feature","properties":{"POI_TYPE":"wholesaler","SSEDAS_PARTNER":"CCUK","addr:city":"Elland","addr:country":"GB","addr:housename":"Lowfields Business Park","addr:postcode":"HX5 9DB","addr:street":"Lacy Way","contact:email":"info@suma.coop","contact:phone":"441422313840","description":"Wholesaler/distributor, specialising in vegetarian, fairly traded, organic, ethical and natural products.","fair-trade":"yes","free_keywords":"Food and agriculture;Food wholesaler;Food selling","name":"Suma","opening_hours":"http://www.suma.coop/contact-us/","organic":"yes","regional":"yes","type_of_initiative":"other","website":"http://www.suma.coop/"},"geometry":{"type":"Point","coordinates":[-1.82782,53.69347]}},{"type":"Feature","properties":{"POI_TYPE":"greengrocer","SSEDAS_PARTNER":"CCUK","addr:city":"Manchester","addr:country":"GB","addr:housenumber":"49","addr:postcode":"M15 5RF","addr:street":"Old Birley Street","contact:email":"sales@vegpeople.org.uk","contact:phone":"447718425499","description":"A co-operative of local organic growers and restaurants working together to provide fresh, seasonal food to restaurants, caterers and public sector organisations","fair-trade":"no","free_keywords":"Food and agriculture;Buying local;Food selling","image":"https://base.transformap.co/wiki/File:Manchestervegpeople.jpg","image:credit":"Manchester Veg People","image:license":"CC-BY","name":"Manchester Veg People","opening_hours":"ondemand","organic":"yes","regional":"yes","shop":"greengrocer","type_of_initiative":"other_buylocal","website":"http://vegpeople.org.uk/"},"geometry":{"type":"Point","coordinates":[-2.2487637252,53.46513243574]}},{"type":"Feature","properties":{"POI_TYPE":"Arts Centre","SSEDAS_PARTNER":"CCUK","addr:city":"Manchester","addr:country":"GB","addr:housenumber":"66-72","addr:postcode":"M1 2WH","addr:street":"Chapeltown Street","amenity":"arts_centre","contact:email":"info@rogueartistsstudios.co.uk","contact:phone":"441612737492","description":"A not-for-profit artists studios providing members with accessible and affordable workspace in Manchester city centre, run as a co-operative.","fair-trade":"no","free_keywords":"Culture / recreation / leisure;Art;User members","name":"Rogue Studios","opening_hours":"ondemand","organic":"no","regional":"yes","type_of_initiative":"mutualsociety_art; coworking; other_educatio; other_infraressource; othe","website":"http://www.rogueartistsstudios.co.uk/"},"geometry":{"type":"Point","coordinates":[-2.226337,53.478663]}},{"type":"Feature","properties":{"POI_TYPE":"Forestry","SSEDAS_PARTNER":"CCUK","addr:city":"Manchester","addr:country":"GB","addr:housename":"The Yard","addr:postcode":"M12 5FQ","addr:street":"Vaughan Street","contact:email":"info@treestation.co.uk","contact:phone":"441612313333","description":"Locally sourced timber, converted into woodfuels and other products for the local market.","fair-trade":"no","free_keywords":"Infrastructure;Energy;Community forestry","image":"https://base.transformap.co/wiki/File:Treestation.jpg","image:credit":"Tree Station","image:license":"CC-BY","name":"TreeStation","opening_hours":"ondemand","organic":"no","regional":"yes","type_of_initiative":"other_buylocal; community_forestry; collective_energy","website":"http://www.treestation.co.uk/"},"geometry":{"type":"Point","coordinates":[-2.198315,53.471397]}},{"type":"Feature","properties":{"POI_TYPE":"Waste management","SSEDAS_PARTNER":"CCUK","addr:city":"Manchester","addr:country":"GB","addr:housenumber":"E1-8","addr:postcode":"M11 2WJ","addr:street":"New Smithfield Market","contact:email":"office@emergemanchester.co.uk","contact:phone":"441612238200","description":"A social enterprise empowering individuals, businesses and communities to reduce, re-use and recycle.","fair-trade":"no","free_keywords":"Reduce, reuse, repair, recycle;Recycling;Recycling, waste revalorisation","name":"EMERGE","organic":"no","regional":"yes","type_of_initiative":"waste_awareness; other_wastereduction; other_reupcycle","website":"http://emergemanchester.co.uk/"},"geometry":{"type":"Point","coordinates":[-2.176156,53.471756]}},{"type":"Feature","properties":{"free_keywords":"Commerce;Wholesalers;Food, Crafts","name":"Szczypta Świata","addr:country":"PL","addr:street":"ul. M. Curie-Skłodowskiej","addr:housenumber":"31/III","addr:postcode":"55-120","addr:city":"Oborniki Śląskie","POI_TYPE":"Fair Trade Shop","shop":"fairtrade","description":"Szczypta Świata is family Fair Trade business, selling Fair Trade products as a wholsaler.","description:pl":"Szczypta Świata to firma rodzinna, która zajmuje się sprzedażą produktów Sprawiedliwego Handlu.","website":"http://www.szczyptaswiata.pl","contact:website":"http://szczyptaswiata.pl/Kontakty-cinfo-pol-32.html","contact:email":"sklep@szczyptaswiata.plarden","contact:phone":"+48 508 100 141","opening_hours:url":"http://szczyptaswiata.pl/Kontakty-cinfo-pol-32.html","organic":"yes","fair-trade":"yes","regional":"no","type_of_initiative":"fairtrade_wholesaler","SSEDAS_PARTNER":"FairTradePoland"},"geometry":{"type":"Point","coordinates":[16.91863933002,51.30035546627]}},{"type":"Feature","properties":{"free_keywords":"Places / Organisations;Schools;","name":"Zespół Szkół Handlowych im. Bolesława Prusa","addr:country":"PL","addr:street":"ul. Gen. J. Hallera","addr:housenumber":"60","addr:postcode":"40-358","addr:city":"Katowice","POI_TYPE":"school","amenity":"school","description":"Zespół Szkół Handlowych im. Bolesława Prusa w Katowicach is trade school (secondary school) in Katowice, southern Poland.","description:pl":"Zespół Szkół Handlowych im. Bolesława Prusa w Katowicach kształci przyszłych handlowców, oferując nie tylko kompetencje zawodowe, ale również wiedzę na temat zależności globalnych.","website":"http://www.zshkatowice.pl","contact:phone":"+48 32 256 99 34","organic":"limited","fair-trade":"yes","regional":"yes","type_of_initiative":"fairtrade_school","SSEDAS_PARTNER":"FairTradePoland"},"geometry":{"type":"Point","coordinates":[19.07374725893,50.27259714336]}},{"type":"Feature","properties":{"free_keywords":"Places / Organisations;NGOs;","name":"Ośrodek Działań Ekologicznych „Źródła“","addr:country":"PL","addr:street":"ul. Zielona","addr:housenumber":"27","addr:postcode":"90-602","addr:city":"Łódź","POI_TYPE":"Association Office","office":"association","description":"The Centre for Environmental Activities Zrodla is a nonprofit association with a mission to educate students, teachers, and the general public about local and global issues like ecology, Fair Trade, CSR","description:pl":"Celami Stowarzyszenia są: m.in. pobudzanie świadomości ekologicznej społeczeństwa oraz propagowanie i rozwijanie Sprawiedliwego Handlu (Fair Trade) oraz podnoszenie świadomości konsumentów w zakresie etycznego i odpowiedzialnego stylu konsumpcji.","website":"http://www.zrodla.org/glowna/","contact:email":"office@zrodla.org.pl","contact:phone":"+48 42 632 81 18","opening_hours:url":"http://www.zrodla.org/kontakt/","organic":"yes","fair-trade":"yes","regional":"yes","type_of_initiative":"consumerism_awareness; sse_education; ngo","SSEDAS_PARTNER":"FairTradePoland"},"geometry":{"type":"Point","coordinates":[19.44748192394,51.77021499206]}},{"type":"Feature","properties":{"POI_TYPE":"farmers market","SSEDAS_PARTNER":"SOSFAIM","addr:city":"Schaerbeek","addr:country":"BE","addr:housenumber":19,"addr:street":"Rue Van Hove","addr:postcode":1030,"contact:email":"contact@bees-coop.be","contact:phone":"+32 498 65 20 38","description":"the first cooperative supermarket in Brussels : to be owner, worker and client at the same time","description:fr":"BEES coop (pour « coopérative bruxelloise, écologique, économique et sociale ») est le premier supermarché participatif à Bruxelles. L’objectif est simple : construire une coopérative de consommateurs d’envergure visant à offrir une nourriture de qualité à prix accessible mais juste, dans une démarche respectueuse de l’environnement et de l’humain. Le but est de créer une alternative à la grande distribution en se basant sur la participation active des membres au fonctionnement du magasin.","fair-trade":"limited","free_keywords":"consumer cooperative;fair trade","image":"https://base.transformap.co/wiki/File:Bees_coop_logo.png","image:license":"©","name":"Beescoop","organic":"limited","regional":"yes","type_of_initiative":"local_farmersmarket","website":"http://bees-coop.be","image:credit":"Bees coop"},"geometry":{"type":"Point","coordinates":[4.377250146,50.85693926093]}},{"type":"Feature","properties":{"POI_TYPE":"Coffee store","SSEDAS_PARTNER":"SOSFAIM","addr:city":"Ciney","addr:country":"BE","addr:housenumber":41,"addr:street":"Rue Courtejoie","addr:postcode":5590,"contact:phone":"+32 473803820","description":"An exemplary case of short circuit of production-transformation and commercialisation of Coffee","fair-trade":"yes","free_keywords":"fair trade","image":"https://base.transformap.co/wiki/File:Cafe_chorti_logo.png","image:license":"©","name":"Café Chorti scrl","organic":"only","regional":"yes","type_of_initiative":"other","website":"http://www.chorti.be/fr/accueil.htm","image:credit":"Café Chorti"},"geometry":{"type":"Point","coordinates":[5.10220285914,50.29375655594]}},{"type":"Feature","properties":{"POI_TYPE":"cooperative","SSEDAS_PARTNER":"SOSFAIM","addr:city":"Herstal","addr:country":"BE","addr:housenumber":690,"addr:street":"Rue de Milmort","addr:postcode":4040,"contact:email":"info@terre.be","contact:phone":"+32 4 240 58 58","description":"an innovate structure of social and solidarity economy aiming at collecting funds through recycling activities in Belgium to fund development project in the South","fair-trade":"limited","free_keywords":"recycling;clothes","name":"Terre","organic":"limited","regional":"no","type_of_initiative":"recycling","website":"http://www.terre.be","opening_hours:url":"http://www.terre.be/page.php?pagID=24"},"geometry":{"type":"Point","coordinates":[5.60796655622,50.68890657164]}},{"type":"Feature","properties":{"POI_TYPE":"IT career","SSEDAS_PARTNER":"TERRAIII","addr:city":"Ilfov","addr:country":"RO","addr:postcode":"77015","addr:street":"Balotești","contact:email":"adrian@effectio.org","contact:phone":"+40 745677607","description":"EffectIO mission is to help young IT enthusiasts to better define their chosen career direction and propel them towards prestigious companies in the industry.","description:ro":"Misiunea EffectIO este aceea de a-i ajuta tinerii pasionaţi de IT să îşi definească mai bine direcţia în cariera aleasă şi de a-i propulsa pe aceştia către companii de prestigiu din industrie.","free_keywords":"wordpress;learning IT;E-commerce","image":"https://base.transformap.co/wiki/File:EffectIO.jpg","name":"EffectIO","type_of_initiative":"entrepreneurship_education; other_education, other","website":"http://effectio.org/"},"geometry":{"type":"Point","coordinates":[26.068035,44.60192]}},{"type":"Feature","properties":{"POI_TYPE":"Archive","SSEDAS_PARTNER":"TERRAIII","addr:city":"Baia Mare","addr:country":"RO","addr:housenumber":"40","addr:postcode":"430242","addr:street":"Petofi Șandor","contact:email":"bmgabipop@yahoo.com","contact:phone":"+40 722968033","description":"SOS is an authorized workshop for processing archives, bindery and document warehouse established by the Humanitarian Association Together for Them Baia Mare","description:ro":"Atelier autorizat de prelucrare arhivistica, legatorie si depozit pentru documente înființat de Asociația Umanitară Împreună pentru Ei Baia Mare","free_keywords":"archiving;bindery;document warehouse","image":"https://base.transformap.co/wiki/File:23_SOS.jpg","name":"S.O.S.","type_of_initiative":"other","website":"http://butiq7.romanobutiq.ro/despre-noi/afaceri-sociale/s-o-s/"},"geometry":{"type":"Point","coordinates":[23.57261476323,47.6691181246]}},{"type":"Feature","properties":{"POI_TYPE":"confectionery factory","SSEDAS_PARTNER":"TERRAIII","addr:city":"Giurgiu","addr:country":"RO","addr:postcode":"87045","addr:street":"Clejani","contact:email":"madalin@mbq.ro","contact:phone":"+40 744955504","craft":"confectionery","description":"Mesteshukar Fashion is a textile workshop part of Mesteshukar ButiQ network that produces clothing items in collaboration with Austrian designers.","description:ro":"Mestesukar Fashion este un atelier de confecţii textile din rețeaua Mesteshukar ButiQ care produce obiecte de îmbrăcăminte în colaborare cu designeri austrieci.","free_keywords":"clothes;roma people;design","image":"https://base.transformap.co/wiki/File:Mestesukar_Fashion.jpg","name":"Mestesukar Fashion","type_of_initiative":"other","website":"http://pakivalobutiq.romanobutiq.ro/despre-noi/afaceri-sociale/mestesukar-fashion/"},"geometry":{"type":"Point","coordinates":[25.694328,44.316708]}},{"type":"Feature","properties":{"POI_TYPE":"recycling","SSEDAS_PARTNER":"TERRAIII","addr:city":"București","addr:country":"RO","addr:housenumber":"4","addr:postcode":"30193","addr:street":"Sarmizegetusa","contact:email":"recicleta@viitorplus.ro","contact:phone":"+40 735854170","description":"Recicleta collects paper, PET and aluminum cans for recycling. Transported with cargo-tricycles, headed by persons from vulnerable groups. They collect from businesses and buildings in the north, center and east of Bucharest.","description:ro":"Recicleta colectează hârtie, PET și doze de aluminiu pentru reciclare. Transport asigurat cu cargo-triciclete, conduse de persoane din grupuri vulnerabile. Colectare de la firme și cladiri din nordul, centrul și estul Bucureștiului.","free_keywords":"recycling;bicycles;vulnerable social groups","image":"https://base.transformap.co/wiki/File:Recicleta.jpg","name":"Recicleta","type_of_initiative":"recycling; socialinclusion_employment","website":"https://www.recicleta.ro/"},"geometry":{"type":"Point","coordinates":[26.10509,44.433347]}},{"type":"Feature","properties":{"POI_TYPE":"gym","SSEDAS_PARTNER":"TERRAIII","addr:city":"București","addr:country":"RO","addr:housenumber":"66","addr:postcode":"31214","addr:street":"Logofăt Tăutu","contact:email":"office@socialgym.ro","contact:phone":"+40 311072618","description":"Social club Gym is the first nonprofit fitness and aerobic Club that offers diversified aerobics, wellness and nutrition services and promotes responsible behavior action programs, social and networking events.","description:ro":"Social Gym este primul club non-profit de fitness și aerobic ce oferă servicii diversificate de fitness, aerobic, wellness și nutriție și promovează un comportament responsabil prin programe de acțiune socială și evenimente de networking.","free_keywords":"aerobic;fitness;children's programs /health","image":"https://base.transformap.co/wiki/File:Social_Gym.jpg","name":"Social Gym","opening_hours":"http://www.socialgym.ro/contact/","type_of_initiative":"other","website":"http://www.socialgym.ro/"},"geometry":{"type":"Point","coordinates":[26.116733,44.418741]}},{"type":"Feature","properties":{"POI_TYPE":"bakery","SSEDAS_PARTNER":"TERRAIII","addr:city":"Ploiești","addr:country":"RO","addr:housenumber":"1A","addr:postcode":"100238","addr:street":"Șoseaua Centura de Vest","contact:email":"office.cd@concordia.or.at","contact:phone":"+40 721 239094","contact:website":"http://www.concordia.or.at/romania/en/kontaktimpressum.html","description":"CONCORDIA bakery, social economy enterprise part of CONCORDIA Development, economic branch of CONCORDIA Humanitarian Organization, supports young people in difficulty to follow the Baker courses organized by the School of Crafts.","description:ro":"Brutăria CONCORDIA, întreprindere de economie socială care face parte din CONCORDIA Development, ramură economică a Organizației Umanitare CONCORDIA, susține tineri aflați în dificultate să urmeze cursurile de brutar organizate de Școala de Meserii.","fair-trade":"yes","free_keywords":"Concordia bakery;Concordia social enterprise;natural bakery products","image":"https://base.transformap.co/wiki/File:Concordia.jpg","name":"Concordia","organic":"limited","regional":"yes","shop":"bakery","type_of_initiative":"socialinclusion_employment; socialinclusion_empowerment; other_socialinclusion; other_education","website":"http://www.concordia.or.at/romania"},"geometry":{"type":"Point","coordinates":[25.986521,44.90357]}},{"type":"Feature","properties":{"POI_TYPE":"museum","SSEDAS_PARTNER":"TERRAIII","addr:city":"București","addr:country":"RO","addr:housenumber":"4","addr:postcode":"20523","addr:street":"Alecu Russo","contact:email":"rezervari@peintuneric.ro","contact:phone":"+40 769697172","description":"Pe Întuneric is a museum-restaurant that invites you to go through a journey in which you will be deprived of the vision sense but you will have a range of unique sensorial experiences by using other senses: hearing, smell, tactile and taste","description:ro":"Pe Întuneric este un muzeu restaurant care te invită într-o călătorie în care vei fi privat de vedere, dar vei avea parte de o serie întreagă de experinţe senzoriale unice, cu ajutorul altor simţuri: auzul, mirosul, tactilul şi gustul","free_keywords":"on dark;sensorial experiences;museum- restaurant","image":"https://base.transformap.co/wiki/File:Pe_intuneric.jpg","name":"Pe Intuneric","tourism":"museum","type_of_initiative":"other","website":"http://www.peintuneric.ro/"},"geometry":{"type":"Point","coordinates":[24.172265,45.805054]}},{"type":"Feature","properties":{"POI_TYPE":"wheelchair services","SSEDAS_PARTNER":"TERRAIII","addr:city":"Ploiești","addr:country":"RO","addr:housenumber":"46","addr:postcode":"100062","addr:street":"Curcubeului","contact:email":"contact@sesprahova.ro","contact:phone":"+40 244522488","description":"Roțile schimbării is running services supporting people with disabilities as main activity: wheelchair adapted transport services. The unit is also registred as a protected unit.","description:ro":"Roțile Schimbării are ca obiect de activitate derularea de servicii în sprijinul persoanelor cu dizabilități: transport adaptat și servicii scaune rulante. Deține totodată Autorizație de Unitate Protejată","free_keywords":"disabled people;wheelchair service;adapted transport","image":"https://base.transformap.co/wiki/File:Ro_ile_schimb_rii.JPG","name":"Roțile Schimbării","type_of_initiative":"other","website":"http://www.sesprahova.ro/"},"geometry":{"type":"Point","coordinates":[26.004839,44.938961]}},{"type":"Feature","properties":{"POI_TYPE":"gift store","SSEDAS_PARTNER":"TERRAIII","addr:city":"Cluj","addr:country":"RO","addr:postcode":"400090","addr:street":"Potaissa","contact:email":"mesteshukar.cluj@gmail.com","contact:phone":"+40 748895357","description":"Meşteshukar ButiQ Cluj brings in the heart of the city the traditional Roma crafts, crafted by skillful hands in a creative format, a mobile shop which challenges you to follow it around the city and country.","description:ro":"Meșteshukar ButiQ Cluj aduce în inima orașului meșteșuguri cu tradiție romă, lucrate de mâini iscusite într-un format creativ, un magazin mobil care te provoacă să-l urmărești prin oraș și prin țară.","free_keywords":"mobile shop;roma traditions;design","image":"https://base.transformap.co/wiki/File:Mesteshukar_ButiQ_Cluj.jpg","name":"Mesteshukar ButiQ Cluj","shop":"gifts","type_of_initiative":"other","website":"https://www.facebook.com/MesteshukarButiqCluj/?fref=ts"},"geometry":{"type":"Point","coordinates":[23.58768,46.766763]}},{"type":"Feature","properties":{"POI_TYPE":"tailor","SSEDAS_PARTNER":"TERRAIII","addr:city":"Târgu Mureș","addr:country":"RO","addr:housenumber":"14","addr:postcode":"540090","addr:street":"Cosminului","contact:email":"office.ms@utildeco.ro","contact:phone":"+40 265254987","craft":"tailor","description":"Util Deco is a protected unit, which has 36 people with disabilities employed. The unit is providing services of archiving and storing documents; Tailoring and personalization; Printing and bookbinding; products and services brokerage.","description:ro":"Util Deco este o unitate protejată, ce are angajate 36 persoane cu dizabilități și prestează servicii de Arhivare și depozitare documente; Croitorie și personalizare; Tipografie și legătorie; Intermediere de produse și servicii.","free_keywords":"tailoring;archiving;printing","image":"https://base.transformap.co/wiki/File:Util_Deco.jpg","name":"Util Deco","type_of_initiative":"socialinclusion_employment","website":"http://www.utildeco.ro/"},"geometry":{"type":"Point","coordinates":[24.56860303439,46.54946380826]}},{"type":"Feature","properties":{"POI_TYPE":"Archive","SSEDAS_PARTNER":"TERRAIII","addr:city":"Iași","addr:country":"RO","addr:housenumber":"5","addr:postcode":"707316","addr:street":"Bazinelor","contact:email":"comenzi@utildeco.ro","contact:phone":"+40 232275568","description":"Util Deco is a protected unit, which has 36 people with disabilities employed. The unit is providing services of archiving and storing documents; Tailoring and personalization; Printing and bookbinding; products and services brokerage.","description:ro":"Util Deco este o unitate protejată, ce are angajate 36 persoane cu dizabilități și prestează servicii de Arhivare și depozitare documente; Croitorie și personalizare; Tipografie și legătorie; Intermediere de produse și servicii.","free_keywords":"tailoring;archiving;printing","image":"https://base.transformap.co/wiki/File:Util_Deco.jpg","name":"Util Deco","type_of_initiative":"socialinclusion_employment","website":"http://www.utildeco.ro/"},"geometry":{"type":"Point","coordinates":[27.48801,47.180078]}},{"type":"Feature","properties":{"POI_TYPE":"event planning","SSEDAS_PARTNER":"TERRAIII","addr:city":"Călărași","addr:country":"RO","addr:postcode":"917025","addr:street":"Chirnogi","contact:email":"asociatiasukarevent@gmail.com","contact:phone":"+40 728991264","description":"Sukar Event offers event planning services and ethnic tourism in Roma communities from Calarasi County and beyond.","description:ro":"Sukar Event oferă servicii de organizare de evenimente și turism etnic în comunitățile de romi din județul Călărași și nu numai.","free_keywords":"event planning;wedding;christening","image":"https://base.transformap.co/wiki/File:Shukar_Event.jpg","name":"Shukar Event","type_of_initiative":"other","website":"http://sukarevent.ro/"},"geometry":{"type":"Point","coordinates":[26.594152,44.110847]}},{"type":"Feature","properties":{"POI_TYPE":"Constructions","SSEDAS_PARTNER":"TERRAIII","addr:city":"Tulcea","addr:country":"RO","addr:postcode":"827040","addr:street":"Ceatalchioi","contact:email":"ecostyleconstruct@gmail.com","contact:phone":"+40 726385303","description":"Style Eco Construct installed a dedicated hall for nature friendly constructions. The association offers local craftsmen a way to use their skills and creates jobs in an area where only waves of tourists can bring wealth.","description:ro":"Eco Style Construct a instalat o hală dedicată construcțiilor apropiate de natura. Asociația oferă meșterilor locali o modalitate de a-și folosi îndemânarea și creează locuri de muncă într-o zonă în care doar valurile de turiști mai pot aduce bunăstare.","free_keywords":"traditional constructions;thatched roof;Danube Delta","image":"https://base.transformap.co/wiki/File:Eco_Style_Construct.jpg","name":"EcoStyle Construct","type_of_initiative":"other_infraressources","website":"http://butiq7.romanobutiq.ro/despre-noi/afaceri-sociale/eco-style-construct/"},"geometry":{"type":"Point","coordinates":[28.784968,45.287096]}},{"type":"Feature","properties":{"POI_TYPE":"gift store","SSEDAS_PARTNER":"TERRAIII","addr:city":"București","addr:country":"RO","addr:housenumber":"7","addr:postcode":"10017","addr:street":"Edgar Quinet","contact:email":"office@romanobutiq.ro","contact:phone":"+40 743484015","description":"Meşteshukar ButiQ (MBQ) is a network of social enterprises supporting traditional Roma crafts. The store highlights products created by artisans and designers from silver, copper, wood, wicker and textiles.","description:ro":"Meşteshukar ButiQ (MBQ) este o rețea de întreprinderi sociale care susține meșteșugurile tradiționale ale romilor. Magazinul evidențiază produsele create de meșteșugari și designeri din argint, cupru, lemn, răchită și textile.","free_keywords":"roma craft;gift shop;jewelry","image":"https://base.transformap.co/wiki/File:Mesteshukar_ButiQ.jpg","name":"Mesteshukar ButiQ","opening_hours":"http://mbq.ro/pages/contact","shop":"gifts","type_of_initiative":"other","website":"http://mbq.ro/"},"geometry":{"type":"Point","coordinates":[26.09912257672,44.43563674236]}},{"type":"Feature","properties":{"POI_TYPE":"gift store","SSEDAS_PARTNER":"TERRAIII","addr:city":"Sibiu","addr:country":"RO","addr:postcode":"550182","addr:street":"Piața Mică","contact:email":"mbq.mobil@gmail.com","contact:phone":"+40 720220025","description":"Caravana Meșteshukarilor aims to combine modalities of social economy with old Roma craft traditions and contemporary creativity in product design and fashion.","description:ro":"Caravana Meșteshukarilor urmărește să îmbine modalitățile de funcționare ale economiei sociale cu vechile tradiții meșteșugărești rome și creativitatea contemporană în materie de design de produs și vestimentar.","free_keywords":"mobile shop;roma craft;gift","image":"https://base.transformap.co/wiki/File:18_Caravana_Mesteshukarilor.jpg","name":"Caravana Mesteshukarilor","shop":"gifts","type_of_initiative":"other","website":"http://caravana-mbq.ro/"},"geometry":{"type":"Point","coordinates":[24.150923,45.797125]}},{"type":"Feature","properties":{"POI_TYPE":"Restaurant","SSEDAS_PARTNER":"TERRAIII","addr:city":"București","addr:country":"RO","addr:housenumber":"101-125","addr:postcode":"60646","addr:street":"Drumul Sabareni","amenity":"restaurant","contact:email":"pakivalorestaurant@gmail.com","contact:phone":"+40 720939798","description":"Zaiafet offers catering services with varied and tasty dishes inspired by the culinary culture of the Roma people. Influences can be determined in the way of cooking ( cauldron cooked dishes, well-cooked steaks), and in the specific ingredients.","description:ro":"Zaiafet oferă servicii de catering, cu feluri de mâncare variate și gustoase, inspirate din cultura culinară romani. Influențele pot fi­ sesizate în modul de preparare (preparate la ceaun, fripturi gătite bine), cât si în ingredientele speci­fice.","free_keywords":"catering;roma food;tasty","image":"https://base.transformap.co/wiki/File:Zaiafet.jpg","name":"Restaurant Zaiafet","type_of_initiative":"other","website":"http://butiq7.romanobutiq.ro/despre-noi/afaceri-sociale/sukarchef/"},"geometry":{"type":"Point","coordinates":[26.02721827976,44.41754495866]}},{"type":"Feature","properties":{"POI_TYPE":"handicraft craftsman","SSEDAS_PARTNER":"TERRAIII","addr:city":"București","addr:country":"RO","addr:housenumber":"101-125","addr:postcode":"60646","addr:street":"Drumul Sabareni","contact:email":"office@romanobutiq.ro","contact:phone":"+40 734800282","craft":"handicraft","description":"Atelierul de Design harness Roma craftsmen products. With a network of suppliers as craftsmen and cooperatives across the country, the studio works with international designers to develop a line of contemporary products made by ancient techniques.","description:ro":"Atelierul de Design valorizează produsele meşteşugarilor romi. Având ca furnizori meşteşugari şi cooperative din țară, atelierul lucrează cu designeri internaționali pentru dezvoltarea unei linii de produse contemporane realizate prin tehnici străvechi.","free_keywords":"roma craft;design;handicraft products","image":"https://base.transformap.co/wiki/File:atelierul_de_design.jpg","name":"Atelierul de design  RBQ","type_of_initiative":"other","website":"http://pakivalobutiq.romanobutiq.ro/despre-noi/afaceri-sociale/atelierul-de-design/"},"geometry":{"type":"Point","coordinates":[26.02696346991,44.41745683224]}},{"type":"Feature","properties":{"POI_TYPE":"Print shop","SSEDAS_PARTNER":"TERRAIII","addr:city":"Constanța","addr:country":"RO","addr:housenumber":"49","addr:postcode":"900684","addr:street":"Decebal","contact:email":"office.ct@utildeco.ro","contact:phone":"+40 241670350","description":"Util Deco is a protected unit, which has 36 people with disabilities employed. The unit is providing services of archiving and storing documents; Tailoring and personalization; Printing and bookbinding; products and services brokerage.","description:ro":"Util Deco este o unitate protejată, ce are angajate 36 persoane cu dizabilități și prestează servicii de Arhivare și depozitare documente; Croitorie și personalizare; Tipografie și legătorie; Intermediere de produse și servicii.","free_keywords":"tailoring;archiving;printing","image":"https://base.transformap.co/wiki/File:Util_Deco.jpg","name":"Util Deco","type_of_initiative":"other","website":"http://www.utildeco.ro/"},"geometry":{"type":"Point","coordinates":[28.644153,44.180381]}},{"type":"Feature","properties":{"POI_TYPE":"confectionery factory","SSEDAS_PARTNER":"TERRAIII","addr:city":"Săftica, Ilfov","addr:country":"RO","addr:postcode":"77017","addr:street":"Calea București","contact:email":"mbqfashion@gmail.com","contact:phone":"+40 722518156","craft":"confectionery","description":"Zigzag is a textile workshop which produces textiles with quality materials at fair prices. Collections of bedding, decorative pillows, bags and scarves are just some of the products launched.","description:ro":"Zig-Zag este un atelier de confecţii textile din care produce confecții textile din materiale de calitate la prețuri corecte. Colecțiile de așternuturi, perne decorative, genți și eșarfe sunt doar câteva din produsele deja lansate.","free_keywords":"clothes;quality;design","image":"https://base.transformap.co/wiki/File:Zig_Zag.jpg","name":"Zig Zag","type_of_initiative":"other","website":"https://www.facebook.com/Zig-Zag-1498283340494522/timeline"},"geometry":{"type":"Point","coordinates":[26.069149,44.623817]}},{"type":"Feature","properties":{"POI_TYPE":"tailor","SSEDAS_PARTNER":"TERRAIII","addr:city":"București","addr:country":"RO","addr:housenumber":"4","addr:postcode":"30192","addr:street":"Sarmizegetusa","contact:email":"contact@atelieruldepanza.ro","contact:phone":"+40 372918603","craft":"tailor","description":"Atelierul de Pânză uses 100% natural cotton and reused textile materials  to manufacture textile bags and other objects (pencil boxes, beauty bags, laptop cases). Most employees are people with disabilities and come from vulnerable groups.","description:ro":"În “Atelierul de Pânză” se confecționează sacoșe din bumbac 100% natural  și alte obiecte din materiale textile reutilizate (penare, portfarduri, huse laptop). Majoritatea angajaților sunt persoane cu dizabilități și din grupuri vulnerabile.","free_keywords":"bags;caanvas;protected unit","image":"https://base.transformap.co/wiki/File:Atelierul_de_panza.jpg","name":"Atelierul de pânză","type_of_initiative":"other; socialinclusion_employment; upcycling","website":"https://www.atelieruldepanza.ro/"},"geometry":{"type":"Point","coordinates":[26.10509,44.433347]}},{"type":"Feature","properties":{"POI_TYPE":"consumer cooperative (food coop)","SSEDAS_PARTNER":"Desa","addr:city":"Mlini","addr:country":"HR","addr:housenumber":"54","addr:postcode":"20207","club":"foodcoop","contact:phone":"+385 91 5611712","description":"Veterans association Eco-Zupa is engaged in various activities: cultivation of aromatic plants, making essential oils, breeding and production quince chees, honey and bee products, as well as olives and olive oil production.","description:hr":"Braniteljska zadruga Eko-Zupa osnovana je 2010. godine, a za sad broji 11 članova, koji se bave raznim djelatnostima: uzgojem aromaticnog bilja, pravljenjem etericnih ulja, uzgojem dunja i proizvodnjom kontonjate, meda i pcelinjih proizvoda, te uzgojem maslina i proizvodnjom maslinovog ulja.","fair-trade":"only","free_keywords":"food;veteran cooperative;agriculture production and trade","name":"Braniteljska zadruga EKO Zupa","opening_hours":"ondemand","organic":"yes","regional":"limited","type_of_initiative":"socialinclusion_employment; other; other_growyourself","addr:street":"Martinovici"},"geometry":{"type":"Point","coordinates":[18.18347811699,42.65108057605]}},{"type":"Feature","properties":{"POI_TYPE":"gift store","SSEDAS_PARTNER":"Desa","addr:city":"Metkovic","addr:country":"HR","addr:housenumber":"19","addr:postcode":"20350","contact:email":"uosi.prijatelj.radionica@gmail.com","contact:phone":"385 20 681 670","description":"The goal of Social cooperative Prijateljica is to  employ and include persons with disabilities and other socially excluded groups in the production of high quality products made of recycled materials.","description:hr":"Cilj Socijalne zadruge Prijateljica je zaposljavane te ukljucivanja osoba s invaliditetom i drugih drustveno iskljucenih skupina u proizvodnju kvalitetnih i trazenih proizvoda napravljenih od recikliranih materijala.","fair-trade":"no","free_keywords":"employment of PWD;social cooperative","image":"http://www.uosim.hr/wp-content/uploads/2013/09/vijest.jpg","image:author":"Udruga Prijatelj","image:license":"CC-BY","name":"Socijalna zadruga Prijateljica","opening_hours":"ondemand","organic":"no","regional":"yes","shop":"gifts","type_of_initiative":"socialinclusion_employment; upcycling; recycling","website":"http://www.uosim.hr/shop/","addr:street":"Ante Starcevica"},"geometry":{"type":"Point","coordinates":[17.64435142279,43.0529946338]}},{"type":"Feature","properties":{"POI_TYPE":"Association Office","SSEDAS_PARTNER":"Desa","addr:city":"Metkovic","addr:country":"HR","addr:housenumber":"3","addr:postcode":"20350","addr:street":"Športska","contact:email":"uosi.prijatelj@gmail.com","contact:phone":"+385 20 680 090","description":"Association Prijatelj - a non-profit and non-governmental organization engaged in social and humanitarian activities of importance to people with disabilities.","description:hr":"Prijatelj – je neprofitna i nevladina udruga koja obavlja socijalno-humanitarne djelatnosti od vaznosti za osobe s invaliditetom.","fair-trade":"no","free_keywords":"PWD association","image":"http://www.uosim.hr/wp-content/uploads/2013/09/vijest.jpg","image:author":"Udruga Prijatelj","image:license":"CC-BY","name":"Udruga Prijatelj","office":"association","opening_hours":"ondemand","organic":"no","regional":"only","type_of_initiative":"ngo; socialinclusion_empowerment; other_socialinclusion","website":"http://www.uosim.hr/onama/"},"geometry":{"type":"Point","coordinates":[17.64610290527,43.05132865306]}},{"type":"Feature","properties":{"POI_TYPE":"Association Office","SSEDAS_PARTNER":"Desa","addr:city":"Dubrovnik","addr:country":"HR","addr:housenumber":"3","addr:postcode":"20000","contact:email":"kinookus@gmail.com","contact:phone":"+385 20 428125","description":"Trough food film festival educaing public on problems concering industrial food production.","description:hr":"Kroz Food film festival Kinookus educira javnost o problemima koji se tiču industrijsku proizvodnju hrane.","fair-trade":"yes","free_keywords":"food;food film fesitval;education of audience on problems concerning industrial food production","image":"http://www.kinookus.com.hr/images/KinoOkus/2013/KINOFOKUS/IMG_4504.JPG","image:author":"Kinookus","image:license":"CC-BY","name":"Kinookus","office":"association","opening_hours":"ondemand","organic":"yes","regional":"no","type_of_initiative":"other; consumerism_awareness; sse_education","website":"http://kinookus.hr","addr:street":"Pera Budmani"},"geometry":{"type":"Point","coordinates":[18.10408070683,42.64475661448]}},{"type":"Feature","properties":{"POI_TYPE":"Association Office","SSEDAS_PARTNER":"Desa","addr:city":"Dubrovnik","addr:country":"HR","addr:housenumber":"3","addr:postcode":"20000","contact:email":"kinookus@gmail.com","contact:phone":"+385 20 428125","description":"Dubrovnik Convivium is focused on assistance and support to small traditional producers, youth education on topics of healthy nutrition, environmental protection and the preservation of local gastronomic heritage.","description:hr":"Slow food Convivium pruza potporu malim tradicionalnim proizvodacima, obrazovanje mladih  na temu zdrave prehrane, zastite okolisa i ocuvanje lokalne gastronmske bastine.","fair-trade":"yes","free_keywords":"food;slow food convivium;support and education of small traditional producers","name":"Slow food convivium Dubrovnik","office":"association","opening_hours":"ondemand","organic":"yes","regional":"yes","type_of_initiative":"other_communities; agro_empowerment; other_education; consumerism_awareness; entrepreneurship_education; other","website":"http://www.kinookus.com.hr/index.php/en/slow-food-2","addr:street":"Pera Budmani"},"geometry":{"type":"Point","coordinates":[18.10406595469,42.64475858743]}},{"type":"Feature","properties":{"POI_TYPE":"Association Office","SSEDAS_PARTNER":"Desa","addr:city":"Zagreb","addr:country":"HR","addr:housenumber":"36","addr:postcode":"10000","addr:street":"Ilica","contact:email":"zef@zef.hr","description":"ZEF is encouraging  social inclusion, sustainable development, social economy and social entrepreneurship, raising public awareness about the role of money and the collapse of the economy.   Primary objective is to establish First Croatian ethical bank.","description:hr":"ZEF potice drustvenu ukljucenost, odrzivi razvoj, socijalnu ekonomiju i drustveno poduzetnistvo, podizanje javne svijesti o ulozi novca i kolapsa gospodarstva. Primarni cilj je uspostaviti prve hrvatsku eticnu banku.","fair-trade":"no","free_keywords":"finances;ethical financing;Solidarity banking","name":"Zadruga za eticno financiranje","office":"association","opening_hours":"ondemand","organic":"no","regional":"yes","type_of_initiative":"other_finance; ethicalfinance_education; consumerism_awareness; sse_education"},"geometry":{"type":"Point","coordinates":[15.9711689,45.81334818]}},{"type":"Feature","properties":{"POI_TYPE":"gift store","SSEDAS_PARTNER":"Desa","addr:city":"Dubrovnik","addr:country":"HR","addr:housenumber":"8","addr:postcode":"20000","addr:street":"Ulica Frana Supila","contact:email":"info@desapro.hr","contact:phone":"+385 20 420145","description":"through its activities company is contributing to job creation for socialy exluded groups using local resources.","description:hr":"kroz svoju djelatnost tvrtka doprinosi stvaranju radnih mjesta za marginalizirane koristeci lokalne resurse","fair-trade":"limited","free_keywords":"food;social enterprise;production and trade","name":"DESA pro d.o.o.","opening_hours":"During winter ondemand. During summer  Mo-Sat 10h – 20h","organic":"yes","regional":"limited","shop":"gifts","type_of_initiative":"socialinclusion_employment; other","website":"http://desa-dubrovnik.hr/wp-content/uploads/DESA-Ponuda_2015.pdf"},"geometry":{"type":"Point","coordinates":[18.11540365219,42.64161461633]}},{"type":"Feature","properties":{"POI_TYPE":"club","SSEDAS_PARTNER":"Desa","addr:city":"Dubrovnik","addr:country":"HR","addr:postcode":"20000","club":"yes","description":"Members of these groups respond to the request to people who contact us and they need food aid, footwear, clothes, furniture and the like.","description:hr":"Clanovi ove grupe odgovaraju na potrebe ljudi kojima trebaju odjeca, obuca, hrana, namjestaj smjestaj i slicno.","fair-trade":"no","free_keywords":"FB page;citizens initiative for help","name":"FB Pomoć za dubrovcane","organic":"no","regional":"only","type_of_initiative":"community_group; other_mutualsociety; mutualsociety_aid","website":"https://www.facebook.com/groups/567963569888663/?fref=ts"},"geometry":{"type":"Point","coordinates":[18.1101599687,42.6410175474]}},{"type":"Feature","properties":{"name":"Magniti Ltd","addr:country":"BG","addr:street":"Филиповско шосе","addr:housenumber":"38","addr:postcode":"1324","addr:city":"София","POI_TYPE":"Arts Centre","amenity":"arts_centre","description:bg":"Магнитите Магнетична България са: 1. Българското производство, 2. Ръчна изработка, 3. Рециклируеми - технология опазваща околната среда и 4. Създадени за подкрепа на благородни каузи","website":"http://www.magneticbulgaria.eu/bg/","contact:email":"sales@magneticbulgaria.eu","organic":"no","fair-trade":"no","regional":"no","free_keywords":"artshop;souvenirs;magnets","SSEDAS_PARTNER":"BILS","description":"Magnetic Bulgaria magnets are: 1.Bulgarian production, 2.Handmade 3.Recyclable - Environmentally friendly technology and 4. Designed to support noble causes","type_of_initiative":"other; mutualsociety_aid; eco_art; upcycling","contact:phone":"+359 896609809"},"geometry":{"type":"Point","coordinates":[23.26010584831,42.72398602833]}},{"type":"Feature","properties":{"name":"Hrancoop","addr:country":"BG","addr:street":"ул. Стара стена","addr:housenumber":"3","addr:postcode":"1164","addr:city":"София","POI_TYPE":"farmers market","amenity":"marketplace","description:bg":"Неформална група хора, търсещи чиста храна. Основната дейност на групата е директен контакт и диалог с производители на био, еко и органична храна.","website":"http://www.hrankoop.com/","contact:email":"co@hrankoop.com","organic":"yes","fair-trade":"yes","regional":"yes","free_keywords":"farmer market;local farmers;fresh food","SSEDAS_PARTNER":"BILS","type_of_initiative":"local_farmersmarket; networking_initiative; agro_empowerment; consumerism_awareness"},"geometry":{"type":"Point","coordinates":[23.3298288,42.6837138]}},{"type":"Feature","properties":{"name":"Maria's World Foundation","addr:country":"BG","addr:street":"бул. България","addr:housenumber":"88","addr:postcode":"1680","addr:city":"София","POI_TYPE":"cafe","amenity":"cafe","description:bg":"Подпомага личностната им реализация чрез осигуряване на достъп до качествени услуги, развиващо обучение и подходяща трудова заетост.","website":"http://www.mariasworld.org","contact:email":"office@mariasworld.org","organic":"no","fair-trade":"no","regional":"limited","free_keywords":"people with intellectual disabilities;employment","SSEDAS_PARTNER":"BILS","description":"Help people with intellectual disabilities to achieve their full potential as individuals by providing access to high-quality services, developmental training and possibilities for gainful employment that are suited to their needs.","type_of_initiative":"socialinclusion_empowerment; other_socialinclusion; other_education; socialinclusion_employment","contact:phone":"+359 2 808 171"},"geometry":{"type":"Point","coordinates":[23.28574422933,42.6625012]}},{"type":"Feature","properties":{"name":"Bulgarian Food Bank","addr:country":"BG","addr:street":"бул. Васил Левски","addr:housenumber":"106","addr:postcode":"1000","addr:city":"София","POI_TYPE":"food bank","amenity":"social_facility","description:bg":"Организацията работи като свързващо звено между хранителната индустрия и социалните организации, за да увеличи многократно достъпа до хранително подпомагане в България. Тя създава системи за сигурност и контрол на храните, които постъпват като дарения.","website":"http://bgfoodbank.org","contact:email":"contact@bgfoodbank.org","organic":"no","fair-trade":"no","regional":"yes","free_keywords":"food bank;food waste","SSEDAS_PARTNER":"BILS","description":"The organisation acts as an interface between the food industry and social welfare organisations to increase access to food aid in Bulgaria. It sets up routines for guaranteeing that donated food is safe and properly managed.","type_of_initiative":"foodbank; recycling_foodwaste","contact:phone":"+3592 953 4100","social_facility":"food_bank"},"geometry":{"type":"Point","coordinates":[23.33513259888,42.69809702239]}},{"type":"Feature","properties":{"name":"Farmhopping","addr:country":"BG","addr:street":"Крум Попов","addr:housenumber":"56","addr:postcode":"1421","addr:city":"София","POI_TYPE":"farmers market","amenity":"marketplace","description:bg":"farmhopping е спасението на градския човек, който иска да пазарува чиста храна от малки български ферми, произведена с грижа както за неговото здраве, така и за природата.","website":"https://farmhopping.com","contact:email":"info@farmhopping.com","organic":"yes","fair-trade":"yes","regional":"yes","free_keywords":"farmer market;local farmers;fresh food","SSEDAS_PARTNER":"BILS","description":"The organisation acts as an interface between the food industry and social welfare organisations to increase access to food aid in Bulgaria. It sets up routines for guaranteeing that donated food is safe and properly managed.","type_of_initiative":"recycling_foodwaste; other_foodrescue","contact:phone":"+359700 20 080","opening_hours:url":"http://www.betahaus.bg/en/"},"geometry":{"type":"Point","coordinates":[23.3264575,42.6812103]}},{"type":"Feature","properties":{"name":"Workshop for candies and ceramics Concordia","addr:country":"BG","addr:street":"Павлина Унуфриева","addr:housenumber":"4","addr:postcode":"1410","addr:city":"София","POI_TYPE":"art store","description:bg":"Предлага на своите клиенти висококачествени ръчно изработени и естетични декоративни свещи, както и различни глинени изделия.","website":"http://www.concordia.bg/nashite-proekti/socialni-predpriyatiya/atelie-concordia/","contact:email":"bulgaria@concordia.bg","organic":"no","fair-trade":"no","regional":"no","free_keywords":"social entrepreneurship;artshop;candles","SSEDAS_PARTNER":"BILS","shop":"art","description":"It offers its customers high quality handmade aesthetic and decorative candles , and various earthenware.","type_of_initiative":"other; mutualsociety_aid; eco_art","contact:phone":"+359 2 9368620"},"geometry":{"type":"Point","coordinates":[23.3395505,42.7064808]}},{"type":"Feature","properties":{"POI_TYPE":"Association Office","SSEDAS_PARTNER":"ThinkGlobal","addr:city":"London","addr:country":"GB","addr:housenumber":"17a","addr:postcode":"E1 5LN","addr:street":"Heneage Street","description":"Online fairtrade and ethical fashion","type_of_initiative":"other_fairtrade","name":"People Tree","website":"http://www.peopletree.co.uk/","office":"association"},"geometry":{"type":"Point","coordinates":[-0.0704819,51.5189247]}},{"type":"Feature","properties":{"POI_TYPE":"Association Office","SSEDAS_PARTNER":"ThinkGlobal","addr:city":"Portsmouth","addr:country":"GB","addr:housenumber":"1","addr:postcode":"PO1 2HB","addr:street":"Saint Thomas's Street","description":"Co-operative and social enterprise support local enterprises and communities","type_of_initiative":"other; networking_initiative; entrepreneurship_education; business_incubators; socialinclusion_employment; coworking","name":"Cathedral Innovation Centre","website":"http://www.cathedralinnovationcentre.com/","office":"association"},"geometry":{"type":"Point","coordinates":[-1.10465168953,50.79081270723]}},{"type":"Feature","properties":{"POI_TYPE":"Community garden","SSEDAS_PARTNER":"ThinkGlobal","addr:city":"Oxon","addr:country":"GB","addr:postcode":"OX14 4QZ","addr:street":"The Earth Trust, Little Wittenham","description":"Co-operative owned and funded by the community- grow own vegetables and create a local food system in Oxford","type_of_initiative":"community_group; other_growyourself; community_garden","name":"Cultivate","website":"http://cultivateoxford.org/","leisure":"garden","garden:type":"community"},"geometry":{"type":"Point","coordinates":[-1.1882128,51.6296914]}},{"type":"Feature","properties":{"POI_TYPE":"Association Office","SSEDAS_PARTNER":"ThinkGlobal","addr:city":"London","addr:country":"GB","addr:housenumber":"108","addr:postcode":"SE1 9NH","addr:street":"Stamford Street","description":"Social enterprise supporting local neighbourhood through co-operatives","type_of_initiative":"other; bicycle_selfrepair; bicycle_awareness","name":"Coin Street Community Builders","website":"https://www.coinstreet.org","office":"association"},"geometry":{"type":"Point","coordinates":[-0.11064692611,51.50622065183]}},{"type":"Feature","properties":{"POI_TYPE":"Association Office","SSEDAS_PARTNER":"ThinkGlobal","addr:city":"Ramsgate","addr:country":"GB","addr:postcode":"CT11 8LP","addr:street":"Harbour Parade","description":"Transformative project turning an old building into a community asset with support of local people","type_of_initiative":"other; freespace; other_infraressources; community_group; coworking;","name":"Project Motor House","website":"http://www.projectmotorhouse.org.uk/","office":"association"},"geometry":{"type":"Point","coordinates":[1.4227947,51.3321348]}},{"type":"Feature","properties":{"POI_TYPE":"bakery","SSEDAS_PARTNER":"ThinkGlobal","addr:city":"London","addr:country":"GB","addr:housenumber":"13","addr:postcode":"E8 4ED","addr:street":"Stean Street","description":"artisan bakery and a social enterprise based in Haggerston, London, producing handcrafted traditional sourdough breads and providing trainee placements to people recovering from mental ill health.","type_of_initiative":"other; other_buylocal;  socialinclusion_employment;","name":"Better Health Bakery","shop":"bakery","website":"http://www.betterhealthbakery.org.uk/"},"geometry":{"type":"Point","coordinates":[-0.0751306,51.5375402]}},{"type":"Feature","properties":{"POI_TYPE":"Association Office","SSEDAS_PARTNER":"ThinkGlobal","addr:city":"London","addr:country":"GB","addr:housenumber":"1","addr:postcode":"EC4A 3DE","addr:street":"Gough Square","description":"Community-interest company supporting fair trade in Palestine, by creating a market in the UK for consumers","type_of_initiative":"other_mutualsociety; directtrade","name":"Zaytoun","website":"https://www.zaytoun.com","office":"association"},"geometry":{"type":"Point","coordinates":[-0.10782609021,51.5150288]}},{"type":"Feature","properties":{"POI_TYPE":"second hand shop","SSEDAS_PARTNER":"ThinkGlobal","addr:city":"Portchester","addr:country":"GB","addr:housenumber":"Unit 3","addr:postcode":"PO16 9SF","addr:street":"Castle Trading Estate","description":"Community interest company committed to recycling equipment and furniture, help unemployed people with jobs and volunteering opportunities","type_of_initiative":"recycling; upcycling;  socialinclusion_employment; other;","name":"Edu-Care Recycling UK","shop":"second_hand","website":"http://www.educarerecycling.com/","free_keywords":"recycling;upcylcing;used_goods;socialinclusion_employment"},"geometry":{"type":"Point","coordinates":[-1.118778,50.8451175]}},{"type":"Feature","properties":{"POI_TYPE":"Association Office","SSEDAS_PARTNER":"ThinkGlobal","addr:city":"London","addr:country":"GB","addr:housenumber":"18","addr:postcode":"E8 3DL","addr:street":"Ashwin Street","description":"Provides affordable office space to new local enterprises, creates jobs for local youth and has events to bring community together.","type_of_initiative":"other; networking_initiative; entrepreneurship_education; business_incubators; socialinclusion_employment; coworking","name":"Bootstrap Company","website":"http://www.bootstrapcompany.co.uk/","office":"association"},"geometry":{"type":"Point","coordinates":[-0.07445566686,51.5469408579]}},{"type":"Feature","properties":{"POI_TYPE":"Association Office","SSEDAS_PARTNER":"ThinkGlobal","addr:city":"Essex","addr:country":"GB","addr:postcode":"IG2 7BB","addr:street":"St. Johns Close","description":"Social enterprise supporting local people to create their own businesses and connect with others","type_of_initiative":"networking_initiative; entrepreneurship_education; business_incubators;","name":"Sophia Hub","website":"http://sophiahubs.com/","office":"association","addr:housename":"St John's Church Centre"},"geometry":{"type":"Point","coordinates":[0.92825952822,51.91122485]}},{"type":"Feature","properties":{"POI_TYPE":"Association Office","SSEDAS_PARTNER":"ThinkGlobal","addr:city":"Hastings","addr:country":"GB","addr:housenumber":"42644","addr:postcode":"TN34 1JU","addr:street":"White Rock","description":"White Rock Trust now works to care for and improve the whole neighbourhood. The Trust is led by and for the benefit of local residents, businesses and other White Rock champions.","type_of_initiative":"other; networking_initiative","name":"White Rock Trust","website":"http://www.whiterocktrust.org.uk/","office":"association"},"geometry":{"type":"Point","coordinates":[0.5744742,50.8539151]}},{"type":"Feature","properties":{"POI_TYPE":"bicycle store","SSEDAS_PARTNER":"ThinkGlobal","addr:city":"London","addr:country":"GB","addr:housenumber":"296-298","addr:postcode":"SW9 6AG","addr:street":"Brixton Road","description":"Co-operative bike shop and repair shop that has been around for over 30 years, providing support to local people","type_of_initiative":"other; bicycle_selfrepair; bicycle_awareness","name":"Brixton Cycles Co-op","shop":"bicycle","website":"http://www.brixtoncycles.co.uk/"},"geometry":{"type":"Point","coordinates":[-0.11246495299,51.46918061752]}},{"type":"Feature","properties":{"POI_TYPE":"Restaurant","SSEDAS_PARTNER":"ThinkGlobal","addr:city":"Southsea","addr:country":"GB","addr:housenumber":"102","addr:postcode":"PO5 3PT","addr:street":"Palmerston Road","description":"Co-operative selling wholefoods","type_of_initiative":"food_cooperative","name":"Wild Thyme Wholefoods","website":"http://www.wildthymewholefoods.co.uk/","amenity":"restaurant"},"geometry":{"type":"Point","coordinates":[-1.0888597,50.7834005]}}],"_id":"5d6b9d3d32097fd6832200874402cfc3"}